{"type":"FeatureCollection","features":[{"type":"Feature","geometry":{"type":"MultiLineString","coordinates":[[[31.78388,52.10805],[31.78604,52.15756],[31.59382,52.31312],[31.62875,52.36721],[31.58708,52.59221],[31.50514,52.68783],[31.55514,52.70145],[31.59375,52.73715],[31.57972,52.80457],[31.53847,52.85471],[31.48486,52.86125],[31.41527,52.89305],[31.26666,53.02332],[31.38684,53.10402],[31.37483,53.12193],[31.38319,53.15347],[31.4,53.1886],[31.42576,53.20881],[31.62319,53.21777],[31.77646,53.19269],[31.79965,53.13214],[31.91833,53.09833],[32.11208,53.08721],[32.22332,53.10555],[32.29888,53.13193],[32.42194,53.1961],[32.61194,53.31305],[32.72444,53.36027],[32.74006,53.45881],[32.66513,53.49847],[32.62027,53.49986],[32.47374,53.55277],[32.44353,53.57284],[32.42444,53.60124],[32.42054,53.64756],[32.50548,53.68277],[32.4843,53.71222],[32.45666,53.72457],[32.11971,53.81999],[31.8902,53.77811],[31.76423,53.80435],[31.77916,53.83735],[31.82888,53.88638],[31.85722,53.96971],[31.86392,54.0]],[[24.83473,54.0],[24.82673,53.98437],[24.72402,53.97019],[24.69562,53.99652],[24.61222,53.99222],[24.39166,53.89034],[24.26736,53.90721],[24.2418,53.94569],[24.17555,53.96749],[24.14958,53.96527],[24.08493,53.93756],[23.89888,53.94054],[23.70944,53.92388],[23.50404,53.94704],[23.51001,53.89932],[23.53972,53.84083],[23.64027,53.55916],[23.85861,53.19582],[23.93319,53.01208],[23.92749,52.94838],[23.9411,52.74972],[23.93527,52.71749],[23.9118,52.69319],[23.7468,52.61464],[23.68833,52.61721],[23.59722,52.59638],[23.50361,52.5675],[23.39722,52.51444],[23.24838,52.37449],[23.1654,52.28227],[23.19277,52.23319],[23.21472,52.22346],[23.34833,52.2068],[23.595,52.11194],[23.63861,52.07944],[23.66083,52.0061],[23.6268,51.95207],[23.55805,51.75249],[23.54778,51.68638],[23.55548,51.6652],[23.53499,51.65359],[23.53917,51.59277],[23.56717,51.5396],[23.60463,51.52769],[23.64107,51.5235],[23.61329,51.60673],[23.65,51.63617],[23.75131,51.65179],[23.90159,51.63416],[23.9384,51.59611],[23.96347,51.58555],[24.04305,51.61027],[24.2834,51.74117],[24.31458,51.82403],[24.39423,51.88472],[24.8975,51.90069],[24.99194,51.91193],[25.17305,51.9593],[25.24097,51.95986],[25.35208,51.92861],[25.43999,51.92222],[25.68597,51.92235],[25.77042,51.93818],[26.02694,51.91027],[26.20777,51.85833],[26.43555,51.85617],[26.44,51.82305],[26.45722,51.81276],[26.64236,51.82069],[26.92652,51.75041],[26.97111,51.75222],[27.0193,51.76812],[27.17,51.76416],[27.20256,51.75131],[27.19937,51.67513],[27.28257,51.59819],[27.41667,51.59749],[27.45319,51.60277],[27.51197,51.62887],[27.68722,51.60139],[27.72447,51.58166],[27.68166,51.49319],[27.74791,51.46652],[27.8168,51.53326],[27.81389,51.59222],[27.83208,51.60916],[27.86597,51.6218],[27.98375,51.56583],[28.07902,51.56444],[28.13819,51.58305],[28.18201,51.63777],[28.21569,51.65569],[28.25673,51.65929],[28.31944,51.58916],[28.43333,51.5661],[28.49055,51.58111],[28.62826,51.56485],[28.63722,51.51],[28.66653,51.44666],[28.75715,51.41565],[28.76944,51.44805],[28.76604,51.48138],[28.81055,51.53444],[29.0525,51.6311],[29.11805,51.63694],[29.18139,51.61805],[29.24152,51.54097],[29.24958,51.50228],[29.31201,51.38763],[29.34222,51.37319],[29.62402,51.49068],[29.67583,51.4993],[29.71895,51.49103],[29.73822,51.45714],[29.76277,51.44083],[29.83444,51.44193],[29.91166,51.47276],[29.98333,51.48638],[30.17999,51.49152],[30.20722,51.48374],[30.34764,51.40006],[30.35027,51.35833],[30.55141,51.25185],[30.56777,51.29777],[30.6426,51.3312],[30.64375,51.36888],[30.55389,51.54194],[30.565,51.64333],[30.62597,51.70791],[30.66694,51.80111],[30.66208,51.82166],[30.74694,51.89527],[30.825,51.94749],[30.95889,52.00083],[30.93062,52.03222],[30.93499,52.0618],[30.95966,52.07935],[31.29625,52.08694],[31.34597,52.11375],[31.4225,52.11999],[31.78388,52.10805]]]},"properties":{"id":"10690812B6439167788480","country":"BLR","name":"Belarus"}}]}