{"type":"FeatureCollection","features":[{"type":"Feature","geometry":{"type":"Polygon","coordinates":[[[16.53527,46.9969],[16.30507,47.01094],[16.29134,47.00137],[16.27946,46.96491],[16.25569,46.96718],[16.2383,46.94971],[16.2103,46.94172],[16.1273,46.86869],[16.15575,46.86096],[16.23788,46.87549],[16.30056,46.87349],[16.36366,46.83434],[16.35394,46.80327],[16.33252,46.78511],[16.35035,46.77415],[16.34488,46.75232],[16.39667,46.70268],[16.39751,46.69007],[16.4376,46.68473],[16.43629,46.65157],[16.41279,46.65247],[16.41344,46.62916],[16.43436,46.62195],[16.50877,46.56006],[16.53293,46.55827],[16.55797,46.48818],[16.68755,46.45086],[16.76611,46.37982],[16.8314,46.37419],[16.88445,46.34814],[16.90791,46.32208],[16.91098,46.28754],[16.96811,46.23746],[17.17532,46.15869],[17.19663,46.14282],[17.19863,46.10817],[17.23152,46.09535],[17.30179,46.02938],[17.27815,46.01705],[17.28335,46.00552],[17.37891,45.96007],[17.39038,45.9446],[17.42579,45.93299],[17.44735,45.94006],[17.45373,45.95164],[17.56901,45.94455],[17.64618,45.90245],[17.65924,45.85472],[17.72518,45.84881],[17.76371,45.82743],[17.82704,45.8206],[17.85919,45.7864],[17.90082,45.80604],[17.99746,45.80513],[18.08069,45.78357],[18.14251,45.80286],[18.17078,45.79089],[18.20691,45.79865],[18.23839,45.7851],[18.32392,45.77235],[18.34286,45.77144],[18.36114,45.78647],[18.38399,45.78464],[18.39444,45.76415],[18.44395,45.76333],[18.4865,45.80695],[18.51517,45.79834],[18.574,45.81742],[18.61187,45.8479],[18.63293,45.87888],[18.65156,45.88317],[18.64681,45.89568],[18.67813,45.91911],[18.70466,45.91892],[18.78816,45.88919],[18.80538,45.89039],[18.81345,45.91151],[18.82693,45.91758],[18.881,45.91545],[18.9116,45.94029],[19.00697,45.93197],[19.00954,45.9637],[19.0779,45.9637],[19.0779,46.0041],[19.0983,46.03103],[19.11769,46.0374],[19.13638,46.03546],[19.16378,45.99741],[19.22583,46.00355],[19.30434,45.99392],[19.28682,46.01567],[19.36298,46.05451],[19.37637,46.05239],[19.38413,46.03411],[19.4004,46.03374],[19.47513,46.08562],[19.48238,46.10016],[19.52801,46.11262],[19.53175,46.1189],[19.51442,46.13986],[19.54726,46.14578],[19.57532,46.1701],[19.6297,46.16244],[19.67052,46.18514],[19.68117,46.17267],[19.70277,46.17886],[19.82166,46.13083],[19.94178,46.17785],[20.02,46.18217],[20.03594,46.1484],[20.07363,46.14801],[20.09173,46.18107],[20.10544,46.1827],[20.11233,46.16641],[20.13636,46.15016],[20.1898,46.16601],[20.21035,46.14106],[20.26812,46.12965],[20.27792,46.1592],[20.36149,46.1783],[20.4313,46.15995],[20.4722,46.16271],[20.4897,46.17169],[20.49493,46.20107],[20.51204,46.20352],[20.6383,46.15147],[20.71483,46.18769],[20.72672,46.21597],[20.75272,46.21803],[20.75272,46.25759],[20.84286,46.29741],[20.87261,46.29868],[20.90823,46.27558],[20.93984,46.29298],[20.96626,46.2766],[21.0259,46.28017],[21.05367,46.26213],[21.07283,46.26374],[21.12417,46.31714],[21.18034,46.3199],[21.18612,46.34637],[21.2059,46.36296],[21.1916,46.37682],[21.21199,46.4146],[21.23907,46.42949],[21.28612,46.42325],[21.31036,46.45822],[21.30784,46.4809],[21.26885,46.49301],[21.26798,46.52106],[21.31545,46.5805],[21.30084,46.59388],[21.3124,46.62043],[21.33401,46.63485],[21.40491,46.62628],[21.41464,46.64884],[21.44214,46.66294],[21.41908,46.68534],[21.43381,46.6929],[21.4469,46.6856],[21.49052,46.69081],[21.52459,46.7327],[21.4829,46.75017],[21.47764,46.76471],[21.49659,46.77899],[21.51894,46.84049],[21.58788,46.86228],[21.60119,46.90128],[21.58356,46.91473],[21.58983,46.93196],[21.61596,46.93243],[21.66568,46.96999],[21.64834,46.98576],[21.67108,47.00286],[21.63447,47.0249],[21.63542,47.03884],[21.65587,47.04532],[21.71153,47.09837],[21.75879,47.11162],[21.78223,47.16833],[21.82909,47.19522],[21.83852,47.21134],[21.81478,47.238],[21.84339,47.26609],[21.84917,47.31129],[21.87747,47.32594],[21.8955,47.36606],[21.91356,47.38216],[21.96681,47.38377],[21.99304,47.41079],[21.99188,47.44996],[21.96642,47.48429],[21.98964,47.5376],[22.05136,47.56245],[22.09187,47.60054],[22.1208,47.5893],[22.13966,47.59608],[22.15747,47.6426],[22.23354,47.72934],[22.27728,47.74885],[22.28489,47.76387],[22.33624,47.74853],[22.39506,47.74502],[22.40891,47.79479],[22.43735,47.81546],[22.5539,47.76282],[22.63744,47.7814],[22.68712,47.82902],[22.71565,47.84019],[22.73229,47.83126],[22.75987,47.84083],[22.74798,47.88166],[22.82928,47.90079],[22.89066,47.95309],[22.88729,47.96355],[22.84402,47.98424],[22.8464,47.99506],[22.87921,48.00015],[22.86732,48.00937],[22.88345,48.02561],[22.88284,48.04148],[22.83811,48.08052],[22.83546,48.10788],[22.81585,48.11312],[22.80504,48.1063],[22.79885,48.11804],[22.77695,48.11954],[22.76143,48.10308],[22.74013,48.12117],[22.67379,48.08439],[22.61354,48.10268],[22.59407,48.08886],[22.58007,48.10207],[22.59236,48.14735],[22.55826,48.17904],[22.58693,48.19151],[22.53121,48.20942],[22.49928,48.24717],[22.44885,48.23735],[22.39537,48.25202],[22.37741,48.23378],[22.3619,48.25931],[22.33814,48.27524],[22.34052,48.29896],[22.32198,48.31193],[22.32673,48.34702],[22.31722,48.35713],[22.27824,48.35113],[22.24971,48.38492],[22.27824,48.38745],[22.2887,48.40039],[22.27443,48.40702],[22.21405,48.41491],[22.16319,48.39971],[22.12181,48.37465],[22.07891,48.3696],[22.07647,48.38456],[22.04574,48.37405],[22.02292,48.38819],[21.99371,48.3696],[21.94654,48.37789],[21.89481,48.36091],[21.84308,48.36556],[21.81022,48.33037],[21.78283,48.34938],[21.76214,48.33846],[21.71952,48.35211],[21.66823,48.39534],[21.66157,48.42595],[21.6378,48.45213],[21.63296,48.50173],[21.60541,48.50899],[21.59544,48.4971],[21.57139,48.49725],[21.52512,48.54633],[21.45665,48.57371],[21.43431,48.55043],[21.34255,48.55043],[21.31069,48.51705],[21.23129,48.53343],[21.19312,48.51401],[21.16917,48.5162],[21.11931,48.48407],[21.10257,48.4904],[21.09653,48.51298],[21.03611,48.52864],[20.99959,48.5105],[20.97251,48.51111],[20.94695,48.54919],[20.88701,48.54134],[20.86905,48.5502],[20.85536,48.57477],[20.6664,48.55282],[20.65453,48.54214],[20.58972,48.52703],[20.56842,48.54416],[20.54407,48.52421],[20.51364,48.53549],[20.50178,48.52582],[20.51577,48.50002],[20.46465,48.45282],[20.41304,48.42248],[20.39497,48.36566],[20.29942,48.2743],[20.27752,48.27126],[20.23522,48.29516],[20.21757,48.26782],[20.18866,48.26843],[20.16675,48.25141],[20.14758,48.27349],[20.1275,48.27268],[20.12385,48.23155],[20.05265,48.19505],[20.03652,48.17091],[20.02465,48.16969],[20.00761,48.18572],[19.88894,48.12381],[19.87829,48.13213],[19.88863,48.14797],[19.86735,48.16982],[19.82884,48.1753],[19.77688,48.15802],[19.76928,48.17451],[19.7883,48.18846],[19.75566,48.21675],[19.69693,48.206],[19.67655,48.23439],[19.63486,48.24938],[19.57362,48.21448],[19.52961,48.21617],[19.51984,48.20722],[19.49884,48.17456],[19.50493,48.15751],[19.48423,48.1429],[19.47815,48.10959],[19.45928,48.08256],[19.44529,48.10633],[19.39629,48.08235],[19.3157,48.09042],[19.24818,48.06946],[19.23202,48.05293],[19.16736,48.06088],[19.14168,48.07772],[19.11363,48.0631],[19.09556,48.07454],[19.0558,48.05592],[19.02354,48.0732],[18.98229,48.05555],[18.9477,48.08121],[18.91584,48.07327],[18.87162,48.04626],[18.83074,48.04594],[18.81742,48.03195],[18.82455,48.02559],[18.81932,47.99219],[18.78699,47.98328],[18.77796,47.95654],[18.77768,47.87703],[18.81784,47.83804],[18.84918,47.82578],[18.85527,47.81046],[18.74238,47.80964],[18.73021,47.78532],[18.66691,47.74686],[18.53738,47.75844],[18.51266,47.74245],[18.48984,47.74277],[18.47129,47.75652],[18.44182,47.75684],[18.41335,47.73945],[18.3346,47.73246],[18.32866,47.72496],[18.18379,47.73346],[18.10876,47.75094],[18.02853,47.75044],[18.0107,47.73596],[17.96613,47.75044],[17.93864,47.73346],[17.7895,47.7319],[17.77666,47.74149],[17.75146,47.73925],[17.62784,47.80955],[17.58791,47.80827],[17.38722,47.97372],[17.29001,47.98265],[17.25653,48.01319],[17.19659,48.01258],[17.16555,48.00464],[17.16342,47.9914],[17.11382,47.96574],[17.13147,47.9527],[17.11169,47.93191],[17.12904,47.91417],[17.11474,47.88765],[17.07271,47.86657],[17.03278,47.86278],[17.03317,47.85141],[17.07115,47.83586],[17.06998,47.82409],[17.08583,47.80719],[17.07031,47.789],[17.07822,47.7755],[17.07883,47.72681],[17.09526,47.70695],[16.88956,47.68729],[16.8783,47.71596],[16.83768,47.67889],[16.76514,47.67973],[16.71192,47.74019],[16.66955,47.73977],[16.62363,47.766],[16.60399,47.75072],[16.56002,47.75484],[16.54176,47.73847],[16.55789,47.71903],[16.50981,47.70736],[16.4739,47.68258],[16.44926,47.69343],[16.431,47.66783],[16.51194,47.6379],[16.52655,47.64815],[16.60201,47.61452],[16.62285,47.62615],[16.6544,47.6247],[16.68555,47.58531],[16.68497,47.56206],[16.72197,47.54234],[16.72197,47.52945],[16.69704,47.5046],[16.65907,47.49907],[16.68516,47.46946],[16.64193,47.43772],[16.58273,47.4115],[16.52956,47.41019],[16.51554,47.39714],[16.47737,47.41493],[16.4614,47.40847],[16.47504,47.37564],[16.44933,47.35164],[16.48638,47.33192],[16.48516,47.31892],[16.50951,47.28426],[16.48607,47.25556],[16.45473,47.25556],[16.45352,47.22229],[16.43252,47.21031],[16.43556,47.19832],[16.43952,47.18922],[16.47786,47.17971],[16.48029,47.16605],[16.46812,47.1495],[16.53476,47.14764],[16.55028,47.13667],[16.4801,47.09681],[16.49246,47.07415],[16.53668,47.0586],[16.48628,47.04564],[16.46156,47.02912],[16.50815,47.02166],[16.53527,46.9969]]]},"properties":{"id":"27208725B55498351108151","country":"HUN","name":"Hungary"}}]}