{"type":"FeatureCollection","features":[{"type":"Feature","geometry":{"type":"Polygon","coordinates":[[[28.1878,46.3524],[28.19767,46.33364],[28.18391,46.33412],[28.20533,46.31668],[28.17974,46.29996],[28.18043,46.28721],[28.17138,46.29743],[28.17068,46.28456],[28.15239,46.29238],[28.1503,46.2789],[28.14038,46.28588],[28.13724,46.26433],[28.12836,46.2606],[28.13742,46.25374],[28.10503,46.23688],[28.1106,46.20507],[28.13533,46.2029],[28.12627,46.14526],[28.10224,46.10965],[28.10873,46.08292],[28.09213,46.06952],[28.0992,46.06273],[28.08995,46.0548],[28.10111,46.04743],[28.08832,46.00908],[28.10781,45.97753],[28.10241,45.97112],[28.11896,45.92995],[28.11036,45.89254],[28.11988,45.88401],[28.1041,45.86242],[28.106,45.82811],[28.12244,45.80869],[28.11547,45.79266],[28.14282,45.78586],[28.16587,45.7262],[28.16043,45.70093],[28.16968,45.68021],[28.15879,45.65359],[28.17158,45.64883],[28.17022,45.63989],[28.14056,45.62524],[28.11254,45.62733],[28.06519,45.60354],[28.06655,45.59631],[28.08696,45.59573],[28.14301,45.57021],[28.16697,45.53409],[28.1589,45.51116],[28.17803,45.48344],[28.21544,45.46824],[28.24678,45.50878],[28.30873,45.54602],[28.40287,45.51514],[28.42464,45.48386],[28.51063,45.49302],[28.51743,45.51056],[28.49838,45.56545],[28.54546,45.58107],[28.54519,45.5965],[28.51961,45.66233],[28.48723,45.66081],[28.53076,45.72695],[28.58872,45.73227],[28.59634,45.73778],[28.59471,45.76512],[28.71028,45.78224],[28.70509,45.82059],[28.78917,45.84084],[28.7601,45.92178],[28.76841,45.95354],[28.85352,45.98528],[28.93345,45.99394],[28.98622,46.02229],[29.00172,46.04587],[29.00151,46.06669],[28.95362,46.11085],[28.99308,46.13513],[29.05132,46.19991],[28.944,46.27843],[28.98851,46.33258],[28.97522,46.37889],[28.94798,46.42562],[28.944,46.45629],[28.98784,46.45812],[28.99581,46.47185],[29.04564,46.49335],[29.0645,46.51418],[29.1776,46.51564],[29.18398,46.52354],[29.1708,46.54051],[29.23287,46.55308],[29.2418,46.5522],[29.23585,46.51008],[29.25838,46.49516],[29.23032,46.46295],[29.24435,46.45622],[29.2316,46.44274],[29.22862,46.40816],[29.21544,46.39057],[29.2384,46.37649],[29.26051,46.38441],[29.26476,46.4064],[29.32386,46.41432],[29.3094,46.44069],[29.31663,46.44684],[29.3094,46.46559],[29.33874,46.47554],[29.32981,46.49369],[29.34299,46.49838],[29.37105,46.47935],[29.37615,46.45534],[29.39656,46.43102],[29.41144,46.4319],[29.39401,46.45036],[29.45056,46.49282],[29.48925,46.47174],[29.50413,46.4612],[29.50243,46.42516],[29.52241,46.40962],[29.5492,46.40581],[29.58959,46.35859],[29.66059,46.35566],[29.69375,46.36622],[29.6793,46.37942],[29.66824,46.43366],[29.6793,46.44069],[29.69205,46.43043],[29.73074,46.43161],[29.7469,46.45153],[29.73244,46.4609],[29.75073,46.46969],[29.78601,46.45417],[29.79197,46.42516],[29.81705,46.3847],[29.8855,46.35536],[29.88976,46.36915],[29.93756,46.39984],[30.01348,46.37939],[30.06654,46.40266],[30.09511,46.38671],[30.13838,46.40378],[30.15851,46.42442],[30.15171,46.42986],[30.13321,46.41485],[30.09484,46.43886],[30.10028,46.42874],[30.08232,46.43549],[30.07879,46.42442],[30.05919,46.42761],[30.05566,46.44261],[30.02845,46.4428],[30.02219,46.4548],[29.99743,46.46023],[30.023,46.46717],[29.99525,46.47598],[30.00123,46.49752],[29.9713,46.49509],[29.96586,46.51007],[29.94953,46.49509],[29.93511,46.4949],[29.94436,46.50239],[29.90763,46.51326],[29.88749,46.54283],[29.95579,46.5623],[29.94899,46.58418],[29.96668,46.59764],[29.94713,46.64269],[29.97237,46.6819],[29.97237,46.727],[29.98632,46.76069],[29.95244,46.78162],[29.94314,46.80482],[29.97171,46.81118],[29.97702,46.82164],[29.94713,46.83437],[29.9066,46.82437],[29.88734,46.84709],[29.89332,46.85845],[29.88136,46.87889],[29.75243,46.8691],[29.74392,46.90803],[29.72862,46.91994],[29.69715,46.91094],[29.65931,46.92255],[29.64316,46.94462],[29.58363,46.93939],[29.58448,46.94926],[29.61085,46.96174],[29.61425,47.03076],[29.64188,47.04582],[29.62294,47.08917],[29.60367,47.09324],[29.55517,47.07334],[29.52329,47.105],[29.53458,47.11902],[29.58308,47.12941],[29.59836,47.14342],[29.57311,47.22199],[29.57245,47.23868],[29.59769,47.25491],[29.60899,47.28061],[29.58843,47.36614],[29.51889,47.36122],[29.49709,47.30916],[29.45038,47.29508],[29.42547,47.30001],[29.3964,47.32746],[29.41509,47.37458],[29.3528,47.36825],[29.32957,47.4305],[29.31581,47.43907],[29.25566,47.41407],[29.2543,47.44573],[29.24233,47.45328],[29.20423,47.43303],[29.17131,47.45972],[29.19716,47.47719],[29.19445,47.49605],[29.1878,47.50592],[29.16588,47.50727],[29.13731,47.53643],[29.13599,47.54898],[29.2064,47.5714],[29.23896,47.62963],[29.23497,47.64217],[29.22168,47.64619],[29.23563,47.6793],[29.21371,47.72044],[29.26553,47.7593],[29.26287,47.77225],[29.27948,47.79636],[29.25955,47.80751],[29.23098,47.79725],[29.21371,47.80617],[29.21105,47.8423],[29.26819,47.88821],[29.26486,47.89534],[29.24361,47.89355],[29.21039,47.88242],[29.1971,47.89355],[29.18116,47.96344],[29.16455,47.99324],[29.0835,47.97856],[29.09347,47.95988],[29.06955,47.94564],[29.03368,47.94698],[28.9699,47.97634],[28.92938,47.963],[28.89949,47.97678],[28.88211,48.01068],[28.84214,48.0357],[28.85022,48.06299],[28.83406,48.07407],[28.84299,48.09168],[28.83874,48.11979],[28.80345,48.13199],[28.77581,48.12802],[28.76434,48.13937],[28.72224,48.13],[28.67803,48.13681],[28.59214,48.17482],[28.54452,48.17312],[28.51434,48.15355],[28.52199,48.13341],[28.4935,48.11695],[28.4867,48.06157],[28.44716,48.08287],[28.42718,48.1073],[28.41867,48.13483],[28.43143,48.15071],[28.4191,48.1751],[28.36935,48.17652],[28.34767,48.1405],[28.30898,48.13908],[28.3043,48.16064],[28.35277,48.1975],[28.36,48.22243],[28.35474,48.24558],[28.33082,48.25045],[28.31887,48.23806],[28.30226,48.2416],[28.20925,48.21106],[28.18201,48.22478],[28.17604,48.25752],[28.16009,48.26151],[28.1023,48.23319],[28.08104,48.25487],[28.09499,48.2814],[28.0817,48.31676],[28.04317,48.32913],[27.97342,48.32427],[27.903,48.36533],[27.87045,48.40548],[27.76615,48.45705],[27.6758,48.44516],[27.62465,48.45353],[27.60139,48.47071],[27.60604,48.48436],[27.59874,48.49096],[27.46654,48.44868],[27.45059,48.42135],[27.43797,48.41915],[27.3835,48.41298],[27.3536,48.44604],[27.31773,48.44383],[27.28052,48.39357],[27.24864,48.37813],[27.21139,48.38056],[27.19686,48.39503],[27.15223,48.38193],[27.12005,48.38745],[27.0941,48.42535],[27.07022,48.43293],[27.03701,48.42535],[27.02351,48.38607],[27.00068,48.36814],[26.97473,48.36332],[26.92386,48.37159],[26.89688,48.38607],[26.88753,48.41708],[26.80657,48.4157],[26.76297,48.40468],[26.70796,48.40881],[26.72042,48.38745],[26.78581,48.34814],[26.8211,48.33779],[26.8211,48.30397],[26.81384,48.29361],[26.77439,48.29845],[26.69239,48.35642],[26.68512,48.31985],[26.65917,48.31502],[26.63322,48.28325],[26.61869,48.27911],[26.63945,48.26045],[26.66125,48.26806],[26.67993,48.25424],[26.69862,48.25285],[26.70692,48.27013],[26.73702,48.25354],[26.74043,48.26416],[26.7577,48.2531],[26.81749,48.25266],[26.8341,48.23187],[26.86665,48.22744],[26.88525,48.20486],[26.90784,48.19911],[26.90252,48.18538],[26.92445,48.18361],[26.92179,48.19379],[26.93109,48.19867],[26.94305,48.19114],[26.94039,48.16677],[26.98756,48.15614],[26.98291,48.1455],[26.95633,48.1486],[26.95833,48.13575],[26.99885,48.12511],[27.02742,48.12954],[27.04668,48.11358],[27.03273,48.09006],[27.05333,48.06343],[27.07658,48.051],[27.08721,48.0279],[27.10182,48.02879],[27.10581,48.02301],[27.09518,48.01413],[27.10381,48.00479],[27.1357,48.00879],[27.15032,47.9919],[27.14301,47.98923],[27.16095,47.98168],[27.14434,47.96477],[27.16958,47.94609],[27.17158,47.91404],[27.20546,47.90647],[27.21741,47.85434],[27.21011,47.84186],[27.24797,47.83294],[27.2493,47.82491],[27.21874,47.8209],[27.29448,47.74769],[27.28318,47.73563],[27.28983,47.72356],[27.25661,47.72356],[27.28252,47.69809],[27.2978,47.65872],[27.37436,47.60394],[27.41796,47.58434],[27.4273,47.57103],[27.42315,47.55843],[27.45636,47.53531],[27.46986,47.48693],[27.53214,47.47921],[27.53837,47.48693],[27.57262,47.46167],[27.56224,47.43991],[27.57262,47.42376],[27.59649,47.41252],[27.57174,47.38717],[27.5896,47.37997],[27.57897,47.37191],[27.59725,47.3722],[27.59767,47.35636],[27.61213,47.34887],[27.60703,47.3336],[27.58407,47.32726],[27.59937,47.31833],[27.62914,47.32467],[27.64529,47.30708],[27.68143,47.3117],[27.68186,47.29296],[27.71289,47.30218],[27.72267,47.29584],[27.75711,47.25372],[27.74733,47.24535],[27.76914,47.2383],[27.78873,47.20818],[27.78056,47.2054],[27.79988,47.19043],[27.7958,47.17767],[27.80805,47.17526],[27.8056,47.1625],[27.78709,47.15232],[27.79961,47.14362],[27.78138,47.14344],[27.84533,47.1364],[27.83444,47.12863],[27.85811,47.11974],[27.86138,47.1053],[27.87771,47.109],[27.87961,47.09307],[27.90165,47.07288],[27.94437,47.0675],[27.9509,47.06176],[27.94437,47.05137],[27.99743,47.02857],[28.03743,47.03432],[28.04587,47.02838],[28.03553,47.01335],[28.04124,47.0063],[28.09213,46.98218],[28.08505,46.96045],[28.10301,46.94819],[28.08478,46.94021],[28.1041,46.93054],[28.10818,46.91679],[28.08451,46.90192],[28.116,46.89515],[28.10172,46.8717],[28.12209,46.86181],[28.11129,46.84407],[28.1207,46.83704],[28.11565,46.81941],[28.15292,46.79843],[28.18078,46.76814],[28.182,46.73819],[28.20696,46.71904],[28.21403,46.6903],[28.20777,46.68713],[28.23063,46.6819],[28.25185,46.62138],[28.22735,46.58085],[28.235,46.55688],[28.21884,46.5408],[28.22947,46.53583],[28.21672,46.51389],[28.24946,46.46676],[28.24095,46.45446],[28.2534,46.43755],[28.23895,46.42435],[28.24818,46.41414],[28.23233,46.4145],[28.23929,46.40694],[28.22554,46.40033],[28.23964,46.39373],[28.2184,46.39529],[28.22205,46.38099],[28.19889,46.37234],[28.20864,46.36826],[28.19941,46.36141],[28.20847,46.36021],[28.1878,46.3524]]]},"properties":{"id":"4708702B29289826527328","country":"MDA","name":"Republic of Moldova","label":"Молдова","center":[28.45,47.2],"strength":1.0}}]}