{"type":"FeatureCollection","features":[{"type":"Feature","geometry":{"type":"MultiLineString","coordinates":[[[19.2,49.44849],[19.22531,49.45431],[19.22047,49.47349],[19.23551,49.49566],[19.23327,49.51049],[19.26069,49.53123],[19.3623,49.53609],[19.37136,49.56744],[19.40002,49.57413],[19.40999,49.59216],[19.44202,49.5985],[19.44623,49.6133],[19.46738,49.61376],[19.47847,49.58803],[19.52933,49.57302],[19.53045,49.53577],[19.58147,49.45541],[19.59744,49.45863],[19.61145,49.44687],[19.64112,49.45756],[19.63779,49.44054],[19.6486,49.43536],[19.63173,49.4088],[19.68537,49.40358],[19.71764,49.38642],[19.74628,49.40794],[19.79059,49.41069],[19.79113,49.38351],[19.80382,49.36482],[19.79472,49.34453],[19.80496,49.32277],[19.79247,49.29974],[19.80988,49.2954],[19.8228,49.27679],[19.79247,49.26797],[19.78502,49.24666],[19.76677,49.2366],[19.75978,49.21129],[19.78425,49.19929],[19.80752,49.20565],[19.841,49.19262],[19.86944,49.1958],[19.90233,49.21331],[19.90363,49.23076],[19.93222,49.23649],[19.98156,49.2318],[20.00863,49.22005],[20.02053,49.2015],[20.0879,49.17951],[20.08438,49.19618],[20.10162,49.22266],[20.10077,49.25009],[20.12514,49.27093],[20.14605,49.31798],[20.15772,49.30282],[20.1758,49.31408],[20.17058,49.32773],[20.22082,49.35179],[20.29282,49.35156],[20.31418,49.34351],[20.32365,49.35181],[20.32108,49.3774],[20.33128,49.39143],[20.31751,49.38873],[20.32216,49.40176],[20.36227,49.39826],[20.37568,49.40786],[20.39043,49.39042],[20.41229,49.3952],[20.41829,49.40586],[20.4314,49.39588],[20.43357,49.41792],[20.47196,49.41544],[20.50994,49.39345],[20.57552,49.37611],[20.6136,49.40182],[20.61493,49.41784],[20.64699,49.40067],[20.69269,49.41997],[20.7401,49.4163],[20.74227,49.40383],[20.75816,49.40016],[20.74753,49.391],[20.76145,49.38413],[20.75899,49.37339],[20.78541,49.3744],[20.78248,49.36103],[20.80963,49.35899],[20.79787,49.3587],[20.79683,49.34353],[20.81184,49.34769],[20.83733,49.33402],[20.86555,49.34748],[20.88239,49.3331],[20.87274,49.31979],[20.90358,49.32353],[20.92408,49.29597],[20.96961,49.30989],[20.98654,49.30662],[20.99414,49.31268],[20.98907,49.32845],[21.04255,49.36488],[21.09411,49.36506],[21.1041,49.3764],[21.05431,49.40422],[21.04754,49.41834],[21.09639,49.42949],[21.11373,49.42394],[21.12402,49.43658],[21.19213,49.40099],[21.20819,49.40248],[21.22725,49.41695],[21.23275,49.43655],[21.26592,49.44698],[21.27752,49.46094],[21.30718,49.448],[21.34468,49.45042],[21.37275,49.43264],[21.40202,49.43342],[21.43408,49.41228],[21.4737,49.41359],[21.49266,49.4295],[21.51705,49.4178],[21.53027,49.43508],[21.56398,49.44126],[21.59056,49.43382],[21.63094,49.44731],[21.65891,49.4168],[21.72177,49.41228],[21.7269,49.39811],[21.76338,49.38347],[21.77799,49.35605],[21.78922,49.35549],[21.78784,49.36772],[21.80299,49.38218],[21.83832,49.39167],[21.859,49.36856],[21.88733,49.36898],[21.90377,49.34996],[21.96101,49.34905],[21.98318,49.31037],[22.03402,49.27855],[22.03032,49.26267],[22.04189,49.25716],[22.03042,49.22517],[22.06196,49.21159],[22.14381,49.20051],[22.1431,49.19274],[22.18819,49.17432],[22.22246,49.18446],[22.2358,49.17008],[22.22571,49.15254],[22.31765,49.13555],[22.3346,49.14647],[22.3662,49.14692],[22.42265,49.09949],[22.45607,49.10377],[22.49871,49.08579],[22.53942,49.09469],[22.56409,49.08773],[22.58448,49.09731],[22.62567,49.08032],[22.63972,49.05972],[22.68018,49.03938],[22.71786,49.05278],[22.75497,49.04295],[22.76549,49.05353],[22.80951,49.03464],[22.81319,49.02514],[22.83375,49.02608],[22.84709,49.00239],[22.89155,49.00785],[22.89379,49.01823],[22.87412,49.03077],[22.88138,49.03832],[22.86669,49.03986],[22.87578,49.05135],[22.86453,49.06679],[22.89017,49.09709],[22.8627,49.10006],[22.85115,49.11467],[22.83151,49.11102],[22.81213,49.12504],[22.8164,49.12977],[22.7931,49.13829],[22.7892,49.15773],[22.73913,49.15798],[22.75617,49.18263],[22.73272,49.18227],[22.719,49.16499],[22.70726,49.17498],[22.73396,49.21144],[22.74768,49.21562],[22.71489,49.22649],[22.72131,49.24134],[22.73963,49.24735],[22.75096,49.31659],[22.74681,49.35989],[22.69669,49.49513],[22.65124,49.50837],[22.64083,49.52999],[22.67469,49.54916],[22.69484,49.58198],[22.78331,49.65724],[22.78722,49.67646],[22.80556,49.6934],[22.84778,49.71008],[22.87343,49.74063],[22.89678,49.75176],[22.90159,49.76825],[22.9619,49.8047],[22.95664,49.81111],[22.97063,49.83851],[22.99546,49.84215],[23.11492,49.95654],[23.21301,50.0311],[23.21599,50.04747],[23.23932,50.05445],[23.27933,50.08629],[23.28008,50.10054],[23.31395,50.11196],[23.47013,50.21788],[23.58101,50.266],[23.61157,50.29925],[23.63104,50.30479],[23.63885,50.32051],[23.68633,50.33164],[23.70311,50.37529],[23.72703,50.388],[23.80336,50.40476],[23.99754,50.41214],[24.00583,50.43538],[24.03453,50.44483],[24.07011,50.50339],[24.09132,50.56202],[24.09819,50.63744],[24.08007,50.64488],[24.09047,50.65356],[24.0824,50.67456],[24.06229,50.67786],[24.0722,50.72034],[24.04418,50.71519],[24.01643,50.72319],[24.02314,50.7455],[24.01537,50.74735],[24.02366,50.75086],[24.01115,50.75448],[24.01406,50.76211],[24.02492,50.75876],[24.02392,50.76618],[23.9788,50.76823],[23.9575,50.79408],[23.96352,50.81438],[23.98962,50.83744],[24.10016,50.83595],[24.13135,50.8485],[24.14504,50.86964],[24.11589,50.87014],[24.08613,50.88918],[24.05235,50.89141],[23.99734,50.92832],[23.98842,50.94477],[23.97038,50.9503],[23.95675,50.99076],[23.91508,51.00705],[23.93566,51.0147],[23.9159,51.0284],[23.93152,51.03808],[23.91302,51.04176],[23.91993,51.04659],[23.91109,51.0746],[23.87593,51.07707],[23.87142,51.09488],[23.85686,51.09995],[23.8623,51.11284],[23.84961,51.12397],[23.86984,51.12989],[23.86927,51.15031],[23.843,51.1643],[23.82423,51.16175],[23.80838,51.18499],[23.78508,51.18957],[23.7566,51.21234],[23.73919,51.21197],[23.74297,51.22443],[23.72652,51.23646],[23.72663,51.26135],[23.69501,51.29164],[23.64841,51.28742],[23.65234,51.29959],[23.64097,51.30675],[23.63577,51.32852],[23.65653,51.33941],[23.64981,51.34397],[23.65669,51.35909],[23.6692,51.36089],[23.66532,51.36682],[23.68658,51.36862],[23.67862,51.38383],[23.68916,51.3882],[23.6769,51.39405],[23.70275,51.40355],[23.69278,51.41452],[23.70293,51.41955],[23.67699,51.42967],[23.68574,51.4338],[23.68463,51.44523],[23.64944,51.44626],[23.64671,51.4591],[23.67631,51.471],[23.66982,51.48303],[23.62013,51.49637],[23.61735,51.51024],[23.62487,51.5139],[23.61275,51.52882],[23.56513,51.53441],[23.56516,51.55001],[23.57789,51.55711],[23.54028,51.60193],[23.54646,51.62091],[23.53933,51.63376],[23.54871,51.641],[23.53744,51.64464],[23.53931,51.65681],[23.55823,51.66528],[23.54886,51.68473],[23.56124,51.69959],[23.54875,51.70359],[23.55648,51.70732],[23.54727,51.7101],[23.54695,51.72715],[23.52702,51.72976],[23.53088,51.74361],[23.55897,51.76156],[23.58741,51.75911],[23.59705,51.77215],[23.63051,51.77977],[23.63995,51.80529],[23.62213,51.8301],[23.60288,51.83035],[23.60932,51.8387],[23.60015,51.84048],[23.61749,51.85611],[23.60708,51.87632],[23.63034,51.87344],[23.62228,51.88486],[23.63797,51.89299],[23.61204,51.91738],[23.64564,51.93376],[23.64035,51.94966],[23.62757,51.95115],[23.66926,51.96473],[23.66504,51.97843],[23.68902,51.99191],[23.65734,52.01874],[23.66272,52.03995],[23.64145,52.05894],[23.65559,52.05899],[23.64419,52.06507],[23.65294,52.07376],[23.61293,52.09676],[23.61854,52.1088],[23.57934,52.12004],[23.55692,52.11901],[23.54919,52.10971],[23.54197,52.12791],[23.51353,52.13774],[23.51032,52.14982],[23.48934,52.15074],[23.4854,52.16503],[23.4931,52.17541],[23.50717,52.17328],[23.50072,52.17905],[23.46702,52.17416],[23.45811,52.18479],[23.42428,52.17229],[23.41454,52.18235],[23.39854,52.17843],[23.39547,52.20107],[23.37678,52.19491],[23.36594,52.20802],[23.29911,52.21168],[23.30544,52.22146],[23.26751,52.21486],[23.20367,52.22655],[23.19411,52.23954],[23.20563,52.25723],[23.20406,52.2765],[23.17833,52.28314],[23.2413,52.35742],[23.29988,52.40381],[23.35669,52.46895],[23.46663,52.54945],[23.54017,52.58024],[23.64141,52.60746],[23.7186,52.61465],[23.73422,52.60652],[23.89255,52.6797],[23.93864,52.71292],[23.93993,52.81328],[23.92461,52.83068],[23.92577,52.89884],[23.91624,52.90481],[23.91647,52.93884],[23.94627,52.95873],[23.93111,52.97623],[23.92538,53.02463],[23.91,53.03283],[23.91643,53.03999],[23.89969,53.04807],[23.9026,53.05816],[23.88617,53.06218],[23.87188,53.08409],[23.91826,53.15762],[23.90438,53.17489],[23.86387,53.19553],[23.85534,53.23183],[23.81875,53.24402],[23.79898,53.27419],[23.65967,53.52137],[23.58605,53.70309],[23.58213,53.74382],[23.54905,53.76778],[23.54628,53.82581],[23.554,53.83139],[23.54514,53.84504],[23.55201,53.85102],[23.52406,53.86259],[23.51159,53.91587],[23.51637,53.95788],[23.48916,53.97466],[23.4807,53.99801],[23.50358,54.00653],[23.52488,54.03108],[23.5286,54.06578],[23.49262,54.11701],[23.48586,54.15323],[23.45899,54.17554],[23.42447,54.17753],[23.38678,54.22484],[23.36172,54.23102],[23.33752,54.25172],[23.23388,54.26091],[23.20242,54.28863],[23.1542,54.29702],[23.15976,54.3096],[23.1488,54.31435],[23.09217,54.29845],[23.04212,54.31597],[23.06316,54.34096],[22.99391,54.3619],[23.01021,54.3828],[22.98385,54.38957],[22.85469,54.4104],[22.8363,54.40648],[22.81143,54.37098],[22.79199,54.36334],[22.31867,54.34054],[21.44611,54.31822],[21.43698,54.32625],[21.3795,54.33104],[21.26133,54.32914],[20.95135,54.35713],[20.69277,54.37212],[20.63108,54.36633],[20.58441,54.3779],[19.80386,54.4424],[19.74456,54.42974],[19.7455,54.4135],[19.7217,54.40329],[19.67755,54.35899],[19.64615,54.34503],[19.56907,54.33982],[19.49703,54.32092],[19.39832,54.26379],[19.38505,54.22826],[19.3697,54.21925],[19.3611,54.22139],[19.38381,54.24199],[19.38419,54.25658],[19.40531,54.28306],[19.37946,54.26495],[19.28958,54.27946],[19.26572,54.27247],[19.24638,54.29198],[19.26571,54.30642],[19.24747,54.31878],[19.24883,54.32903],[19.22495,54.33597],[19.41093,54.36627],[19.59326,54.42483],[19.64862,54.45323],[19.63892,54.45845],[19.53478,54.41384],[19.42963,54.38498],[19.2344,54.35531],[19.2,54.35388]]]},"properties":{"id":"74894868B92483271096699","country":"POL","name":"Poland"}}]}