{"type":"FeatureCollection","features":[{"type":"Feature","geometry":{"type":"MultiLineString","coordinates":[[[26.72288,48.26312],[26.71058,48.26599],[26.6833,48.24665],[26.67213,48.24663],[26.67717,48.25995],[26.64708,48.25953],[26.64126,48.24738],[26.62696,48.24485],[26.62987,48.23536],[26.59129,48.24427],[26.57677,48.22174],[26.56371,48.22633],[26.51836,48.20451],[26.51821,48.21795],[26.47506,48.2215],[26.44127,48.20681],[26.45259,48.19313],[26.43908,48.18886],[26.42711,48.19826],[26.34606,48.18086],[26.34233,48.14837],[26.31672,48.14147],[26.24446,48.06153],[26.2192,48.05176],[26.20438,48.01748],[26.16931,47.98846],[25.98009,47.97601],[25.94402,47.98151],[25.77539,47.94606],[25.65629,47.9559],[25.62768,47.94261],[25.29079,47.91217],[25.28576,47.89909],[25.22655,47.89918],[25.20001,47.84407],[25.16132,47.8105],[25.17051,47.79038],[25.14515,47.7921],[25.11422,47.76015],[25.00782,47.73146],[24.89639,47.72564],[24.88528,47.75684],[24.84578,47.79116],[24.82809,47.82085],[24.70859,47.85135],[24.68056,47.88492],[24.67411,47.91009],[24.63988,47.93027],[24.63541,47.94715],[24.6179,47.94704],[24.59692,47.96365],[24.5067,47.95405],[24.42418,47.9775],[24.39329,47.95733],[24.36568,47.9183],[24.33377,47.92695],[24.29487,47.9102],[24.22326,47.90434],[24.17305,47.91983],[24.12657,47.91274],[24.10017,47.92217],[24.09256,47.94331],[24.04823,47.95417],[24.02477,47.94789],[23.99791,47.97044],[23.97957,47.97356],[23.91874,47.95765],[23.92057,47.94818],[23.86183,47.93653],[23.81944,47.98422],[23.78867,47.99643],[23.7264,47.99699],[23.66593,47.97997],[23.62614,48.00651],[23.55385,48.00655],[23.53352,48.02276],[23.51653,48.01541],[23.51894,47.99185],[23.51017,47.98524],[23.48607,47.9719],[23.45154,47.96941],[23.39098,47.99348],[23.39061,48.0049],[23.3291,48.02404],[23.30187,48.04642],[23.26757,48.0547],[23.26114,48.09593],[23.25138,48.10107],[23.23448,48.09375],[23.14161,48.11028],[23.10874,48.08978],[23.0882,48.04622],[23.09118,48.02844],[23.07613,48.00932],[23.01571,48.0053],[23.00302,47.99264],[22.97567,47.99079],[22.96535,48.01448],[22.92412,48.01816],[22.90881,48.00537],[22.90988,47.9935],[22.93747,47.9847],[22.9379,47.96769],[22.88868,47.95596],[22.84682,47.91388],[22.78639,47.89299],[22.75957,47.89639],[22.75744,47.8683],[22.77102,47.86175],[22.77126,47.8436],[22.7115,47.83687],[22.68174,47.79039],[22.61173,47.77434],[22.5491,47.77404],[22.48053,47.81861],[22.44801,47.81284],[22.42403,47.75617],[22.42891,47.74233],[22.37327,47.74704],[22.31542,47.76602],[22.31478,47.74527],[22.28615,47.72933],[22.26719,47.73203],[22.26179,47.70368],[22.23103,47.695],[22.21583,47.65898],[22.19697,47.65779],[22.17435,47.59329],[22.12836,47.60058],[22.12293,47.58575],[22.09178,47.56092],[22.08161,47.5662],[22.05808,47.55306],[22.06926,47.54132],[22.06526,47.53481],[22.0444,47.54198],[22.02422,47.52366],[22.0095,47.4799],[22.0353,47.43452],[22.02268,47.39457],[21.99826,47.37716],[21.96279,47.38039],[21.93361,47.37014],[21.87939,47.29417],[21.87803,47.26862],[21.84145,47.24129],[21.84522,47.21902],[21.85368,47.21671],[21.85205,47.18992],[21.80882,47.17209],[21.78858,47.11366],[21.7178,47.10021],[21.69418,47.06235],[21.64539,47.04215],[21.67956,47.00393],[21.66552,46.97199],[21.67712,46.96464],[21.6557,46.95773],[21.63365,46.93516],[21.59847,46.92987],[21.5983,46.90996],[21.61213,46.89106],[21.59685,46.8832],[21.60338,46.86951],[21.51125,46.83911],[21.50979,46.79858],[21.4813,46.77085],[21.53054,46.73962],[21.52385,46.72171],[21.49048,46.69376],[21.42263,46.69148],[21.42857,46.67598],[21.4507,46.66183],[21.4204,46.64999],[21.40797,46.62646],[21.36312,46.64099],[21.31268,46.62152],[21.29656,46.59063],[21.31617,46.58622],[21.3131,46.57898],[21.29358,46.55185],[21.27167,46.54607],[21.25487,46.50887],[21.27207,46.4794],[21.30084,46.47471],[21.31443,46.45604],[21.31319,46.44178],[21.29278,46.42798],[21.29333,46.41175],[21.28412,46.40806],[21.22229,46.4166],[21.2057,46.40777],[21.18999,46.37067],[21.19249,46.33626],[21.175,46.33077],[21.1729,46.30185],[21.11269,46.30244],[21.09688,46.26723],[21.06298,46.24423],[21.03604,46.24883],[21.02402,46.2695],[20.96177,46.26453],[20.94138,46.28154],[20.92018,46.2797],[20.91882,46.26619],[20.87082,46.29102],[20.77603,46.27671],[20.74574,46.24682],[20.75746,46.20623],[20.72753,46.20911],[20.72344,46.19871],[20.732,46.19637],[20.72777,46.19083]],[[28.90884,44.96367],[28.92671,44.97074],[28.93289,44.99723],[28.94297,44.97224],[28.95651,44.979],[28.96909,45.0089],[29.00222,45.00559],[28.99891,44.99235],[29.01254,44.98742],[29.0669,44.98703],[29.09335,44.97348],[29.08857,44.94977],[29.05854,44.94122]],[[29.57895,44.86316],[29.57184,44.89709],[29.62423,44.88683],[29.62096,44.92293],[29.66568,45.02143],[29.67276,45.12173],[29.69168,45.14636],[29.64716,45.16079],[29.63348,45.23485],[29.65779,45.22012],[29.66249,45.26979],[29.65181,45.31974],[29.6045,45.36539],[29.53497,45.40195],[29.41275,45.42979],[29.36065,45.41766],[29.32076,45.43655],[29.28939,45.41647],[29.2481,45.42198],[29.20338,45.40998],[29.14448,45.37411],[28.95479,45.31918],[28.94293,45.29721],[28.94185,45.26485],[28.81126,45.3151],[28.77918,45.31459],[28.79811,45.29604],[28.79515,45.28619],[28.7538,45.27726],[28.78709,45.23924],[28.78533,45.22478],[28.7715,45.21971],[28.69116,45.2174],[28.63017,45.23639],[28.57521,45.2374],[28.4824,45.2728],[28.34526,45.3077],[28.29229,45.37632],[28.27981,45.43526],[28.19661,45.45958],[28.17363,45.49988],[28.15979,45.50049],[28.15211,45.51152],[28.16306,45.54966],[28.15486,45.56265],[28.14294,45.56056],[28.14894,45.57007],[28.12798,45.57744],[28.12041,45.57234],[28.08724,45.60907],[28.10988,45.62794],[28.15567,45.62734],[28.16921,45.64697],[28.16027,45.65451],[28.15803,45.70205],[28.16682,45.72575],[28.15793,45.72755],[28.16151,45.7384],[28.14148,45.76268],[28.15595,45.78103],[28.13246,45.78072],[28.11185,45.79529],[28.12049,45.80082],[28.10758,45.82929],[28.10807,45.86312],[28.11949,45.86725],[28.11096,45.88932],[28.12705,45.92877],[28.09672,45.96581],[28.08674,46.01366],[28.0912,46.04307],[28.10369,46.0585],[28.09239,46.06152],[28.10037,46.06935],[28.09624,46.08034],[28.10776,46.08678],[28.10464,46.10048],[28.12233,46.10556],[28.124,46.1281],[28.13405,46.13015],[28.1268,46.15484],[28.14142,46.16939],[28.13183,46.17806],[28.14365,46.17936],[28.12966,46.1867],[28.14032,46.19455],[28.12124,46.19785],[28.13018,46.20929],[28.11765,46.22552],[28.12302,46.23559],[28.13042,46.23015],[28.15123,46.24247],[28.13521,46.24824],[28.14826,46.27627],[28.19201,46.28082],[28.21571,46.30728],[28.20219,46.32705],[28.18722,46.32177],[28.20001,46.34848],[28.18325,46.35479],[28.20328,46.36103],[28.20126,46.37595],[28.21845,46.38629],[28.21363,46.39697],[28.24008,46.39601],[28.22711,46.40424],[28.23983,46.41006],[28.23236,46.41867],[28.26143,46.42355],[28.26305,46.44244],[28.25155,46.44859],[28.25841,46.46202],[28.24821,46.46753],[28.24837,46.48043],[28.23223,46.47781],[28.23087,46.49465],[28.22008,46.50566],[28.21211,46.50138],[28.21746,46.52356],[28.23009,46.53007],[28.21863,46.5411],[28.23417,46.55299],[28.22818,46.57901],[28.24032,46.58119],[28.23503,46.58595],[28.2528,46.61362],[28.24266,46.63379],[28.26278,46.63657],[28.247,46.65578],[28.24708,46.67634],[28.23272,46.66891],[28.2206,46.68787],[28.2117,46.68349],[28.20757,46.69928],[28.21602,46.70948],[28.18044,46.73942],[28.189,46.74448],[28.17628,46.75281],[28.18893,46.75997],[28.18166,46.76946],[28.18874,46.77918],[28.14683,46.80166],[28.1453,46.8183],[28.12845,46.81637],[28.12902,46.83835],[28.14609,46.83768],[28.11375,46.86596],[28.1288,46.87063],[28.12457,46.88507],[28.11337,46.89567],[28.08735,46.89886],[28.11306,46.91384],[28.11458,46.92176],[28.10363,46.92421],[28.11338,46.93635],[28.09967,46.96287],[28.1116,46.97041],[28.10139,46.9817],[28.08002,46.98267],[28.08325,46.99455],[28.06146,46.99896],[28.05117,47.00957],[28.06543,47.01474],[28.05179,47.02463],[28.03366,47.03118],[28.0188,47.0229],[27.9816,47.04045],[27.9559,47.03416],[27.95875,47.04353],[27.94514,47.04787],[27.95489,47.05496],[27.93035,47.0567],[27.91566,47.07059],[27.89629,47.06615],[27.89087,47.08197],[27.8793,47.08452],[27.8808,47.09611],[27.8675,47.09324],[27.87206,47.10313],[27.8568,47.09861],[27.82696,47.10893],[27.8229,47.11569],[27.84797,47.12104],[27.84156,47.13026],[27.7828,47.1333],[27.79705,47.13763],[27.78839,47.14841],[27.80263,47.14784],[27.80946,47.16143],[27.7974,47.16444],[27.80178,47.18393],[27.78575,47.18319],[27.77816,47.19986],[27.78453,47.20925],[27.77124,47.21161],[27.7692,47.22606],[27.74433,47.23392],[27.75425,47.24353],[27.74187,47.24712],[27.75444,47.25117],[27.72713,47.28764],[27.68743,47.2829],[27.68558,47.30325],[27.65166,47.2983],[27.63676,47.31548],[27.60577,47.30702],[27.59428,47.33029],[27.62036,47.33317],[27.62553,47.34586],[27.61402,47.34996],[27.61238,47.36772],[27.57473,47.36569],[27.58131,47.3785],[27.56878,47.37523],[27.57163,47.39305],[27.58401,47.40934],[27.57315,47.42655],[27.55726,47.43136],[27.56173,47.44549],[27.584,47.45838],[27.58005,47.46794],[27.55556,47.48589],[27.53096,47.47596],[27.50686,47.47919],[27.50901,47.48585],[27.50231,47.4751],[27.49404,47.48595],[27.47376,47.48871],[27.45746,47.50891],[27.46276,47.52149],[27.44974,47.53116],[27.4556,47.53817],[27.43144,47.54675],[27.44107,47.5492],[27.44326,47.56667],[27.42603,47.56864],[27.42907,47.58169],[27.39037,47.59176],[27.38486,47.59793],[27.3971,47.60926],[27.32977,47.63534],[27.32562,47.66147],[27.3099,47.66738],[27.31329,47.67985],[27.29154,47.6908],[27.30093,47.69795],[27.28649,47.69781],[27.2841,47.71274],[27.26558,47.72159],[27.2767,47.73525],[27.31018,47.72767],[27.30152,47.73793],[27.31294,47.74931],[27.29908,47.75111],[27.30006,47.75999],[27.27957,47.75889],[27.28102,47.77399],[27.24587,47.80191],[27.25942,47.81351],[27.23373,47.8177],[27.23017,47.82809],[27.25838,47.82954],[27.24379,47.8458],[27.25606,47.8684],[27.23715,47.86811],[27.22035,47.88697],[27.22609,47.89966],[27.177,47.92592],[27.19392,47.95006],[27.16248,47.96525],[27.17373,47.97408],[27.17359,47.99152],[27.19096,48.00216],[27.14356,47.9961],[27.14177,48.02102],[27.10592,48.01462],[27.12411,48.03895],[27.09147,48.04186],[27.08493,48.0615],[27.04051,48.09647],[27.0574,48.12658],[27.03639,48.12631],[27.03334,48.13897],[27.01652,48.12371],[26.96982,48.13041],[26.95844,48.14316],[27.0087,48.14936],[27.00382,48.16036],[26.95551,48.16938],[26.95781,48.19305],[26.94609,48.19764],[26.92507,48.19763],[26.93635,48.17876],[26.90663,48.18383],[26.89321,48.19332],[26.91057,48.19917],[26.87546,48.21466],[26.86707,48.23232],[26.8485,48.22985],[26.84554,48.24545],[26.82067,48.25352],[26.7547,48.24764],[26.75329,48.26179],[26.73502,48.24688],[26.72288,48.26312]]]},"properties":{"id":"16175383B7506712722466","country":"ROU","name":"Romania"}}]}