{"type":"FeatureCollection","features":[{"type":"Feature","geometry":{"type":"MultiLineString","coordinates":[[[20.0,48.16651],[20.02904,48.17768],[20.04945,48.1672],[20.07299,48.17961],[20.07884,48.18374],[20.07004,48.1917],[20.13409,48.22518],[20.13963,48.24287],[20.13319,48.25398],[20.20616,48.25098],[20.20383,48.26191],[20.22847,48.26278],[20.23495,48.27993],[20.28686,48.26164],[20.32571,48.27279],[20.33747,48.30167],[20.36566,48.31661],[20.38412,48.35116],[20.40981,48.36587],[20.40253,48.38257],[20.42058,48.40414],[20.41672,48.41899],[20.45176,48.44856],[20.46982,48.45255],[20.46416,48.46418],[20.50776,48.48932],[20.50423,48.53193],[20.5191,48.53752],[20.53747,48.52788],[20.54649,48.54429],[20.58659,48.53576],[20.65387,48.56141],[20.83636,48.58284],[20.8378,48.57421],[20.85044,48.58163],[20.84533,48.5665],[20.86816,48.55182],[20.92232,48.55945],[20.93463,48.53836],[20.95588,48.53396],[20.9562,48.52167],[20.98158,48.51777],[21.01511,48.53231],[21.06632,48.52589],[21.09017,48.51748],[21.09498,48.49971],[21.11745,48.49106],[21.16088,48.5215],[21.17963,48.51823],[21.22106,48.5375],[21.30549,48.52225],[21.32144,48.54767],[21.31338,48.55084],[21.32688,48.55413],[21.31608,48.55529],[21.31938,48.5612],[21.41545,48.55895],[21.42266,48.57882],[21.44007,48.58524],[21.51409,48.55107],[21.52523,48.52263],[21.54202,48.5084],[21.61393,48.50942],[21.62019,48.46983],[21.66355,48.41796],[21.66456,48.39216],[21.70174,48.3807],[21.72443,48.34968],[21.82233,48.33258],[21.83533,48.33485],[21.83721,48.36325],[21.85509,48.36607],[21.86297,48.35521],[21.88142,48.36259],[21.8843,48.35605],[21.88484,48.36754],[21.89788,48.36256],[21.8998,48.37022],[21.92819,48.3616],[21.92681,48.3709],[21.9492,48.37873],[21.99446,48.37732],[22.02133,48.39275],[22.0546,48.37753],[22.07649,48.38724],[22.08674,48.37156],[22.13604,48.38061],[22.13106,48.39123],[22.15529,48.39934],[22.14233,48.40525],[22.13769,48.43265],[22.17138,48.58754],[22.18903,48.60986],[22.2405,48.62771],[22.25029,48.6474],[22.30255,48.67638],[22.33961,48.68389],[22.3618,48.7302],[22.36223,48.74],[22.34267,48.75068],[22.3457,48.76615],[22.38765,48.80004],[22.37591,48.83403],[22.38354,48.86504],[22.42112,48.8846],[22.43155,48.91925],[22.42492,48.92933],[22.47561,48.97628],[22.47731,48.99118],[22.54549,49.00677],[22.53799,49.02132],[22.55108,49.03016],[22.55324,49.07948],[22.5656,49.08366],[22.53942,49.09469],[22.49702,49.08589],[22.45607,49.10377],[22.42265,49.09949],[22.36726,49.1466],[22.3346,49.14647],[22.31765,49.13555],[22.22571,49.15254],[22.2358,49.17008],[22.22246,49.18446],[22.1899,49.17402],[22.1431,49.19274],[22.14381,49.20051],[22.06196,49.21159],[22.03042,49.22517],[22.04189,49.25716],[22.03032,49.26267],[22.03402,49.27855],[21.98318,49.31037],[21.96195,49.34855],[21.90377,49.34996],[21.88733,49.36898],[21.859,49.36856],[21.83832,49.39167],[21.80299,49.38218],[21.78784,49.36772],[21.78922,49.35549],[21.77799,49.35605],[21.76338,49.38347],[21.7269,49.39811],[21.72177,49.41228],[21.65891,49.4168],[21.63094,49.44731],[21.59056,49.43382],[21.56398,49.44126],[21.53027,49.43508],[21.51705,49.4178],[21.49266,49.4295],[21.4737,49.41359],[21.43408,49.41228],[21.40202,49.43342],[21.37275,49.43264],[21.34468,49.45042],[21.30718,49.448],[21.27752,49.46094],[21.26592,49.44698],[21.23275,49.43655],[21.22725,49.41695],[21.20819,49.40248],[21.19213,49.40099],[21.12402,49.43658],[21.11373,49.42394],[21.09639,49.42949],[21.04754,49.41834],[21.05431,49.40422],[21.1041,49.3764],[21.09411,49.36506],[21.04255,49.36488],[20.98907,49.32845],[20.99414,49.31268],[20.98654,49.30662],[20.96961,49.30989],[20.92408,49.29597],[20.90358,49.32353],[20.87274,49.31979],[20.88239,49.3331],[20.86555,49.34748],[20.83733,49.33402],[20.81184,49.34769],[20.79683,49.34353],[20.79787,49.3587],[20.80963,49.35899],[20.78248,49.36103],[20.78541,49.3744],[20.75899,49.37339],[20.76145,49.38413],[20.74753,49.391],[20.75816,49.40016],[20.74227,49.40383],[20.7401,49.4163],[20.69269,49.41997],[20.64699,49.40067],[20.61493,49.41784],[20.6136,49.40182],[20.57552,49.37611],[20.50994,49.39345],[20.47196,49.41544],[20.43357,49.41792],[20.4314,49.39588],[20.41829,49.40586],[20.41229,49.3952],[20.39043,49.39042],[20.37568,49.40786],[20.36227,49.39826],[20.32216,49.40176],[20.31751,49.38873],[20.33128,49.39143],[20.32108,49.3774],[20.32365,49.35181],[20.31418,49.34351],[20.29282,49.35156],[20.22082,49.35179],[20.17058,49.32773],[20.1758,49.31408],[20.15772,49.30282],[20.14605,49.31798],[20.12514,49.27093],[20.10077,49.25009],[20.10162,49.22266],[20.08438,49.19618],[20.0879,49.17951],[20.02053,49.2015],[20.00863,49.22005],[20.0,49.2238]]]},"properties":{"id":"12407735B67449727845455","country":"SVK","name":"Slovakia"}}]}