{"type":"FeatureCollection","features":[{"type":"Feature","geometry":{"type":"Polygon","coordinates":[[[31.38846,53.08714],[31.2221,53.11181],[31.19158,53.13318],[31.1295,53.13501],[31.1234,53.15149],[31.13357,53.17833],[31.10903,53.18302],[31.11098,53.19472],[31.08884,53.20019],[31.08558,53.22047],[31.04586,53.2232],[31.04651,53.24464],[31.01264,53.2536],[31.03153,53.2871],[31.02957,53.30344],[30.97878,53.29371],[30.90714,53.3015],[30.8648,53.29371],[30.85438,53.27697],[30.73781,53.27191],[30.72934,53.25204],[30.69547,53.24814],[30.67919,53.25866],[30.6805,53.28437],[30.60234,53.28748],[30.60821,53.32134],[30.59323,53.33262],[30.56913,53.30189],[30.53526,53.29838],[30.47339,53.27152],[30.41478,53.27853],[30.40175,53.25438],[30.1953,53.21813],[30.15102,53.23411],[30.1419,53.27269],[30.08719,53.30422],[30.02597,53.30889],[30.00513,53.32407],[29.96866,53.32757],[29.94847,53.30033],[29.91786,53.29488],[29.90288,53.30344],[29.91982,53.32601],[29.89833,53.33573],[29.86837,53.31629],[29.85795,53.32368],[29.86055,53.33846],[29.84622,53.34351],[29.81887,53.3369],[29.80324,53.32718],[29.80129,53.31434],[29.7557,53.29722],[29.79412,53.20175],[29.75961,53.18068],[29.77849,53.15296],[29.7557,53.14358],[29.75635,53.13186],[29.74007,53.12209],[29.70946,53.12444],[29.69448,53.13928],[29.66713,53.1346],[29.65605,53.1002],[29.63586,53.08964],[29.64694,53.06656],[29.68797,53.06538],[29.69252,53.05795],[29.66517,53.02231],[29.68927,52.99802],[29.73746,52.98077],[29.71988,52.94664],[29.6795,52.94232],[29.67364,52.94821],[29.68015,52.95488],[29.62479,52.9643],[29.59223,52.9541],[29.54013,52.9592],[29.46458,52.92309],[29.43397,52.91798],[29.40532,52.94389],[29.38513,52.92898],[29.3467,52.95057],[29.2679,52.95174],[29.20212,52.98155],[29.18519,52.94782],[29.13244,52.91209],[29.1409,52.8952],[29.13244,52.87162],[29.00088,52.86612],[28.99661,52.83852],[28.9844,52.82438],[28.9152,52.77762],[28.81853,52.76284],[28.81954,52.74437],[28.846,52.73266],[28.84804,52.7191],[28.80937,52.71602],[28.76765,52.69012],[28.7361,52.70369],[28.70659,52.69506],[28.65978,52.69999],[28.61806,52.68457],[28.557,52.69197],[28.49337,52.68476],[28.49935,52.68105],[28.4913,52.67075],[28.44837,52.65393],[28.46,52.54583],[28.40097,52.52026],[28.37772,52.49522],[28.23193,52.47779],[28.20778,52.49576],[28.16307,52.48705],[28.14876,52.52135],[28.13713,52.5257],[28.00208,52.51754],[27.99671,52.50338],[28.00744,52.48378],[27.98687,52.4609],[27.99045,52.44564],[27.97346,52.43146],[27.935,52.42383],[27.74718,52.43582],[27.7445,52.45109],[27.72572,52.46144],[27.71677,52.47942],[27.65506,52.48923],[27.6488,52.51427],[27.6649,52.52788],[27.64701,52.54093],[27.60497,52.53712],[27.57814,52.548],[27.54147,52.53223],[27.49944,52.53821],[27.4735,52.52243],[27.4413,52.53005],[27.40374,52.50284],[27.37333,52.49413],[27.39122,52.44836],[27.29535,52.39133],[27.27437,52.36433],[27.2887,52.34961],[27.27763,52.33529],[27.29721,52.32469],[27.39388,52.32345],[27.39388,52.3135],[27.42644,52.30354],[27.42339,52.28861],[27.48547,52.28923],[27.51396,52.26931],[27.53533,52.26931],[27.5628,52.2419],[27.5801,52.20824],[27.54957,52.18453],[27.5628,52.17268],[27.5394,52.13772],[27.5394,52.07522],[27.57807,52.06583],[27.58519,52.04894],[27.62081,52.03705],[27.62793,52.01263],[27.52922,51.95309],[27.54245,51.89661],[27.52776,51.86854],[27.50709,51.85479],[27.52458,51.85283],[27.55797,51.81647],[27.54048,51.77616],[27.55956,51.75451],[27.53571,51.7358],[27.4896,51.72694],[27.48801,51.71118],[27.52738,51.62707],[27.55757,51.6281],[27.63181,51.60811],[27.67116,51.61311],[27.72393,51.59866],[27.72572,51.56754],[27.67116,51.53473],[27.67205,51.52694],[27.69083,51.50245],[27.75165,51.47628],[27.79068,51.52645],[27.83762,51.53963],[27.81988,51.57699],[27.8359,51.59691],[27.81988,51.61682],[27.82903,51.62854],[27.86738,51.62854],[27.91203,51.61539],[27.93207,51.57913],[27.96183,51.58162],[27.94638,51.56134],[28.0653,51.56132],[28.10583,51.57175],[28.11701,51.59519],[28.16731,51.61515],[28.17011,51.64205],[28.26374,51.67152],[28.26234,51.62036],[28.30706,51.60561],[28.35737,51.56045],[28.36156,51.54047],[28.43283,51.5674],[28.46637,51.58998],[28.51668,51.58738],[28.57118,51.56653],[28.65084,51.56567],[28.66062,51.56219],[28.65084,51.53612],[28.66202,51.50047],[28.69695,51.44127],[28.71792,51.44302],[28.73329,51.45869],[28.74866,51.42559],[28.76822,51.42646],[28.76822,51.43953],[28.78952,51.44946],[28.77063,51.49154],[28.80165,51.53473],[28.89556,51.5781],[29.01988,51.57254],[29.05476,51.58977],[29.06728,51.61033],[29.1281,51.6553],[29.16477,51.6442],[29.22738,51.57421],[29.26405,51.55475],[29.26494,51.52026],[29.25152,51.48909],[29.2864,51.45176],[29.31592,51.44117],[29.33291,51.38371],[29.35795,51.38427],[29.3821,51.40101],[29.43666,51.41663],[29.47601,51.40213],[29.51,51.40213],[29.52252,51.40771],[29.52878,51.44842],[29.54577,51.46179],[29.54309,51.48742],[29.58513,51.46346],[29.61464,51.47293],[29.62269,51.49131],[29.6683,51.49744],[29.71749,51.52304],[29.75148,51.50969],[29.7649,51.46346],[29.78368,51.44842],[29.81588,51.45566],[29.8597,51.44674],[29.891,51.45232],[29.908,51.48185],[29.95361,51.48519],[29.97865,51.47516],[30.0028,51.48185],[30.0341,51.51525],[30.12623,51.50579],[30.14054,51.51581],[30.17363,51.50913],[30.1942,51.52026],[30.32388,51.46792],[30.34356,51.44451],[30.36502,51.43782],[30.37486,51.39041],[30.34803,51.37813],[30.37844,51.34853],[30.43836,51.32115],[30.48845,51.32171],[30.49918,51.29208],[30.53227,51.29208],[30.57968,51.27642],[30.61992,51.2876],[30.64228,51.33233],[30.68611,51.34239],[30.69773,51.35747],[30.64407,51.42109],[30.60449,51.43866],[30.60589,51.46043],[30.64921,51.47436],[30.59041,51.5364],[30.59399,51.55753],[30.54927,51.56754],[30.54927,51.58144],[30.56537,51.587],[30.55374,51.60644],[30.57341,51.62477],[30.54569,51.65252],[30.54211,51.67915],[30.57878,51.68913],[30.58146,51.71407],[30.63781,51.72405],[30.65033,51.76226],[30.64049,51.78218],[30.67627,51.80486],[30.67358,51.82753],[30.70399,51.84742],[30.7183,51.88001],[30.76213,51.90485],[30.82295,51.91643],[30.82205,51.95007],[30.88287,51.98644],[30.89271,52.01177],[30.91686,52.01012],[30.93117,51.99635],[30.97499,51.99305],[30.99109,52.04094],[30.98662,52.06239],[31.00719,52.08712],[31.10199,52.08438],[31.1646,52.10416],[31.19143,52.08218],[31.23883,52.07613],[31.25314,52.05469],[31.31128,52.04864],[31.34258,52.06679],[31.35421,52.1102],[31.41324,52.12009],[31.42128,52.13052],[31.41502,52.14205],[31.42755,52.14699],[31.46958,52.14424],[31.51251,52.12283],[31.66008,52.12228],[31.76383,52.10306],[31.8005,52.10965],[31.81392,52.12503],[31.79603,52.15247],[31.8014,52.18703],[31.71106,52.20403],[31.72269,52.23197],[31.72537,52.28343],[31.66634,52.29],[31.65919,52.30203],[31.62967,52.30695],[31.61179,52.32664],[31.63236,52.35778],[31.63951,52.42274],[31.6091,52.43037],[31.60284,52.45218],[31.6252,52.49522],[31.58853,52.52189],[31.60374,52.53658],[31.64935,52.5442],[31.6413,52.55616],[31.66545,52.56758],[31.64398,52.56758],[31.61089,52.59203],[31.58317,52.59584],[31.57333,52.64525],[31.56349,52.64579],[31.51162,52.69894],[31.51698,52.70707],[31.5787,52.71682],[31.60821,52.75202],[31.60553,52.77259],[31.5787,52.79747],[31.54471,52.81261],[31.53934,52.83207],[31.55276,52.84341],[31.54918,52.85529],[31.50178,52.85961],[31.45706,52.88013],[31.38819,52.93407],[31.38551,52.96856],[31.3712,52.97933],[31.25761,53.02185],[31.26924,53.03476],[31.30591,53.02669],[31.33364,53.03153],[31.34616,53.08528],[31.38846,53.08714]]]},"properties":{"id":"45462678B94500211462696","country":"BLR","name":"Gomel","label":"Гомельська","center":[29.67106,52.2992],"strength":1.0,"priorityLabel":false}},{"type":"Feature","geometry":{"type":"Polygon","coordinates":[[[27.29535,52.39133],[27.26511,52.39928],[27.24186,52.41728],[27.18462,52.41837],[27.18014,52.45],[27.15063,52.45327],[27.14616,52.48759],[27.08355,52.49631],[27.07908,52.51971],[27.0594,52.5344],[27.08713,52.54528],[27.08355,52.55725],[27.0603,52.57519],[27.05314,52.59692],[27.08713,52.61268],[27.06388,52.64905],[27.0281,52.65773],[27.03078,52.66858],[27.07282,52.68213],[27.08176,52.70111],[27.04688,52.71899],[27.05404,52.74715],[27.03883,52.76068],[27.03794,52.77421],[26.99233,52.76609],[26.97175,52.7439],[26.90915,52.75635],[26.88232,52.77475],[26.82418,52.77042],[26.78483,52.79368],[26.75353,52.84719],[26.68287,52.84989],[26.66409,52.87095],[26.61758,52.87851],[26.60864,52.89092],[26.58986,52.88391],[26.55408,52.83963],[26.52009,52.85151],[26.45391,52.80666],[26.44586,52.80666],[26.43423,52.8299],[26.39846,52.84503],[26.43602,52.8947],[26.46554,52.90819],[26.44318,52.92598],[26.43781,52.94269],[26.40651,52.96263],[26.39309,52.98741],[26.41903,52.99333],[26.42797,53.00625],[26.46554,53.00894],[26.46375,53.0482],[26.52099,53.04175],[26.53083,53.05089],[26.52278,53.08367],[26.48253,53.08851],[26.48164,53.11106],[26.4718,53.11858],[26.39309,53.12394],[26.35821,53.14648],[26.32601,53.18348],[26.27772,53.19473],[26.27951,53.20705],[26.30902,53.21562],[26.30992,53.23115],[26.33764,53.23918],[26.34032,53.25631],[26.39399,53.26594],[26.39166,53.29751],[26.40082,53.31568],[26.37591,53.32224],[26.38104,53.33974],[26.36868,53.36116],[26.30702,53.35552],[26.09065,53.37703],[26.03284,53.3685],[26.01109,53.37943],[25.93839,53.38386],[25.8926,53.40298],[25.85482,53.38352],[25.82734,53.39069],[25.78728,53.37874],[25.72259,53.3982],[25.65562,53.35893],[25.66078,53.32647],[25.64761,53.29945],[25.60811,53.28714],[25.61842,53.2731],[25.59781,53.25325],[25.59781,53.2135],[25.57549,53.19087],[25.6104,53.16308],[25.6123,53.1175],[25.59352,53.09764],[25.59262,53.05895],[25.54791,53.04766],[25.51392,53.01808],[25.454,53.00248],[25.44684,52.98687],[25.42627,52.97933],[25.42538,52.94916],[25.31805,52.94647],[25.34309,52.90765],[25.32431,52.89794],[25.32431,52.87689],[25.36098,52.87311],[25.35472,52.84935],[25.31805,52.84287],[25.28496,52.85421],[25.29658,52.88013],[25.27959,52.88769],[25.22235,52.86339],[25.22503,52.84773],[25.21609,52.84503],[25.17763,52.85205],[25.17584,52.86771],[25.16511,52.86825],[25.12397,52.84233],[25.10429,52.85367],[25.07299,52.84665],[25.08462,52.86123],[25.0712,52.88283],[25.08551,52.92005],[25.07746,52.92652],[25.05421,52.92221],[25.05153,52.89686],[25.01843,52.89092],[24.98445,52.91682],[24.98892,52.95024],[24.9764,52.95832],[24.93883,52.96209],[24.92095,52.95132],[24.83509,52.94377],[24.77337,52.96263],[24.74654,52.95132],[24.73134,52.95455],[24.73044,52.98525],[24.71345,52.98902],[24.63743,52.94808],[24.62491,52.93084],[24.64906,52.91034],[24.61686,52.90117],[24.58466,52.87527],[24.6106,52.84233],[24.57482,52.79693],[24.58913,52.77259],[24.58645,52.76122],[24.47286,52.74553],[24.41652,52.77367],[24.33245,52.76068],[24.2609,52.77205],[24.25016,52.74877],[24.23406,52.76068],[24.19113,52.75473],[24.16072,52.76664],[24.1652,52.79477],[24.1321,52.81099],[24.09007,52.78395],[24.03641,52.78936],[24.0212,52.77475],[23.94045,52.77681],[23.9416,52.71249],[23.90851,52.69243],[23.89509,52.67237],[23.83964,52.65501],[23.74037,52.59964],[23.7198,52.60779],[23.61605,52.59638],[23.51767,52.5616],[23.43986,52.52189],[23.31643,52.42164],[23.30302,52.39436],[23.26724,52.37417],[23.17959,52.27358],[23.19301,52.27413],[23.20374,52.25388],[23.19748,52.21663],[23.26184,52.20052],[23.34255,52.19771],[23.39521,52.18297],[23.41353,52.16577],[23.47821,52.16753],[23.49023,52.15945],[23.49309,52.14189],[23.51655,52.13796],[23.52074,52.11995],[23.5445,52.11652],[23.55149,52.10364],[23.60459,52.10536],[23.61717,52.0839],[23.64931,52.06156],[23.6563,52.00902],[23.68223,51.98479],[23.61784,51.90926],[23.62678,51.87394],[23.60353,51.82587],[23.63662,51.78495],[23.61593,51.75994],[23.59481,51.75984],[23.5976,51.74945],[23.58363,51.74426],[23.56686,51.74772],[23.53611,51.72955],[23.53472,51.7183],[23.55149,51.69405],[23.53824,51.58588],[23.57401,51.54196],[23.56328,51.52304],[23.60889,51.51303],[23.62946,51.49131],[23.65272,51.48686],[23.66971,51.50022],[23.64467,51.5364],[23.66345,51.57143],[23.62231,51.58811],[23.62142,51.60144],[23.64646,51.62255],[23.79224,51.64642],[23.80923,51.6281],[23.90225,51.62366],[23.88794,51.58977],[23.93266,51.587],[23.9577,51.57366],[24.01852,51.57421],[24.07486,51.59589],[24.12853,51.65086],[24.2117,51.67471],[24.31456,51.72626],[24.31814,51.74066],[24.30204,51.75783],[24.29756,51.77997],[24.30204,51.79269],[24.3557,51.85958],[24.36911,51.8651],[24.46481,51.87007],[24.5784,51.89271],[24.67231,51.88111],[24.70451,51.88553],[24.74475,51.86786],[24.83061,51.90319],[24.84671,51.88884],[24.90753,51.90374],[24.9594,51.88719],[25.06852,51.94236],[25.22235,51.95999],[25.28049,51.95944],[25.34399,51.92692],[25.44237,51.91312],[25.5005,51.93078],[25.66239,51.91202],[25.75808,51.91368],[25.78313,51.92361],[25.77418,51.94401],[25.7867,51.94621],[25.8198,51.94346],[25.84037,51.92416],[25.91728,51.91643],[26.00762,51.92802],[26.06307,51.91092],[26.09705,51.91092],[26.18112,51.8651],[26.27056,51.86786],[26.31975,51.85792],[26.39935,51.86897],[26.40204,51.83029],[26.43871,51.82974],[26.46554,51.80707],[26.52278,51.79269],[26.55676,51.80154],[26.58628,51.82311],[26.65067,51.81592],[26.74548,51.82034],[26.77946,51.77167],[26.79646,51.77056],[26.81077,51.75672],[26.85012,51.76558],[26.96371,51.74288],[27.00037,51.76613],[27.11128,51.77388],[27.20519,51.76724],[27.20698,51.66806],[27.27584,51.65252],[27.24543,51.60366],[27.28479,51.60811],[27.32593,51.60033],[27.34471,51.61033],[27.40642,51.60866],[27.45472,51.61921],[27.51375,51.59533],[27.5057,51.62033],[27.52738,51.62707],[27.48801,51.71118],[27.4896,51.72694],[27.53571,51.7358],[27.55956,51.75451],[27.54048,51.77616],[27.55797,51.81647],[27.52458,51.85283],[27.50709,51.85479],[27.52776,51.86854],[27.54245,51.89661],[27.52922,51.95309],[27.62793,52.01263],[27.62081,52.03705],[27.58519,52.04894],[27.57807,52.06583],[27.5394,52.07522],[27.5394,52.13772],[27.5628,52.17268],[27.54957,52.18453],[27.5801,52.20824],[27.53533,52.26931],[27.51396,52.26931],[27.48547,52.28923],[27.42339,52.28861],[27.42644,52.30354],[27.39388,52.3135],[27.39388,52.32345],[27.28154,52.32733],[27.27763,52.33529],[27.2887,52.34961],[27.27437,52.36433],[27.29535,52.39133]]]},"properties":{"id":"45462678B29468378769629","country":"BLR","name":"Brest","label":"Берестейська","center":[25.48412,52.37637],"strength":1.0,"priorityLabel":false}}]}