{"type":"FeatureCollection","features":[{"type":"Feature","geometry":{"type":"Polygon","coordinates":[[[18.96626,47.00519],[18.97212,47.04178],[19.06401,47.01876],[19.15347,47.07433],[19.19406,47.07967],[19.22464,47.11321],[19.24236,47.11679],[19.28189,47.11547],[19.32708,47.09081],[19.32727,47.07782],[19.29862,47.05547],[19.28706,47.03058],[19.32266,46.98846],[19.33848,46.98908],[19.41242,47.03743],[19.45833,47.03009],[19.48034,47.08869],[19.53935,47.09439],[19.57206,47.08644],[19.59956,47.06645],[19.63273,46.97871],[19.64825,46.96376],[19.75901,46.91597],[19.81348,46.91639],[19.86368,46.96459],[19.95923,46.94153],[19.97018,46.96521],[20.00487,46.98431],[20.0411,46.99015],[20.07469,46.98152],[20.08781,47.01274],[20.07065,47.02326],[20.05853,47.06085],[20.02134,47.10125],[20.02803,47.12969],[20.06522,47.15641],[20.05853,47.18766],[20.01131,47.22739],[19.96371,47.23502],[19.96235,47.25517],[19.98323,47.28112],[19.95782,47.31794],[19.8956,47.36461],[19.81121,47.39231],[19.7911,47.42582],[19.72809,47.46351],[19.72354,47.47652],[19.75965,47.51104],[19.75697,47.52043],[19.72034,47.52567],[19.67808,47.50616],[19.64091,47.53152],[19.63235,47.55197],[19.64568,47.57035],[19.62824,47.61281],[19.60702,47.62228],[19.58688,47.64635],[19.58117,47.71783],[19.54293,47.73905],[19.51441,47.73618],[19.47509,47.70667],[19.48311,47.69173],[19.45798,47.68345],[19.42214,47.71747],[19.41572,47.74787],[19.4237,47.75938],[19.39837,47.77353],[19.41702,47.79435],[19.41292,47.80366],[19.37047,47.81895],[19.34616,47.81516],[19.30354,47.83653],[19.12875,47.84355],[19.09741,47.85224],[18.96562,47.92398],[18.96,47.94118],[19.01426,47.99198],[18.97121,48.02245],[18.95993,48.04732],[18.96697,48.06801],[18.9477,48.08121],[18.91584,48.07327],[18.87162,48.04626],[18.82408,48.04117],[18.81932,47.99219],[18.78699,47.98328],[18.77796,47.95654],[18.77768,47.87703],[18.81784,47.83804],[18.88262,47.80118],[18.88931,47.78293],[18.91603,47.76318],[18.93486,47.72196],[18.88217,47.69713],[18.87469,47.68255],[18.87816,47.64959],[18.87067,47.64346],[18.84981,47.63571],[18.81692,47.66058],[18.77279,47.66022],[18.76503,47.61553],[18.71074,47.59515],[18.69081,47.57466],[18.6924,47.52512],[18.76033,47.4767],[18.78072,47.4372],[18.77646,47.42196],[18.75151,47.40096],[18.85443,47.31864],[18.87413,47.27538],[18.91149,47.25893],[18.87495,47.15924],[18.87685,47.12205],[18.90545,47.055],[18.96626,47.00519]]]},"properties":{"id":"22733592B46801225244053","country":"HUN","name":"Pest","label":"Pest","center":[19.32663,47.40392],"strength":0.28}},{"type":"Feature","geometry":{"type":"Polygon","coordinates":[[[22.07413,47.58148],[22.09187,47.60054],[22.1208,47.5893],[22.13966,47.59608],[22.15747,47.6426],[22.23354,47.72934],[22.27728,47.74885],[22.28489,47.76387],[22.33624,47.74853],[22.39506,47.74502],[22.40891,47.79479],[22.43735,47.81546],[22.5539,47.76282],[22.63744,47.7814],[22.68712,47.82902],[22.71565,47.84019],[22.73229,47.83126],[22.75987,47.84083],[22.74798,47.88166],[22.82928,47.90079],[22.89066,47.95309],[22.88729,47.96355],[22.84402,47.98424],[22.8464,47.99506],[22.87921,48.00015],[22.86732,48.00937],[22.88345,48.02561],[22.88284,48.04148],[22.83811,48.08052],[22.83546,48.10788],[22.81585,48.11312],[22.80504,48.1063],[22.79885,48.11804],[22.77695,48.11954],[22.76143,48.10308],[22.74013,48.12117],[22.67379,48.08439],[22.61354,48.10268],[22.59407,48.08886],[22.58007,48.10207],[22.59236,48.14735],[22.55826,48.17904],[22.58693,48.19151],[22.53121,48.20942],[22.49928,48.24717],[22.44885,48.23735],[22.39537,48.25202],[22.37741,48.23378],[22.3619,48.25931],[22.33814,48.27524],[22.34052,48.29896],[22.32198,48.31193],[22.32673,48.34702],[22.31722,48.35713],[22.27824,48.35113],[22.24971,48.38492],[22.27824,48.38745],[22.2887,48.40039],[22.21405,48.41491],[22.11726,48.37442],[22.09931,48.34264],[22.0545,48.29843],[21.99941,48.30088],[21.90281,48.23634],[21.82716,48.229],[21.65013,48.16829],[21.56896,48.18616],[21.49955,48.17367],[21.42719,48.1749],[21.38606,48.13692],[21.37798,48.10873],[21.39708,48.08469],[21.37871,48.05008],[21.35594,48.03805],[21.28362,48.02656],[21.23802,48.03284],[21.19712,48.05312],[21.16963,48.03152],[21.09637,48.00968],[21.05199,48.01109],[21.03334,47.99187],[21.03424,47.96961],[21.04927,47.95404],[21.15293,47.91482],[21.21733,47.90521],[21.27657,47.9164],[21.34591,47.90931],[21.37882,47.92223],[21.42183,47.91687],[21.46014,47.93152],[21.49047,47.92805],[21.50763,47.91389],[21.50652,47.85256],[21.48228,47.78227],[21.48706,47.76993],[21.54546,47.73066],[21.55831,47.70324],[21.65307,47.69285],[21.68943,47.68099],[21.72028,47.65427],[21.7629,47.66309],[21.832,47.72131],[21.85998,47.72226],[21.9349,47.69452],[21.93174,47.67143],[21.95837,47.65309],[21.94528,47.63576],[21.95341,47.6239],[21.9677,47.62613],[22.01135,47.6642],[22.03274,47.66531],[22.03509,47.61367],[22.07413,47.58148]]]},"properties":{"id":"22733592B55295508761572","country":"HUN","name":"Szabolcs-Szatmár-Bereg","label":"Саболч-Сатмар-Берег","center":[22.04751,47.98547],"strength":1.0}},{"type":"Feature","geometry":{"type":"Polygon","coordinates":[[[21.0663,47.94641],[21.00155,47.89623],[21.00719,47.86722],[20.99675,47.84196],[20.9681,47.82322],[20.97948,47.79115],[20.93056,47.77442],[20.91693,47.76225],[20.9134,47.74124],[20.86686,47.70265],[20.78798,47.67295],[20.76361,47.63525],[20.76436,47.61933],[20.79588,47.59069],[20.89977,47.58229],[20.93247,47.5396],[20.93688,47.48776],[20.92774,47.4483],[20.95818,47.38093],[20.96253,47.29755],[20.94606,47.2133],[21.24098,47.12816],[21.25678,47.10166],[21.23731,47.05489],[21.21287,47.03483],[21.22955,46.99685],[21.32656,46.96774],[21.37614,46.96248],[21.42829,46.93114],[21.50359,46.93615],[21.52342,46.96774],[21.63476,47.02473],[21.63542,47.03884],[21.65587,47.04532],[21.71153,47.09837],[21.75879,47.11162],[21.78223,47.16833],[21.81418,47.1826],[21.83852,47.21134],[21.81478,47.238],[21.84339,47.26609],[21.84917,47.31129],[21.87747,47.32594],[21.8955,47.36606],[21.91356,47.38216],[21.96681,47.38377],[21.99304,47.41079],[21.99188,47.44996],[21.96642,47.48429],[21.98964,47.5376],[22.05136,47.56245],[22.07413,47.58148],[22.03509,47.61367],[22.03274,47.66531],[22.01135,47.6642],[21.9677,47.62613],[21.95341,47.6239],[21.94528,47.63576],[21.95837,47.65309],[21.93174,47.67143],[21.9349,47.69452],[21.85998,47.72226],[21.832,47.72131],[21.7629,47.66309],[21.72028,47.65427],[21.68943,47.68099],[21.65307,47.69285],[21.55831,47.70324],[21.54546,47.73066],[21.48706,47.76993],[21.48228,47.78227],[21.50652,47.85256],[21.50763,47.91389],[21.49047,47.92805],[21.46014,47.93152],[21.42183,47.91687],[21.37882,47.92223],[21.34591,47.90931],[21.27657,47.9164],[21.21733,47.90521],[21.15293,47.91482],[21.0663,47.94641]]]},"properties":{"id":"22733592B65065142275382","country":"HUN","name":"Hajdú-Bihar","label":"Hajdú-Bihar","center":[21.39902,47.46175],"strength":1.0}},{"type":"Feature","geometry":{"type":"Polygon","coordinates":[[[22.11726,48.37442],[22.07891,48.3696],[22.07647,48.38456],[22.06552,48.38678],[22.04574,48.37405],[22.02292,48.38819],[21.99371,48.3696],[21.94654,48.37789],[21.89481,48.36091],[21.84308,48.36556],[21.81022,48.33037],[21.78283,48.34938],[21.76214,48.33846],[21.71952,48.35211],[21.66823,48.39534],[21.66157,48.42595],[21.6378,48.45213],[21.63296,48.50173],[21.60541,48.50899],[21.59544,48.4971],[21.57139,48.49725],[21.52512,48.54633],[21.45665,48.57371],[21.43431,48.55043],[21.34255,48.55043],[21.31069,48.51705],[21.23129,48.53343],[21.19312,48.51401],[21.16917,48.5162],[21.11639,48.48407],[21.10257,48.4904],[21.09653,48.51298],[21.03094,48.52864],[20.99959,48.5105],[20.97251,48.51111],[20.94695,48.54919],[20.88701,48.54134],[20.84714,48.57457],[20.83589,48.56651],[20.6664,48.55282],[20.65453,48.54214],[20.58972,48.52703],[20.56842,48.54416],[20.54407,48.52421],[20.51364,48.53549],[20.50178,48.52582],[20.51577,48.50002],[20.46465,48.45282],[20.41304,48.42248],[20.39497,48.36566],[20.29942,48.2743],[20.27752,48.27126],[20.23522,48.29516],[20.21757,48.26782],[20.18866,48.26843],[20.16675,48.25141],[20.14758,48.27349],[20.1275,48.27268],[20.12385,48.23155],[20.05265,48.19505],[20.0314,48.16905],[20.05357,48.14903],[20.10693,48.13601],[20.14172,48.13899],[20.18238,48.085],[20.2026,48.07809],[20.23362,48.08171],[20.26206,48.09756],[20.31636,48.07951],[20.37583,48.14574],[20.43671,48.13068],[20.44776,48.10086],[20.47926,48.085],[20.47949,48.07354],[20.4249,47.96629],[20.46824,47.93259],[20.47411,47.91807],[20.46934,47.90896],[20.40662,47.89129],[20.39816,47.8759],[20.40333,47.86691],[20.45505,47.85271],[20.48921,47.77425],[20.5486,47.74013],[20.55659,47.71436],[20.59972,47.68173],[20.77967,47.66421],[20.86686,47.70265],[20.9134,47.74124],[20.91693,47.76225],[20.93056,47.77442],[20.97948,47.79115],[20.9681,47.82322],[20.99675,47.84196],[21.00719,47.86722],[21.00155,47.89623],[21.0663,47.94641],[21.03424,47.96961],[21.03334,47.99187],[21.05199,48.01109],[21.09637,48.00968],[21.16963,48.03152],[21.19712,48.05312],[21.23802,48.03284],[21.28362,48.02656],[21.35594,48.03805],[21.37871,48.05008],[21.39708,48.08469],[21.37798,48.10873],[21.38606,48.13692],[21.42719,48.1749],[21.49955,48.17367],[21.56896,48.18616],[21.65013,48.16829],[21.82716,48.229],[21.90281,48.23634],[21.99941,48.30088],[22.0545,48.29843],[22.09931,48.34264],[22.11726,48.37442]]]},"properties":{"id":"22733592B38895068362950","country":"HUN","name":"Borsod-Abaúj-Zemplén","label":"Borsod-Abaúj-Zemplén","center":[20.95082,48.20124],"strength":1.0}},{"type":"Feature","geometry":{"type":"Polygon","coordinates":[[[19.54293,47.73905],[19.59544,47.78184],[19.59063,47.8228],[19.60453,47.82154],[19.6155,47.80807],[19.67006,47.8122],[19.74345,47.86458],[19.73969,47.90185],[19.78231,47.87887],[19.80363,47.87747],[19.81658,47.8884],[19.79522,47.91466],[19.80084,47.92846],[19.84657,47.93527],[19.8931,47.93007],[19.92707,47.94834],[19.94027,47.98303],[19.99585,48.02441],[19.99,48.04034],[19.94421,48.06775],[19.94557,48.0777],[20.04073,48.12324],[20.05121,48.1512],[20.00761,48.18572],[19.88894,48.12381],[19.87829,48.13213],[19.88863,48.14797],[19.86735,48.16982],[19.82884,48.1753],[19.77688,48.15802],[19.76928,48.17451],[19.7883,48.18846],[19.75566,48.21675],[19.69693,48.206],[19.67655,48.23439],[19.63486,48.24938],[19.57362,48.21448],[19.52961,48.21617],[19.51984,48.20722],[19.49884,48.17456],[19.50493,48.15751],[19.48423,48.1429],[19.47815,48.10959],[19.45928,48.08256],[19.44103,48.10654],[19.39629,48.08235],[19.3157,48.09042],[19.24818,48.06946],[19.23202,48.05293],[19.16736,48.06088],[19.14168,48.07772],[19.11363,48.0631],[19.09556,48.07454],[19.0558,48.05592],[19.03145,48.07381],[18.99281,48.0547],[18.96369,48.06492],[18.95993,48.04732],[18.97121,48.02245],[19.01426,47.99198],[18.96,47.94118],[18.96562,47.92398],[19.09741,47.85224],[19.12875,47.84355],[19.30354,47.83653],[19.34616,47.81516],[19.37047,47.81895],[19.41292,47.80366],[19.41702,47.79435],[19.39837,47.77353],[19.4237,47.75938],[19.41572,47.74787],[19.42214,47.71747],[19.45798,47.68345],[19.48311,47.69173],[19.47509,47.70667],[19.51441,47.73618],[19.54293,47.73905]]]},"properties":{"id":"22733592B56459880018469","country":"HUN","name":"Nógrád","label":"Nógrád","center":[19.51195,47.98816],"strength":0.28}},{"type":"Feature","geometry":{"type":"Polygon","coordinates":[[[19.64568,47.57035],[19.66417,47.5735],[19.69279,47.6121],[19.72141,47.61661],[19.77869,47.59816],[19.83373,47.66022],[19.87304,47.64779],[19.93322,47.67895],[19.95889,47.67895],[19.9859,47.58739],[20.00543,47.5625],[20.06854,47.55347],[20.08218,47.56683],[20.07229,47.57657],[20.07363,47.59317],[20.14053,47.60855],[20.23409,47.52151],[20.26458,47.5105],[20.271,47.46875],[20.28892,47.4485],[20.37476,47.4172],[20.4106,47.44832],[20.44858,47.4541],[20.47098,47.49009],[20.58965,47.53666],[20.61974,47.56092],[20.64481,47.56825],[20.64398,47.59813],[20.65902,47.60799],[20.66702,47.63254],[20.70964,47.65768],[20.70836,47.66822],[20.65849,47.68173],[20.59972,47.68173],[20.57034,47.70175],[20.5533,47.71831],[20.5486,47.74013],[20.48921,47.77425],[20.45505,47.85271],[20.40333,47.86691],[20.39816,47.8759],[20.40662,47.89129],[20.46934,47.90896],[20.47411,47.91807],[20.46824,47.93259],[20.4249,47.96629],[20.47949,48.07354],[20.47926,48.085],[20.44776,48.10086],[20.43671,48.13068],[20.37583,48.14574],[20.31636,48.07951],[20.26206,48.09756],[20.23362,48.08171],[20.2026,48.07809],[20.18238,48.085],[20.14172,48.13899],[20.10693,48.13601],[20.05121,48.1512],[20.04073,48.12324],[19.94557,48.0777],[19.94421,48.06775],[19.99,48.04034],[19.99585,48.02441],[19.94027,47.98303],[19.92707,47.94834],[19.8931,47.93007],[19.84657,47.93527],[19.80084,47.92846],[19.79522,47.91466],[19.81658,47.8884],[19.80363,47.87747],[19.78231,47.87887],[19.73969,47.90185],[19.74345,47.86458],[19.67006,47.8122],[19.6155,47.80807],[19.60453,47.82154],[19.58822,47.82011],[19.59544,47.78184],[19.54293,47.73905],[19.58476,47.71414],[19.58688,47.64635],[19.60702,47.62228],[19.62824,47.61281],[19.64568,47.57035]]]},"properties":{"id":"22733592B80362656403521","country":"HUN","name":"Heves","label":"Heves","center":[20.15498,47.78331],"strength":0.82}},{"type":"Feature","geometry":{"type":"Polygon","coordinates":[[[20.94647,47.21308],[20.89512,47.16721],[20.83077,47.13708],[20.8082,47.10808],[20.80454,47.06058],[20.78582,47.03908],[20.74303,47.01958],[20.71014,47.02322],[20.68045,47.01137],[20.67751,46.99751],[20.70051,46.97325],[20.70292,46.95609],[20.66815,46.89837],[20.57508,46.87479],[20.53897,46.88595],[20.50822,46.86785],[20.4681,46.87132],[20.3983,46.82486],[20.39215,46.81113],[20.41515,46.78202],[20.44029,46.79191],[20.49511,46.75638],[20.55128,46.76078],[20.5724,46.74795],[20.5609,46.70157],[20.57428,46.67295],[20.55128,46.65459],[20.54352,46.62227],[20.57535,46.54305],[20.60503,46.52428],[20.58283,46.50901],[20.58471,46.46261],[20.53443,46.39643],[20.5601,46.36931],[20.65665,46.35362],[20.68232,46.35584],[20.71094,46.37946],[20.72297,46.37891],[20.76851,46.33231],[20.74761,46.29912],[20.78462,46.27627],[20.85806,46.29955],[20.90823,46.27558],[20.9479,46.29234],[20.96626,46.2766],[21.0259,46.28017],[21.06469,46.26086],[21.10154,46.28658],[21.12417,46.31714],[21.18034,46.3199],[21.18612,46.34637],[21.2059,46.36296],[21.1916,46.37682],[21.21199,46.4146],[21.23907,46.42949],[21.28612,46.42325],[21.31036,46.45822],[21.30784,46.4809],[21.26885,46.49301],[21.26798,46.52106],[21.31545,46.5805],[21.30084,46.59388],[21.3124,46.62043],[21.33401,46.63485],[21.40491,46.62628],[21.41464,46.64884],[21.44214,46.66294],[21.41908,46.68534],[21.43381,46.6929],[21.4469,46.6856],[21.49052,46.69081],[21.52459,46.7327],[21.47555,46.75764],[21.50325,46.79136],[21.51894,46.84049],[21.58788,46.86228],[21.60119,46.90128],[21.5817,46.92304],[21.58983,46.93196],[21.61596,46.93243],[21.66568,46.96999],[21.64834,46.98576],[21.67108,47.00286],[21.63476,47.02473],[21.53627,46.97701],[21.50359,46.93615],[21.4103,46.9354],[21.37614,46.96248],[21.32656,46.96774],[21.22297,47.00037],[21.21287,47.03483],[21.23731,47.05489],[21.25678,47.10166],[21.23621,47.1314],[20.94647,47.21308]]]},"properties":{"id":"22733592B23182986205710","country":"HUN","name":"Békés","label":"Békés","center":[20.99403,46.72857],"strength":1.0}},{"type":"Feature","geometry":{"type":"Polygon","coordinates":[[[20.41523,46.78206],[20.37904,46.75766],[20.30229,46.72889],[20.27768,46.73549],[20.25795,46.76147],[20.22861,46.76569],[20.17219,46.72102],[20.04391,46.76741],[19.96932,46.70212],[19.99607,46.66267],[19.97521,46.63017],[19.98724,46.60262],[19.97433,46.58166],[19.93462,46.55813],[19.86872,46.56778],[19.77236,46.51774],[19.79136,46.4996],[19.83723,46.50431],[19.85315,46.49571],[19.903,46.43441],[19.89177,46.40786],[19.90754,46.39661],[19.86256,46.36382],[19.81309,46.37468],[19.75751,46.33775],[19.71499,46.35048],[19.6722,46.3226],[19.66765,46.30893],[19.6862,46.29363],[19.68453,46.28093],[19.65779,46.25002],[19.70268,46.19964],[19.70355,46.1783],[19.82166,46.13083],[19.94178,46.17785],[20.02,46.18217],[20.03594,46.1484],[20.07363,46.14801],[20.09173,46.18107],[20.10544,46.1827],[20.11233,46.16641],[20.13636,46.15016],[20.1898,46.16601],[20.21035,46.14106],[20.26812,46.12965],[20.27792,46.1592],[20.36149,46.1783],[20.4313,46.15995],[20.4722,46.16271],[20.4897,46.17169],[20.49493,46.20107],[20.51204,46.20352],[20.6383,46.15147],[20.71483,46.18769],[20.72672,46.21597],[20.75272,46.21803],[20.75272,46.25759],[20.78462,46.27627],[20.74761,46.29912],[20.76851,46.33231],[20.72297,46.37891],[20.71094,46.37946],[20.68232,46.35584],[20.64354,46.35418],[20.57214,46.36414],[20.53443,46.39643],[20.58471,46.46261],[20.58283,46.50901],[20.60503,46.52428],[20.57535,46.54305],[20.54352,46.62227],[20.55128,46.65459],[20.57428,46.67295],[20.5609,46.70157],[20.5724,46.74795],[20.55128,46.76078],[20.49511,46.75638],[20.44029,46.79191],[20.41523,46.78206]]]},"properties":{"id":"22733592B44371380589399","country":"HUN","name":"Csongrád-Csanád","label":"Csongrád-Csanád","center":[20.22783,46.41951],"strength":0.89}},{"type":"Feature","geometry":{"type":"Polygon","coordinates":[[[20.07469,46.98152],[20.10304,46.95412],[20.08833,46.9245],[20.13333,46.91376],[20.14253,46.90376],[20.0811,46.84806],[20.10283,46.81547],[20.01506,46.80564],[19.9942,46.78953],[20.01866,46.7732],[20.03462,46.78827],[20.05248,46.78647],[20.04933,46.7682],[20.07483,46.75252],[20.15799,46.72159],[20.17846,46.72188],[20.19392,46.7445],[20.22861,46.76569],[20.25795,46.76147],[20.28357,46.73127],[20.31513,46.73182],[20.40686,46.77305],[20.41523,46.78206],[20.3967,46.8018],[20.39375,46.8201],[20.4574,46.86712],[20.50822,46.86785],[20.53897,46.88595],[20.57508,46.87479],[20.66815,46.89837],[20.70292,46.95609],[20.70051,46.97325],[20.67751,46.99751],[20.68045,47.01137],[20.71014,47.02322],[20.74303,47.01958],[20.78582,47.03908],[20.80454,47.06058],[20.8082,47.10808],[20.83077,47.13708],[20.89512,47.16721],[20.94647,47.21308],[20.95598,47.23599],[20.95818,47.38093],[20.92774,47.4483],[20.93651,47.51307],[20.91317,47.57405],[20.88167,47.58546],[20.79588,47.59069],[20.76436,47.61933],[20.77967,47.66421],[20.7448,47.67258],[20.70836,47.66822],[20.70297,47.64857],[20.66702,47.63254],[20.65902,47.60799],[20.64398,47.59813],[20.64481,47.56825],[20.61974,47.56092],[20.58965,47.53666],[20.47098,47.49009],[20.44858,47.4541],[20.4106,47.44832],[20.3876,47.42353],[20.36407,47.41666],[20.28892,47.4485],[20.271,47.46875],[20.26458,47.5105],[20.23409,47.52151],[20.14053,47.60855],[20.07363,47.59317],[20.07229,47.57657],[20.08218,47.56683],[20.06854,47.55347],[20.00543,47.5625],[19.9859,47.58739],[19.95889,47.67895],[19.93322,47.67895],[19.87304,47.64779],[19.83373,47.66022],[19.77869,47.59816],[19.72141,47.61661],[19.68102,47.60561],[19.66417,47.5735],[19.63422,47.55798],[19.64091,47.53152],[19.67808,47.50616],[19.72034,47.52567],[19.75697,47.52043],[19.75965,47.51104],[19.72354,47.47652],[19.72809,47.46351],[19.7911,47.42582],[19.81121,47.39231],[19.8956,47.36461],[19.95782,47.31794],[19.98323,47.28112],[19.96235,47.25517],[19.96371,47.23502],[20.01131,47.22739],[20.05853,47.18766],[20.06522,47.15641],[20.02803,47.12969],[20.02134,47.10125],[20.05853,47.06085],[20.07065,47.02326],[20.08781,47.01274],[20.07469,46.98152]]]},"properties":{"id":"22733592B98149210561707","country":"HUN","name":"Jász-Nagykun-Szolnok","label":"Jász-Nagykun-Szolnok","center":[20.37787,47.24688],"strength":1.0}},{"type":"Feature","geometry":{"type":"Polygon","coordinates":[[[18.96626,47.00519],[18.95781,46.97393],[18.9709,46.89123],[18.93073,46.84005],[18.93408,46.79174],[18.99615,46.73796],[19.01563,46.67432],[18.96603,46.62064],[18.8997,46.60831],[18.87351,46.58673],[18.90882,46.53404],[18.93866,46.44389],[18.90728,46.37308],[18.914,46.32873],[18.93469,46.28984],[18.93134,46.25913],[18.92526,46.24714],[18.89848,46.23914],[18.83671,46.19493],[18.84371,46.17871],[18.88083,46.19472],[18.89726,46.19198],[18.85862,46.13761],[18.74086,46.05025],[18.75364,46.02743],[18.77646,46.02278],[18.81145,46.02321],[18.8501,46.03926],[18.86501,46.02828],[18.83458,45.97247],[18.84218,45.95513],[18.79806,45.93545],[18.82646,45.91737],[18.881,45.91545],[18.9116,45.94029],[19.00697,45.93197],[19.00954,45.9637],[19.0779,45.9637],[19.0779,46.0041],[19.0983,46.03103],[19.11769,46.0374],[19.13638,46.03546],[19.16378,45.99741],[19.22583,46.00355],[19.30434,45.99392],[19.28682,46.01567],[19.36298,46.05451],[19.37637,46.05239],[19.38413,46.03411],[19.4004,46.03374],[19.47513,46.08562],[19.48238,46.10016],[19.52801,46.11262],[19.53175,46.1189],[19.51482,46.13177],[19.51905,46.1448],[19.54726,46.14578],[19.57532,46.1701],[19.6297,46.16244],[19.65913,46.18488],[19.68117,46.17267],[19.70355,46.1783],[19.70268,46.19964],[19.65779,46.25002],[19.68453,46.28093],[19.6862,46.29363],[19.66765,46.30893],[19.6722,46.3226],[19.71499,46.35048],[19.75751,46.33775],[19.81309,46.37468],[19.86256,46.36382],[19.90754,46.39661],[19.89177,46.40786],[19.903,46.43441],[19.85315,46.49571],[19.83723,46.50431],[19.79136,46.4996],[19.77236,46.51774],[19.86872,46.56778],[19.93462,46.55813],[19.97433,46.58166],[19.98724,46.60262],[19.97521,46.63017],[19.99607,46.66267],[19.96932,46.70212],[20.05751,46.78362],[20.03462,46.78827],[20.01866,46.7732],[19.99473,46.79429],[20.01506,46.80564],[20.10283,46.81547],[20.0811,46.84806],[20.14253,46.90376],[20.13333,46.91376],[20.08833,46.9245],[20.10339,46.94863],[20.09774,46.96534],[20.0411,46.99015],[19.99301,46.97974],[19.97018,46.96521],[19.95923,46.94153],[19.86368,46.96459],[19.81348,46.91639],[19.75079,46.91847],[19.64825,46.96376],[19.63273,46.97871],[19.59956,47.06645],[19.57206,47.08644],[19.53935,47.09439],[19.48034,47.08869],[19.46546,47.06573],[19.46546,47.03463],[19.44597,47.02912],[19.41242,47.03743],[19.33848,46.98908],[19.32266,46.98846],[19.3044,47.00154],[19.28706,47.03058],[19.29862,47.05547],[19.32727,47.07782],[19.32708,47.09081],[19.26378,47.11693],[19.22464,47.11321],[19.19406,47.07967],[19.15347,47.07433],[19.06401,47.01876],[18.97212,47.04178],[18.96626,47.00519]]]},"properties":{"id":"22733592B34864686161966","country":"HUN","name":"Bács-Kiskun","label":"Bács-Kiskun","center":[19.3821,46.5541],"strength":0.28}}]}