{"type":"FeatureCollection","features":[{"type":"Feature","geometry":{"type":"Polygon","coordinates":[[[21.20883,50.3549],[21.22264,50.31086],[21.18382,50.29799],[21.17754,50.27976],[21.14573,50.25712],[21.18268,50.24],[21.14211,50.23768],[21.17098,50.20826],[21.16504,50.18067],[21.17106,50.17662],[21.15239,50.14764],[21.17576,50.14265],[21.14,50.12761],[21.19502,50.11984],[21.1769,50.11186],[21.19901,50.09496],[21.16009,50.0895],[21.17972,50.07612],[21.16635,50.0597],[21.14503,50.05301],[21.1929,50.02926],[21.17879,50.0118],[21.15444,50.00341],[21.15044,49.97648],[21.17971,49.92833],[21.28472,49.92406],[21.27965,49.89205],[21.2264,49.88586],[21.22496,49.8526],[21.25213,49.84089],[21.29715,49.84286],[21.34895,49.81496],[21.3084,49.79614],[21.2804,49.80578],[21.27059,49.79413],[21.25147,49.79216],[21.24177,49.7761],[21.25782,49.75213],[21.31254,49.74777],[21.31576,49.72825],[21.3314,49.7188],[21.3204,49.69845],[21.34868,49.69267],[21.34172,49.65932],[21.3577,49.6497],[21.3628,49.63414],[21.32682,49.59219],[21.38029,49.56976],[21.35864,49.54475],[21.38047,49.53907],[21.39279,49.51167],[21.40756,49.50963],[21.42171,49.49243],[21.38884,49.48545],[21.41137,49.46781],[21.39214,49.45579],[21.40653,49.42662],[21.43296,49.41261],[21.4737,49.41359],[21.48885,49.42908],[21.51705,49.4178],[21.53027,49.43508],[21.56398,49.44126],[21.59056,49.43382],[21.63094,49.44731],[21.65891,49.4168],[21.72177,49.41228],[21.7269,49.39811],[21.76338,49.38347],[21.77893,49.35589],[21.78922,49.35549],[21.78784,49.36772],[21.80299,49.38218],[21.84024,49.39151],[21.859,49.36856],[21.88733,49.36898],[21.90377,49.34996],[21.96278,49.34791],[21.98318,49.31037],[22.03402,49.27855],[22.03032,49.26267],[22.04189,49.25716],[22.03042,49.22517],[22.06196,49.21159],[22.14381,49.20051],[22.1431,49.19274],[22.1899,49.17402],[22.22246,49.18446],[22.2358,49.17008],[22.22571,49.15254],[22.31765,49.13555],[22.3346,49.14647],[22.36726,49.1466],[22.42265,49.09949],[22.45607,49.10377],[22.49871,49.08579],[22.59981,49.0935],[22.62567,49.08032],[22.65157,49.05082],[22.68018,49.03938],[22.71786,49.05278],[22.75497,49.04295],[22.76549,49.05353],[22.80951,49.03464],[22.81319,49.02514],[22.83375,49.02608],[22.84709,49.00239],[22.8919,49.00895],[22.89379,49.01823],[22.87412,49.03077],[22.88138,49.03832],[22.86669,49.03986],[22.87578,49.05135],[22.86453,49.06679],[22.8927,49.09445],[22.85551,49.10368],[22.86016,49.11231],[22.83151,49.11102],[22.81213,49.12504],[22.8164,49.12977],[22.7931,49.13829],[22.7892,49.15773],[22.73913,49.15798],[22.75617,49.18263],[22.73272,49.18227],[22.719,49.16499],[22.70726,49.17498],[22.73396,49.21144],[22.74768,49.21562],[22.71489,49.22649],[22.72131,49.24134],[22.73963,49.24735],[22.75096,49.31659],[22.74681,49.35989],[22.69669,49.49513],[22.65124,49.50837],[22.64083,49.52999],[22.67469,49.54916],[22.69484,49.58198],[22.78331,49.65724],[22.78722,49.67646],[22.80556,49.6934],[22.84778,49.71008],[22.87343,49.74063],[22.89678,49.75176],[22.90159,49.76825],[22.9619,49.8047],[22.95664,49.81111],[22.97063,49.83851],[22.99546,49.84215],[23.11492,49.95654],[23.21301,50.0311],[23.21599,50.04747],[23.23932,50.05445],[23.27933,50.08629],[23.28008,50.10054],[23.31395,50.11196],[23.47013,50.21788],[23.54791,50.25182],[23.5088,50.2613],[23.51395,50.27879],[23.50114,50.28516],[23.51995,50.29546],[23.47003,50.29363],[23.45705,50.30316],[23.41287,50.30765],[23.40326,50.3013],[23.43579,50.34699],[23.37821,50.36888],[23.3739,50.377],[23.38276,50.38327],[23.36632,50.39373],[23.38757,50.40539],[23.35815,50.41054],[23.25023,50.35888],[23.25313,50.36471],[23.21866,50.3883],[23.17871,50.3954],[23.01896,50.28715],[22.89009,50.30151],[22.85529,50.29446],[22.7514,50.30331],[22.70756,50.29114],[22.60688,50.31119],[22.61035,50.33],[22.68674,50.34508],[22.68797,50.35692],[22.62455,50.35748],[22.59551,50.34874],[22.56518,50.35906],[22.50701,50.34362],[22.50385,50.35287],[22.48038,50.35312],[22.45138,50.37089],[22.45292,50.38859],[22.43519,50.39248],[22.43719,50.39972],[22.40295,50.39525],[22.41194,50.42341],[22.44622,50.41895],[22.45009,50.43297],[22.45949,50.43419],[22.44446,50.46213],[22.50124,50.45504],[22.50993,50.45647],[22.50728,50.46754],[22.52072,50.4641],[22.53034,50.44706],[22.55108,50.46215],[22.56597,50.45948],[22.5538,50.4655],[22.58612,50.47733],[22.56723,50.48323],[22.52545,50.47514],[22.50564,50.48372],[22.54604,50.48574],[22.57699,50.5043],[22.54122,50.50566],[22.52882,50.51267],[22.53669,50.5167],[22.5276,50.522],[22.53537,50.52411],[22.53447,50.53758],[22.51172,50.53906],[22.53849,50.54985],[22.53625,50.57217],[22.51973,50.58323],[22.50578,50.57562],[22.50647,50.58423],[22.48362,50.57574],[22.48883,50.58015],[22.46535,50.58441],[22.46528,50.59194],[22.42012,50.58063],[22.34835,50.6145],[22.24908,50.6206],[22.22304,50.66004],[22.14179,50.66969],[22.16903,50.68848],[22.17714,50.70097],[22.17037,50.70619],[22.20558,50.75401],[22.15231,50.77179],[22.16297,50.7973],[22.05196,50.82055],[21.99528,50.78323],[21.97345,50.78768],[21.94934,50.7714],[21.87571,50.7799],[21.8802,50.78983],[21.86425,50.80215],[21.84022,50.759],[21.84317,50.73721],[21.82544,50.69804],[21.78628,50.68005],[21.79382,50.67569],[21.77884,50.65882],[21.78012,50.64507],[21.75019,50.65525],[21.73338,50.64159],[21.72259,50.64536],[21.66945,50.60505],[21.65651,50.57181],[21.60402,50.52124],[21.55591,50.52068],[21.44716,50.49178],[21.45146,50.46392],[21.44351,50.45642],[21.31124,50.42174],[21.28105,50.40838],[21.27879,50.39189],[21.25669,50.39087],[21.24978,50.3776],[21.22999,50.37353],[21.20883,50.3549]]]},"properties":{"id":"17162690B44985096553766","country":"POL","name":"Subcarpathian Voivodeship","label":"Підкарпатське","center":[22.16881,49.95334],"strength":1.0,"priorityLabel":false}},{"type":"Feature","geometry":{"type":"Polygon","coordinates":[[[23.54791,50.25182],[23.58101,50.266],[23.61157,50.29925],[23.63104,50.30479],[23.63885,50.32051],[23.68633,50.33164],[23.70311,50.37529],[23.72703,50.388],[23.80336,50.40476],[23.99754,50.41214],[24.00583,50.43538],[24.03453,50.44483],[24.07011,50.50339],[24.09132,50.56202],[24.09819,50.63744],[24.08007,50.64488],[24.09047,50.65356],[24.0824,50.67456],[24.06229,50.67786],[24.0722,50.72034],[24.04418,50.71519],[24.01669,50.72296],[24.02314,50.7455],[24.01537,50.74735],[24.02366,50.75086],[24.01115,50.75448],[24.01406,50.76211],[24.02492,50.75876],[24.02371,50.76647],[23.97816,50.76843],[23.95745,50.79453],[23.96352,50.81438],[23.98962,50.83744],[24.10016,50.83595],[24.13206,50.849],[24.14574,50.86901],[24.05235,50.89141],[23.99734,50.92832],[23.98842,50.94477],[23.97038,50.9503],[23.95675,50.99076],[23.91508,51.00705],[23.93566,51.0147],[23.9159,51.0284],[23.93152,51.03808],[23.91302,51.04176],[23.91993,51.04659],[23.91109,51.0746],[23.87593,51.07707],[23.87142,51.09488],[23.85686,51.09995],[23.8623,51.11284],[23.84961,51.12397],[23.86984,51.12989],[23.86927,51.15031],[23.843,51.1643],[23.82423,51.16175],[23.80838,51.18499],[23.78508,51.18957],[23.7566,51.21234],[23.73919,51.21197],[23.74297,51.22443],[23.72652,51.23646],[23.72663,51.26135],[23.69501,51.29164],[23.64596,51.29182],[23.65234,51.29959],[23.64097,51.30675],[23.63577,51.32852],[23.65653,51.33941],[23.64981,51.34397],[23.65669,51.35909],[23.6692,51.36089],[23.66532,51.36682],[23.68658,51.36862],[23.67862,51.38383],[23.68916,51.3882],[23.6769,51.39405],[23.70275,51.40355],[23.69278,51.41452],[23.70293,51.41955],[23.67699,51.42967],[23.68574,51.4338],[23.68463,51.44523],[23.64944,51.44626],[23.64671,51.4591],[23.67631,51.471],[23.66982,51.48303],[23.62013,51.49637],[23.61735,51.51024],[23.62487,51.5139],[23.61275,51.52882],[23.56513,51.53441],[23.56516,51.55001],[23.57789,51.55711],[23.54028,51.60193],[23.54646,51.62091],[23.53933,51.63376],[23.54871,51.641],[23.53744,51.64464],[23.53931,51.65681],[23.55823,51.66528],[23.54886,51.68473],[23.56124,51.69959],[23.54875,51.70359],[23.55648,51.70732],[23.54727,51.7101],[23.54695,51.72715],[23.52702,51.72976],[23.53088,51.74361],[23.55897,51.76156],[23.58741,51.75911],[23.59705,51.77215],[23.63051,51.77977],[23.62852,51.79084],[23.64138,51.80035],[23.62213,51.8301],[23.60288,51.83035],[23.60932,51.8387],[23.60015,51.84048],[23.61749,51.85611],[23.60708,51.87632],[23.63034,51.87344],[23.62228,51.88486],[23.63797,51.89299],[23.61204,51.91738],[23.64564,51.93376],[23.64035,51.94966],[23.62757,51.95115],[23.66926,51.96473],[23.66504,51.97843],[23.68902,51.99191],[23.65734,52.01874],[23.66272,52.03995],[23.64145,52.05894],[23.65559,52.05899],[23.64419,52.06507],[23.65294,52.07376],[23.61293,52.09676],[23.61854,52.1088],[23.57934,52.12004],[23.55692,52.11901],[23.54919,52.10971],[23.54197,52.12791],[23.51353,52.13774],[23.51032,52.14982],[23.48934,52.15074],[23.4854,52.16503],[23.4931,52.17541],[23.50717,52.17328],[23.50072,52.17905],[23.46702,52.17416],[23.45811,52.18479],[23.42428,52.17229],[23.41454,52.18235],[23.39854,52.17843],[23.39547,52.20107],[23.37678,52.19491],[23.36594,52.20802],[23.29911,52.21168],[23.30544,52.22146],[23.26751,52.21486],[23.20367,52.22655],[23.19411,52.23954],[23.20563,52.25723],[23.20406,52.2765],[23.12841,52.28784],[23.07808,52.23495],[23.06584,52.23663],[23.03129,52.21645],[23.03967,52.18391],[23.07148,52.17042],[23.0342,52.17859],[22.97709,52.17228],[22.98592,52.15885],[22.93312,52.1365],[22.96826,52.11543],[22.9501,52.10223],[22.92812,52.11157],[22.89302,52.10209],[22.88754,52.09204],[22.90758,52.07701],[22.90233,52.06359],[22.8667,52.06375],[22.86564,52.07242],[22.85,52.06576],[22.83018,52.08146],[22.78363,52.06869],[22.75411,52.09493],[22.69844,52.10823],[22.69942,52.11776],[22.6483,52.09086],[22.66672,52.07961],[22.66136,52.03659],[22.63375,52.03104],[22.6229,52.01874],[22.60828,52.03696],[22.5475,52.04452],[22.50547,52.06993],[22.48329,52.06723],[22.456,52.02962],[22.43353,52.01743],[22.38042,52.0166],[22.34435,51.996],[22.31622,52.01345],[22.32268,52.03689],[22.29746,52.03746],[22.28562,52.01926],[22.25364,52.00451],[22.15191,52.02835],[22.13861,52.00681],[22.11454,52.00147],[22.02985,52.02171],[21.99768,52.01214],[21.96853,51.98898],[21.93419,51.99319],[21.92155,51.98088],[21.8803,51.97103],[21.86635,51.94345],[21.89011,51.92844],[21.88557,51.9118],[21.90802,51.90301],[21.90287,51.89682],[21.91289,51.88654],[21.89736,51.8834],[21.89028,51.85716],[21.84827,51.85091],[21.84532,51.84124],[21.85708,51.8396],[21.85855,51.82938],[21.92738,51.83786],[21.95638,51.79387],[21.92724,51.77876],[21.90032,51.77758],[21.89733,51.7688],[21.86656,51.76866],[21.83529,51.74445],[21.87079,51.73284],[21.87679,51.71171],[21.90331,51.7041],[21.87996,51.69358],[21.87775,51.67658],[21.84498,51.67316],[21.83063,51.64823],[21.77188,51.64767],[21.77582,51.64242],[21.75852,51.63827],[21.76243,51.63034],[21.74922,51.61205],[21.72675,51.61806],[21.7221,51.63741],[21.64722,51.66032],[21.63575,51.65202],[21.64007,51.6259],[21.61555,51.61756],[21.65025,51.60158],[21.6575,51.58108],[21.69476,51.57047],[21.82501,51.56154],[21.83276,51.53618],[21.85555,51.5096],[21.8482,51.48466],[21.87318,51.47491],[21.8397,51.41753],[21.80132,51.42764],[21.78009,51.41164],[21.76774,51.41351],[21.76096,51.40125],[21.76849,51.39109],[21.79285,51.39521],[21.81598,51.37159],[21.83795,51.37857],[21.85378,51.35175],[21.82952,51.34129],[21.83659,51.33261],[21.81954,51.29993],[21.78304,51.29374],[21.78676,51.28503],[21.81176,51.29156],[21.82302,51.28068],[21.83494,51.28893],[21.86011,51.2747],[21.80824,51.25433],[21.81655,51.23059],[21.78846,51.20152],[21.78331,51.17905],[21.79254,51.18013],[21.78485,51.15058],[21.7994,51.13475],[21.79047,51.11588],[21.79963,51.07623],[21.82638,51.04703],[21.80265,51.02527],[21.82074,51.00462],[21.81288,50.93454],[21.84742,50.86169],[21.843,50.83933],[21.86883,50.81739],[21.86425,50.80215],[21.8802,50.78983],[21.87571,50.7799],[21.94934,50.7714],[21.97345,50.78768],[21.99528,50.78323],[22.05196,50.82055],[22.16297,50.7973],[22.15231,50.77179],[22.20558,50.75401],[22.17037,50.70619],[22.17714,50.70097],[22.16903,50.68848],[22.14179,50.66969],[22.2063,50.66623],[22.23253,50.65266],[22.24908,50.6206],[22.34835,50.6145],[22.42012,50.58063],[22.46528,50.59194],[22.46535,50.58441],[22.48883,50.58015],[22.48362,50.57574],[22.50647,50.58423],[22.50578,50.57562],[22.51501,50.57551],[22.50962,50.5801],[22.51973,50.58323],[22.53625,50.57217],[22.53849,50.54985],[22.51172,50.53906],[22.53447,50.53758],[22.53537,50.52411],[22.5276,50.522],[22.53669,50.5167],[22.52882,50.51267],[22.57699,50.5043],[22.54604,50.48574],[22.50564,50.48372],[22.52545,50.47514],[22.56723,50.48323],[22.58612,50.47733],[22.5538,50.4655],[22.56597,50.45948],[22.55108,50.46215],[22.53034,50.44706],[22.52072,50.4641],[22.50728,50.46754],[22.50993,50.45647],[22.50124,50.45504],[22.44446,50.46213],[22.45949,50.43419],[22.45009,50.43297],[22.44622,50.41895],[22.41194,50.42341],[22.40295,50.39525],[22.43719,50.39972],[22.43519,50.39248],[22.45292,50.38859],[22.45525,50.36685],[22.48038,50.35312],[22.50385,50.35287],[22.50701,50.34362],[22.56518,50.35906],[22.59551,50.34874],[22.62455,50.35748],[22.68797,50.35692],[22.68674,50.34508],[22.61035,50.33],[22.60688,50.31119],[22.61641,50.30742],[22.70756,50.29114],[22.7514,50.30331],[22.85529,50.29446],[22.89009,50.30151],[23.01896,50.28715],[23.17871,50.3954],[23.21866,50.3883],[23.25313,50.36471],[23.25023,50.35888],[23.35815,50.41054],[23.38757,50.40539],[23.36632,50.39373],[23.38276,50.38327],[23.3739,50.377],[23.37821,50.36888],[23.43579,50.34699],[23.40326,50.3013],[23.41287,50.30765],[23.45705,50.30316],[23.47003,50.29363],[23.51995,50.29546],[23.50114,50.28516],[23.51395,50.27879],[23.5088,50.2613],[23.54791,50.25182]]]},"properties":{"id":"17162690B69262761487853","country":"POL","name":"Lublin Voivodeship","label":"Люблінське","center":[22.90025,51.22058],"strength":1.0,"priorityLabel":false}}]}