{"type":"FeatureCollection","features":[{"type":"Feature","geometry":{"type":"Polygon","coordinates":[[[22.81197,46.56901],[22.79638,46.56683],[22.77815,46.54809],[22.7261,46.54684],[22.69122,46.51876],[22.67691,46.52325],[22.67976,46.49262],[22.67243,46.48603],[22.69237,46.45338],[22.68817,46.44177],[22.71951,46.43104],[22.67468,46.40866],[22.68209,46.38586],[22.69906,46.37863],[22.69962,46.36559],[22.77822,46.34968],[22.81177,46.32557],[22.87285,46.33782],[22.9332,46.32662],[22.94249,46.29869],[22.96337,46.2829],[22.94741,46.26615],[22.95599,46.24633],[22.97635,46.23353],[22.98182,46.21784],[23.05046,46.21376],[23.09575,46.18216],[23.09021,46.16629],[23.10361,46.15374],[23.09864,46.13958],[23.07942,46.14928],[23.055,46.14016],[23.06769,46.12234],[23.06439,46.10915],[23.09777,46.09294],[23.09813,46.07985],[23.08486,46.08072],[23.08392,46.07078],[23.10352,46.06018],[23.10175,46.04612],[23.18444,46.02709],[23.24246,46.03833],[23.2342,46.02668],[23.23498,45.98924],[23.26509,45.93362],[23.29336,45.91905],[23.33769,45.91806],[23.3032,45.89388],[23.33161,45.87634],[23.32385,45.8363],[23.35291,45.79283],[23.35322,45.77783],[23.3736,45.77281],[23.38097,45.75933],[23.36177,45.71771],[23.36598,45.70719],[23.4194,45.67584],[23.37237,45.64549],[23.37022,45.6273],[23.38797,45.62286],[23.41202,45.63317],[23.42597,45.62452],[23.41833,45.61305],[23.43026,45.58719],[23.483,45.57363],[23.49952,45.57975],[23.51369,45.55365],[23.53659,45.54981],[23.56893,45.52449],[23.59544,45.49233],[23.59727,45.47347],[23.62068,45.46363],[23.61298,45.45614],[23.66463,45.46208],[23.70355,45.49676],[23.66506,45.49337],[23.63784,45.54443],[23.6179,45.56007],[23.62488,45.58471],[23.64349,45.58802],[23.65257,45.60121],[23.63221,45.62162],[23.64477,45.63988],[23.59276,45.6736],[23.61089,45.68756],[23.58883,45.70257],[23.61972,45.73563],[23.6221,45.75032],[23.64375,45.74539],[23.6643,45.75907],[23.622,45.78331],[23.61659,45.80197],[23.62494,45.80831],[23.68752,45.8026],[23.69935,45.82867],[23.73448,45.83074],[23.72691,45.84818],[23.73269,45.84285],[23.77338,45.88071],[23.73043,45.89719],[23.73321,45.91437],[23.78946,45.92836],[23.81638,45.9232],[23.85,45.95901],[23.87009,45.94865],[23.87473,45.95782],[23.86362,45.96293],[23.85232,45.98554],[23.85689,46.0008],[23.84567,46.00781],[23.89129,46.04469],[23.91295,46.04106],[23.92239,46.04864],[23.93691,46.03776],[23.97962,46.03822],[23.98966,46.00921],[24.00616,46.00017],[24.00655,46.0155],[24.02696,46.02852],[24.01874,46.03885],[24.03233,46.0407],[24.02693,46.06283],[24.04408,46.07962],[24.04194,46.09616],[24.05833,46.0845],[24.11892,46.13478],[24.15156,46.13489],[24.21331,46.1542],[24.20962,46.17414],[24.18807,46.18301],[24.19879,46.21246],[24.18969,46.22393],[24.25167,46.24039],[24.22937,46.24999],[24.23137,46.25961],[24.21008,46.26349],[24.19418,46.28297],[24.17668,46.28022],[24.17598,46.26886],[24.16368,46.2724],[24.15916,46.29151],[24.14485,46.2992],[24.14315,46.33175],[24.05805,46.33923],[24.01895,46.36074],[24.03219,46.36689],[24.0279,46.37279],[23.99728,46.37056],[23.98945,46.38105],[24.03534,46.40664],[24.03565,46.43342],[24.01706,46.43385],[24.0395,46.45752],[24.01994,46.45724],[24.02246,46.44912],[23.99217,46.42678],[23.95048,46.45009],[23.9232,46.4493],[23.90963,46.46353],[23.88665,46.46344],[23.88021,46.44979],[23.86793,46.44705],[23.86603,46.45618],[23.85508,46.45095],[23.83316,46.46888],[23.72988,46.45146],[23.70152,46.45751],[23.67683,46.44921],[23.67238,46.42928],[23.65095,46.42761],[23.65617,46.41639],[23.6758,46.41685],[23.68112,46.40851],[23.66092,46.3967],[23.6042,46.41451],[23.60322,46.42859],[23.59192,46.43615],[23.58983,46.45646],[23.6119,46.48453],[23.57438,46.49718],[23.55934,46.48813],[23.54806,46.50386],[23.52959,46.49911],[23.52307,46.48595],[23.46226,46.50431],[23.45386,46.52838],[23.43928,46.5232],[23.3793,46.54095],[23.23687,46.49091],[23.19602,46.49242],[23.18506,46.50962],[23.15192,46.5062],[23.13017,46.49096],[23.10412,46.49048],[23.09362,46.46837],[23.05187,46.46604],[23.05555,46.49246],[23.01129,46.50363],[23.00091,46.53402],[22.98897,46.53767],[22.99992,46.55257],[22.93026,46.55506],[22.87951,46.53636],[22.85958,46.53988],[22.85574,46.55059],[22.83596,46.54643],[22.81317,46.55598],[22.81197,46.56901]]]},"properties":{"id":"36066543B89779678405362","country":"ROU","name":"ALBA","label":"Alba","center":[23.48562,46.17199],"strength":0.36}},{"type":"Feature","geometry":{"type":"Polygon","coordinates":[[[22.67658,46.40583],[22.6363,46.38988],[22.57728,46.39797],[22.45279,46.385],[22.42426,46.39322],[22.41145,46.4089],[22.36907,46.42762],[22.3819,46.4304],[22.37401,46.43912],[22.34445,46.44771],[22.33891,46.47606],[22.32288,46.48302],[22.32517,46.51451],[22.2724,46.50081],[22.2462,46.50238],[22.21711,46.52149],[22.2153,46.5135],[22.198,46.51391],[22.17551,46.53635],[22.17924,46.54674],[22.16463,46.57092],[22.17099,46.6023],[22.11618,46.6028],[22.10893,46.61553],[22.08888,46.61803],[22.08863,46.63364],[22.04463,46.63716],[22.02668,46.64409],[22.02582,46.65437],[22.00052,46.62468],[21.95227,46.61709],[21.88096,46.63105],[21.91096,46.66287],[21.87441,46.68003],[21.80553,46.65531],[21.64722,46.66479],[21.62024,46.64538],[21.57114,46.64909],[21.56312,46.63171],[21.57334,46.62559],[21.56099,46.61946],[21.56718,46.60026],[21.54618,46.60137],[21.5389,46.62953],[21.5116,46.63643],[21.50952,46.65017],[21.50011,46.64045],[21.45572,46.66704],[21.41644,46.6425],[21.41007,46.6218],[21.3656,46.63786],[21.32996,46.63156],[21.31415,46.61746],[21.30116,46.59072],[21.32091,46.58278],[21.28971,46.54421],[21.27449,46.54079],[21.26064,46.50198],[21.27433,46.47647],[21.29632,46.47611],[21.31747,46.45065],[21.28976,46.41514],[21.29628,46.40668],[21.22535,46.41352],[21.20629,46.40322],[21.19946,46.3479],[21.17616,46.33555],[21.18055,46.3041],[21.11554,46.30162],[21.10316,46.26258],[21.07116,46.25386],[21.06601,46.24275],[21.03667,46.24788],[21.02496,46.26649],[20.99035,46.25952],[20.9525,46.26483],[20.94668,46.27916],[20.92507,46.27619],[20.92222,46.26175],[20.89055,46.27137],[20.8734,46.28741],[20.77559,46.2759],[20.74884,46.25061],[20.76185,46.20444],[20.72737,46.20741],[20.73334,46.19185],[20.70529,46.16093],[20.72762,46.14489],[20.76949,46.14493],[20.77994,46.12578],[20.79732,46.12182],[20.80507,46.10576],[20.83183,46.09098],[20.91763,46.07427],[20.94085,46.0372],[21.06901,46.03955],[21.07455,46.01212],[21.11015,45.97706],[21.17145,45.99917],[21.24217,45.9714],[21.23574,45.98124],[21.24895,45.98066],[21.2377,45.9872],[21.2621,45.99466],[21.28457,46.02012],[21.34825,46.00214],[21.35976,45.99536],[21.34805,45.98332],[21.36564,45.98184],[21.39094,46.00871],[21.42115,46.01148],[21.41682,46.01676],[21.44955,46.02937],[21.43395,46.04429],[21.43536,46.05939],[21.44936,46.04591],[21.47737,46.06326],[21.51582,46.06783],[21.53658,46.03286],[21.52459,46.01007],[21.54749,46.00609],[21.55155,45.9951],[21.56343,46.00174],[21.64202,45.97399],[21.63012,45.94276],[21.64841,45.94734],[21.66191,45.93542],[21.66767,45.9062],[21.69236,45.91628],[21.73652,45.98992],[21.77551,45.94834],[21.76978,45.91689],[21.80531,45.92114],[21.80108,45.9439],[21.81841,45.94931],[21.81105,45.9574],[21.81977,45.96796],[21.85154,45.94717],[21.87234,45.95852],[21.89395,45.95263],[21.9162,45.96309],[21.92543,45.98472],[21.96774,45.99427],[21.98762,45.9882],[21.99836,45.96804],[22.03985,45.9684],[22.12411,45.9378],[22.13534,45.92268],[22.17281,45.92859],[22.20113,45.92241],[22.22132,45.90321],[22.2433,45.90251],[22.24638,45.9221],[22.25997,45.93439],[22.30206,45.93188],[22.31206,45.93778],[22.31159,45.96626],[22.35233,45.97269],[22.34015,45.9783],[22.33598,45.99356],[22.38319,45.99507],[22.3895,46.00895],[22.40657,46.00296],[22.43786,46.01201],[22.44115,46.02884],[22.42797,46.03434],[22.43536,46.04921],[22.42931,46.07794],[22.40496,46.09516],[22.41182,46.10861],[22.43144,46.10641],[22.44541,46.11592],[22.46738,46.14627],[22.43682,46.20793],[22.44658,46.21722],[22.46259,46.21647],[22.46145,46.22682],[22.49482,46.2434],[22.51253,46.22481],[22.58376,46.23348],[22.60773,46.21867],[22.62446,46.23134],[22.63475,46.22614],[22.65711,46.23531],[22.66171,46.24897],[22.65437,46.25558],[22.68048,46.29823],[22.67805,46.32145],[22.72607,46.3344],[22.74872,46.35121],[22.69962,46.36559],[22.69906,46.37863],[22.67646,46.39372],[22.67658,46.40583]]]},"properties":{"id":"36066543B54316219236217","country":"ROU","name":"ARAD","label":"Arad","center":[21.75663,46.27303],"strength":0.28}},{"type":"Feature","geometry":{"type":"Polygon","coordinates":[[[27.20625,46.76987],[27.18814,46.76078],[27.18572,46.74972],[27.16316,46.74947],[27.16052,46.73435],[27.15074,46.7312],[27.14235,46.74127],[27.14625,46.75346],[27.11528,46.74863],[27.09855,46.76952],[27.06141,46.7561],[27.04434,46.77409],[26.93933,46.75186],[26.94678,46.77162],[26.93554,46.78475],[26.92244,46.7752],[26.92226,46.78296],[26.90782,46.78649],[26.91273,46.79332],[26.89316,46.79768],[26.9081,46.80039],[26.90063,46.81611],[26.91482,46.81102],[26.90944,46.82721],[26.88544,46.8286],[26.88248,46.81584],[26.84946,46.8047],[26.84954,46.77996],[26.8215,46.77315],[26.84186,46.75132],[26.7869,46.7171],[26.75134,46.7379],[26.75476,46.75625],[26.7312,46.7492],[26.7429,46.76829],[26.67591,46.76768],[26.67598,46.736],[26.60824,46.71287],[26.57027,46.67858],[26.54664,46.67832],[26.51472,46.69475],[26.47222,46.67646],[26.44118,46.67908],[26.43564,46.68781],[26.41048,46.67857],[26.4088,46.66435],[26.38145,46.64964],[26.34591,46.65096],[26.33079,46.66427],[26.3201,46.65506],[26.29364,46.65532],[26.28408,46.68079],[26.26215,46.6942],[26.26585,46.70305],[26.21757,46.68074],[26.21622,46.65603],[26.15927,46.64168],[26.1402,46.66072],[26.10073,46.64692],[26.08136,46.65616],[26.07166,46.7079],[26.05399,46.7165],[26.0142,46.69457],[25.97516,46.69731],[25.97269,46.67763],[25.99359,46.67373],[26.02007,46.63449],[26.00427,46.63793],[25.99074,46.62282],[25.99842,46.60172],[26.03338,46.57076],[26.03486,46.54449],[26.05767,46.52693],[26.07432,46.52567],[26.08294,46.51247],[26.07447,46.48465],[26.05658,46.49432],[26.01903,46.49234],[26.00697,46.48246],[26.01703,46.47672],[26.0172,46.46134],[26.00557,46.45718],[26.00478,46.44458],[25.98703,46.43884],[26.00314,46.42519],[25.99522,46.40676],[26.04689,46.41657],[26.06165,46.41207],[26.06179,46.40074],[26.11,46.40077],[26.1649,46.38488],[26.16633,46.35486],[26.14929,46.32916],[26.15668,46.31478],[26.22104,46.31438],[26.23565,46.33504],[26.27085,46.34464],[26.29164,46.33567],[26.27431,46.28718],[26.25328,46.27675],[26.26499,46.25622],[26.25906,46.25022],[26.32669,46.22999],[26.34142,46.20369],[26.33051,46.18334],[26.34742,46.16211],[26.34324,46.13713],[26.38657,46.14498],[26.3925,46.12291],[26.38012,46.1282],[26.36926,46.11235],[26.38767,46.10173],[26.40788,46.10356],[26.40504,46.09225],[26.43061,46.07806],[26.42514,46.06687],[26.44193,46.05111],[26.44001,46.0389],[26.45642,46.03403],[26.49216,46.04553],[26.51562,46.02695],[26.57268,46.01683],[26.58602,46.04035],[26.63362,46.05772],[26.65677,46.08585],[26.70439,46.09466],[26.76109,46.08685],[26.78,46.09381],[26.80704,46.06572],[26.87179,46.08465],[26.93398,46.06513],[26.95153,46.0858],[26.94759,46.10059],[26.98364,46.11327],[27.07341,46.08758],[27.08452,46.09534],[27.10575,46.08886],[27.10528,46.10502],[27.0863,46.11141],[27.10863,46.11291],[27.12076,46.10029],[27.1369,46.11567],[27.1397,46.13425],[27.12358,46.14755],[27.17018,46.16954],[27.16446,46.17458],[27.17334,46.18132],[27.18571,46.17183],[27.19054,46.18782],[27.2013,46.17947],[27.22167,46.19131],[27.24565,46.17784],[27.2699,46.18319],[27.26267,46.20038],[27.30651,46.20599],[27.31791,46.20265],[27.31407,46.18373],[27.33035,46.17943],[27.33397,46.1684],[27.35022,46.16893],[27.34997,46.15284],[27.37453,46.15734],[27.3768,46.1861],[27.39374,46.19427],[27.44808,46.18415],[27.45922,46.1574],[27.47884,46.16758],[27.50619,46.1554],[27.50034,46.16461],[27.51012,46.21],[27.50641,46.21942],[27.47894,46.22067],[27.46857,46.27375],[27.48384,46.2828],[27.46372,46.29585],[27.45628,46.32116],[27.47722,46.32301],[27.45893,46.36023],[27.46435,46.37146],[27.41992,46.43137],[27.41535,46.46216],[27.39897,46.46959],[27.38198,46.50058],[27.38364,46.51798],[27.37296,46.51934],[27.37981,46.52407],[27.36014,46.53623],[27.31862,46.59555],[27.27617,46.62525],[27.32219,46.65681],[27.29294,46.67685],[27.32659,46.69801],[27.23927,46.73529],[27.23701,46.74761],[27.22834,46.74459],[27.20625,46.76987]]]},"properties":{"id":"36066543B58663638147212","country":"ROU","name":"BACAU","label":"Bacau","center":[26.77206,46.42144],"strength":1.0}},{"type":"Feature","geometry":{"type":"Polygon","coordinates":[[[22.81197,46.56901],[22.81724,46.58431],[22.80628,46.5905],[22.80158,46.61816],[22.81906,46.63857],[22.78804,46.62697],[22.79387,46.63948],[22.7727,46.65245],[22.73964,46.71592],[22.70815,46.7387],[22.71385,46.76253],[22.63729,46.7994],[22.70438,46.8054],[22.72627,46.81575],[22.75227,46.87307],[22.77897,46.89702],[22.77501,46.91042],[22.7372,46.91447],[22.7175,46.9333],[22.67099,46.95034],[22.67521,46.97115],[22.72878,47.00718],[22.70127,47.01775],[22.68649,47.05119],[22.59276,47.06386],[22.5147,47.10916],[22.56665,47.12514],[22.54452,47.13565],[22.55437,47.14308],[22.53456,47.14972],[22.53944,47.16171],[22.5317,47.16926],[22.50823,47.16573],[22.4929,47.18686],[22.51101,47.19487],[22.506,47.20918],[22.52798,47.21982],[22.51674,47.23268],[22.56599,47.25145],[22.55164,47.26022],[22.5606,47.26445],[22.55235,47.27252],[22.54673,47.26903],[22.55275,47.3028],[22.58055,47.3012],[22.5951,47.31942],[22.58727,47.3273],[22.60894,47.32822],[22.6121,47.33991],[22.58444,47.35812],[22.57,47.35688],[22.57718,47.36644],[22.55966,47.3802],[22.5685,47.38336],[22.56601,47.39215],[22.5304,47.39931],[22.52936,47.41864],[22.47397,47.42116],[22.45923,47.43179],[22.43149,47.42209],[22.40672,47.43452],[22.35817,47.42933],[22.341,47.45559],[22.34097,47.4908],[22.28829,47.50651],[22.28594,47.51577],[22.29527,47.51967],[22.28956,47.54053],[22.25605,47.53885],[22.26125,47.56443],[22.23619,47.56487],[22.23007,47.58201],[22.2003,47.59912],[22.171,47.59169],[22.12814,47.59808],[22.12911,47.58929],[22.09363,47.55812],[22.0792,47.56234],[22.05529,47.54847],[22.07134,47.538],[22.06144,47.52902],[22.04543,47.53975],[22.02406,47.51986],[22.00709,47.48333],[22.02083,47.45452],[22.03273,47.45098],[22.0259,47.44237],[22.03548,47.41342],[22.02345,47.39149],[22.01198,47.37579],[21.96153,47.38122],[21.93851,47.373],[21.87877,47.28734],[21.88785,47.27209],[21.85163,47.23912],[21.84682,47.22375],[21.85806,47.2201],[21.85806,47.18701],[21.81737,47.17274],[21.79142,47.124],[21.79261,47.10657],[21.72614,47.09846],[21.71274,47.08251],[21.7164,47.07486],[21.68264,47.0457],[21.6489,47.04055],[21.66096,47.02051],[21.67797,47.01837],[21.68897,47.00182],[21.66792,46.97019],[21.68157,46.9649],[21.67315,46.95369],[21.65807,46.95601],[21.63835,46.933],[21.5987,46.92745],[21.59906,46.90917],[21.61421,46.8865],[21.6035,46.8848],[21.60332,46.86871],[21.52023,46.83726],[21.51868,46.79975],[21.48322,46.76469],[21.52668,46.73919],[21.52934,46.72076],[21.49216,46.68598],[21.473,46.69565],[21.42766,46.68912],[21.44288,46.66641],[21.46163,46.66696],[21.50011,46.64045],[21.50952,46.65017],[21.5116,46.63643],[21.5389,46.62953],[21.54618,46.60137],[21.56718,46.60026],[21.56099,46.61946],[21.57334,46.62559],[21.56312,46.63171],[21.57114,46.64909],[21.62024,46.64538],[21.64722,46.66479],[21.80553,46.65531],[21.87441,46.68003],[21.91096,46.66287],[21.88096,46.63105],[21.95227,46.61709],[22.00052,46.62468],[22.02582,46.65437],[22.02668,46.64409],[22.04463,46.63716],[22.08863,46.63364],[22.08888,46.61803],[22.10893,46.61553],[22.11618,46.6028],[22.17099,46.6023],[22.16463,46.57092],[22.17924,46.54674],[22.17551,46.53635],[22.198,46.51391],[22.2153,46.5135],[22.21711,46.52149],[22.2462,46.50238],[22.2724,46.50081],[22.32517,46.51451],[22.32288,46.48302],[22.33891,46.47606],[22.34445,46.44771],[22.37401,46.43912],[22.3819,46.4304],[22.36907,46.42762],[22.37563,46.42298],[22.45279,46.385],[22.57728,46.39797],[22.649,46.3915],[22.71951,46.43104],[22.68817,46.44177],[22.69237,46.45338],[22.67243,46.48603],[22.67976,46.49262],[22.67691,46.52325],[22.69122,46.51876],[22.7261,46.54684],[22.77815,46.54809],[22.79638,46.56683],[22.81197,46.56901]]]},"properties":{"id":"36066543B26260700062336","country":"ROU","name":"BIHOR","label":"Bihor","center":[22.20906,46.94177],"strength":0.88}},{"type":"Feature","geometry":{"type":"Polygon","coordinates":[[[24.96084,47.59685],[24.89905,47.60285],[24.86065,47.59118],[24.82788,47.59661],[24.80724,47.56665],[24.78751,47.577],[24.72598,47.57624],[24.65958,47.55397],[24.65214,47.56751],[24.63189,47.5758],[24.56564,47.56265],[24.55355,47.57331],[24.45668,47.59545],[24.43951,47.59018],[24.38662,47.60833],[24.36146,47.57526],[24.34312,47.56594],[24.30306,47.57912],[24.30167,47.55846],[24.27939,47.54416],[24.26771,47.51737],[24.25221,47.51889],[24.24037,47.50012],[24.16687,47.50568],[24.14139,47.48739],[24.12671,47.4993],[24.11758,47.48293],[24.12846,47.47943],[24.11802,47.44726],[24.12423,47.43779],[24.07237,47.40966],[24.07555,47.38972],[24.06083,47.37763],[24.02271,47.36195],[24.0178,47.34453],[24.02944,47.32481],[24.02117,47.31415],[24.0064,47.30489],[23.98188,47.3213],[23.92828,47.30065],[23.93472,47.28475],[23.92126,47.27329],[23.92026,47.2472],[23.95891,47.16153],[24.00642,47.1669],[24.00231,47.17534],[24.01718,47.1777],[24.02845,47.16375],[24.02378,47.15491],[24.01416,47.15859],[24.01714,47.14316],[24.07116,47.12869],[24.07016,47.11821],[24.10779,47.12412],[24.11951,47.09785],[24.14722,47.08963],[24.13113,47.08781],[24.13418,47.0739],[24.10361,47.0272],[24.1216,47.02011],[24.09779,46.98912],[24.11812,46.97404],[24.11393,46.96053],[24.17551,46.96317],[24.17036,46.95814],[24.17829,46.95349],[24.16138,46.94786],[24.16153,46.93357],[24.21035,46.91228],[24.22616,46.88978],[24.21205,46.88519],[24.21913,46.87394],[24.20481,46.85661],[24.20954,46.83736],[24.18873,46.83106],[24.1943,46.80856],[24.1795,46.80476],[24.23487,46.77287],[24.30101,46.75324],[24.33843,46.75783],[24.38425,46.74717],[24.401,46.75054],[24.40108,46.76409],[24.41545,46.77397],[24.45211,46.76566],[24.47216,46.78273],[24.44942,46.78912],[24.46341,46.81161],[24.45825,46.8201],[24.50364,46.83957],[24.50428,46.85168],[24.527,46.85431],[24.53778,46.86752],[24.52127,46.89864],[24.53301,46.89894],[24.53269,46.90705],[24.56067,46.9057],[24.55367,46.91554],[24.58457,46.91507],[24.57904,46.92611],[24.59467,46.94555],[24.61444,46.94471],[24.62469,46.95437],[24.65361,46.92664],[24.64696,46.91732],[24.66433,46.91636],[24.65851,46.90953],[24.74667,46.90659],[24.75451,46.91396],[24.72181,46.93239],[24.74099,46.95308],[24.73317,46.95741],[24.74498,46.97208],[24.74038,46.98155],[24.7681,47.00137],[24.79264,47.04911],[24.85416,47.09592],[24.8971,47.10924],[24.93205,47.09603],[24.95326,47.12048],[25.0135,47.11117],[25.06338,47.13655],[25.05757,47.15057],[25.06706,47.16688],[25.05821,47.20142],[25.04452,47.21546],[25.07969,47.25831],[25.02803,47.28669],[25.07943,47.31471],[25.0771,47.34076],[25.06044,47.35302],[25.06936,47.3702],[25.06257,47.3792],[25.04053,47.38008],[25.03316,47.39437],[24.98288,47.42387],[24.99918,47.42017],[25.02641,47.43598],[25.05832,47.41648],[25.05261,47.43132],[25.09079,47.4491],[25.06612,47.45044],[25.03996,47.48285],[25.06138,47.48135],[25.09215,47.5019],[25.09352,47.5123],[25.06643,47.53054],[25.05192,47.56036],[25.00705,47.56902],[24.99204,47.58556],[24.96084,47.59685]]]},"properties":{"id":"36066543B74561209637266","country":"ROU","name":"BISTRITA-NASAUD","label":"Bistrita-Nasaud","center":[24.52063,47.23706],"strength":1.0}},{"type":"Feature","geometry":{"type":"Polygon","coordinates":[[[27.39115,47.58947],[27.37266,47.59733],[27.36046,47.62016],[27.31504,47.64281],[27.30734,47.66114],[27.29484,47.6627],[27.29638,47.68051],[27.27335,47.68973],[27.28263,47.70079],[27.27111,47.69968],[27.25014,47.71924],[27.26555,47.73278],[27.29207,47.72317],[27.28084,47.73704],[27.29727,47.75207],[27.28039,47.74995],[27.27956,47.76451],[27.26545,47.7604],[27.26638,47.78029],[27.25372,47.77868],[27.24963,47.79391],[27.23156,47.79882],[27.2412,47.81589],[27.21567,47.81857],[27.22273,47.8316],[27.23425,47.82494],[27.24825,47.83396],[27.20898,47.84939],[27.19995,47.90184],[27.15082,47.92132],[27.17813,47.94684],[27.14138,47.96693],[27.16606,47.99487],[27.12228,47.99363],[27.11707,48.00082],[27.13073,48.01227],[27.12376,48.01609],[27.09096,48.00754],[27.09232,48.02228],[27.10754,48.03271],[27.08326,48.03517],[27.07996,48.05104],[27.02501,48.08988],[27.04062,48.10309],[27.03375,48.11593],[27.03922,48.1297],[27.0241,48.1245],[27.02922,48.13576],[27.02109,48.1385],[27.00069,48.12183],[26.9589,48.13354],[26.95489,48.15178],[26.97966,48.14371],[26.99175,48.14961],[26.97467,48.16097],[26.93551,48.16371],[26.93277,48.17073],[26.94988,48.18493],[26.94503,48.19435],[26.91507,48.199],[26.92074,48.18246],[26.90342,48.18079],[26.89262,48.19199],[26.90891,48.20117],[26.88419,48.20238],[26.85231,48.23388],[26.83175,48.22661],[26.82662,48.2442],[26.8081,48.25447],[26.78302,48.24311],[26.73724,48.24478],[26.74257,48.25416],[26.72817,48.25814],[26.72537,48.2456],[26.70006,48.26539],[26.66693,48.24671],[26.66371,48.26335],[26.64561,48.25243],[26.63378,48.26198],[26.62911,48.24739],[26.61457,48.25037],[26.62032,48.23924],[26.57746,48.24368],[26.57185,48.21925],[26.5504,48.22526],[26.54998,48.21654],[26.52842,48.20972],[26.47144,48.22015],[26.45821,48.20667],[26.43509,48.20445],[26.43588,48.19318],[26.42086,48.20161],[26.38685,48.18694],[26.37658,48.19884],[26.36014,48.185],[26.35116,48.1916],[26.34818,48.18303],[26.33277,48.18574],[26.33434,48.15917],[26.29802,48.13368],[26.267,48.07656],[26.21216,48.05079],[26.18804,47.99546],[26.09876,47.97888],[26.11967,47.97231],[26.11099,47.96507],[26.13111,47.95334],[26.12293,47.94562],[26.12598,47.93264],[26.18428,47.91949],[26.18274,47.91085],[26.19172,47.90874],[26.18373,47.89295],[26.19939,47.8844],[26.2289,47.90015],[26.273,47.87549],[26.26414,47.86836],[26.28179,47.85668],[26.29353,47.8631],[26.31096,47.84929],[26.30088,47.83538],[26.32502,47.83093],[26.31811,47.81499],[26.36971,47.774],[26.40636,47.78405],[26.40666,47.75836],[26.4003,47.75761],[26.40637,47.75432],[26.39004,47.7449],[26.39611,47.73432],[26.42104,47.74751],[26.43985,47.74297],[26.43233,47.72629],[26.44601,47.73356],[26.46763,47.71588],[26.45915,47.71381],[26.46343,47.70693],[26.50747,47.66345],[26.49666,47.65874],[26.5456,47.64344],[26.53498,47.63871],[26.5427,47.63169],[26.53613,47.61923],[26.55196,47.60953],[26.53719,47.59807],[26.54796,47.59114],[26.54172,47.58257],[26.55809,47.57906],[26.57801,47.53533],[26.60392,47.53274],[26.60486,47.52058],[26.55221,47.5132],[26.55096,47.50419],[26.58907,47.49059],[26.58788,47.46627],[26.59897,47.45569],[26.63864,47.47287],[26.72682,47.47287],[26.69754,47.49282],[26.70425,47.49934],[26.69866,47.50931],[26.71686,47.51527],[26.78776,47.49998],[26.81825,47.50794],[26.87964,47.49159],[26.97735,47.49622],[27.00828,47.47539],[27.00723,47.48503],[27.01652,47.46905],[27.005,47.46684],[27.02724,47.45748],[27.04192,47.4382],[27.04911,47.46621],[27.08221,47.46435],[27.07228,47.51272],[27.1,47.54788],[27.1444,47.54176],[27.14964,47.52926],[27.15913,47.53512],[27.17951,47.51734],[27.21877,47.52058],[27.22297,47.51285],[27.22952,47.51498],[27.22459,47.52236],[27.25913,47.52912],[27.24656,47.55647],[27.26358,47.5712],[27.2885,47.5741],[27.29527,47.56708],[27.30102,47.576],[27.33184,47.57273],[27.39115,47.58947]]]},"properties":{"id":"36066543B44844051198398","country":"ROU","name":"BOTOSANI","label":"Botosani","center":[26.76122,47.85946],"strength":1.0}},{"type":"Feature","geometry":{"type":"Polygon","coordinates":[[[25.32124,45.38138],[25.3627,45.39159],[25.40318,45.38653],[25.41283,45.42962],[25.49806,45.46743],[25.51373,45.46975],[25.53225,45.45899],[25.57299,45.46772],[25.59965,45.4625],[25.62987,45.49609],[25.681,45.50059],[25.72644,45.46537],[25.76591,45.46556],[25.78628,45.48427],[25.81894,45.45584],[25.82846,45.4382],[25.82359,45.43141],[25.86541,45.42167],[25.86687,45.43485],[25.88967,45.44673],[25.88712,45.46625],[25.89692,45.47838],[25.89056,45.48774],[25.92192,45.52211],[25.97008,45.50615],[25.99573,45.51354],[26.01374,45.48845],[26.0431,45.47722],[26.06545,45.48532],[26.06547,45.50356],[26.09084,45.51683],[26.10447,45.55082],[26.093,45.57253],[26.05477,45.5938],[26.06594,45.60642],[26.05631,45.61659],[26.01873,45.61552],[26.01288,45.62304],[26.02076,45.63718],[26.00228,45.64918],[25.96845,45.6405],[25.95131,45.65239],[25.9719,45.66598],[25.97203,45.68736],[25.93789,45.69284],[25.9129,45.7102],[25.86037,45.70776],[25.84185,45.73026],[25.83675,45.72268],[25.82162,45.72585],[25.83324,45.74762],[25.788,45.7536],[25.79037,45.76451],[25.76536,45.75644],[25.74363,45.77008],[25.70266,45.77364],[25.67765,45.74784],[25.66291,45.74838],[25.67736,45.75838],[25.66757,45.78661],[25.65482,45.79521],[25.65047,45.78935],[25.64973,45.80176],[25.63884,45.80174],[25.6435,45.80898],[25.62409,45.80819],[25.61439,45.81682],[25.61823,45.82639],[25.56783,45.83605],[25.55732,45.85264],[25.56957,45.85378],[25.56434,45.86018],[25.57166,45.86469],[25.56168,45.86364],[25.557,45.87122],[25.56668,45.8731],[25.5582,45.87816],[25.58904,45.88272],[25.58066,45.87555],[25.58746,45.87214],[25.60087,45.88701],[25.63965,45.90095],[25.60962,45.8915],[25.54115,45.89209],[25.56304,45.91441],[25.53574,45.94145],[25.55327,45.95584],[25.53936,45.95612],[25.53897,45.96569],[25.54863,45.96599],[25.53867,45.97109],[25.54881,45.97885],[25.54322,45.98936],[25.5535,45.98829],[25.5449,45.99594],[25.57311,46.0013],[25.57202,46.01518],[25.58548,46.02014],[25.55994,46.03629],[25.56188,46.0532],[25.50464,46.04532],[25.47461,46.05875],[25.45077,46.07386],[25.44996,46.12454],[25.4071,46.12377],[25.4049,46.13269],[25.3735,46.13565],[25.33265,46.17782],[25.27322,46.17005],[25.26585,46.17496],[25.27344,46.18722],[25.25864,46.19041],[25.25138,46.17726],[25.26483,46.16698],[25.24956,46.14139],[25.18968,46.17075],[25.12585,46.14233],[25.07898,46.1515],[25.04624,46.1332],[25.01485,46.14628],[24.94891,46.10226],[24.94636,46.09349],[24.9559,46.0908],[24.94841,46.07268],[24.96515,46.06177],[24.9077,46.03799],[24.88948,46.0397],[24.86549,46.00965],[24.82118,46.01013],[24.83883,45.98646],[24.83549,45.9778],[24.76876,45.97572],[24.77184,45.96266],[24.74874,45.93503],[24.7209,45.94586],[24.70281,45.94024],[24.71608,45.89449],[24.77614,45.86128],[24.77348,45.83964],[24.71827,45.84095],[24.7252,45.82661],[24.71349,45.81612],[24.68804,45.83641],[24.68424,45.82452],[24.66099,45.81753],[24.63928,45.79506],[24.64288,45.76549],[24.6816,45.70952],[24.67463,45.6839],[24.68297,45.67068],[24.66933,45.63978],[24.68493,45.60411],[24.77212,45.61119],[24.79279,45.60235],[24.81063,45.61073],[24.8298,45.60653],[24.83637,45.59202],[24.9172,45.59461],[24.94145,45.58209],[24.95812,45.59271],[25.10321,45.58519],[25.18905,45.52266],[25.21163,45.52687],[25.23678,45.51776],[25.23829,45.47561],[25.2759,45.44271],[25.26201,45.43789],[25.25537,45.42249],[25.27257,45.40741],[25.30093,45.42315],[25.31241,45.39826],[25.30803,45.38948],[25.32124,45.38138]]]},"properties":{"id":"36066543B7969361625805","country":"ROU","name":"BRASOV","label":"Brasov","center":[25.30108,45.76496],"strength":0.28}},{"type":"Feature","geometry":{"type":"Polygon","coordinates":[[[23.98527,46.43092],[24.00474,46.44218],[23.97115,46.45911],[23.96323,46.47646],[23.97372,46.48184],[23.96421,46.49854],[23.97505,46.50457],[23.95909,46.51546],[23.98689,46.54227],[24.01918,46.53126],[24.04531,46.54497],[24.03744,46.55726],[24.05265,46.56183],[24.06909,46.60603],[24.02522,46.6155],[24.0202,46.62785],[24.03365,46.64493],[24.10245,46.66165],[24.11401,46.69409],[24.12436,46.70009],[24.0889,46.71108],[24.06651,46.73344],[24.0879,46.75356],[24.12612,46.74647],[24.11753,46.77376],[24.1676,46.78122],[24.18807,46.79333],[24.17761,46.80721],[24.1943,46.80856],[24.18873,46.83106],[24.20954,46.83736],[24.20481,46.85661],[24.21913,46.87394],[24.21205,46.88519],[24.22616,46.88978],[24.21035,46.91228],[24.16153,46.93357],[24.16138,46.94786],[24.17829,46.95349],[24.17036,46.95814],[24.17551,46.96317],[24.11393,46.96053],[24.11812,46.97404],[24.09779,46.98912],[24.1216,47.02011],[24.10361,47.0272],[24.13418,47.0739],[24.13113,47.08781],[24.14722,47.08963],[24.11951,47.09785],[24.10779,47.12412],[24.07016,47.11821],[24.07116,47.12869],[24.01714,47.14316],[24.01416,47.15859],[24.02378,47.15491],[24.02845,47.16375],[24.01718,47.1777],[24.00231,47.17534],[24.00642,47.1669],[23.95891,47.16153],[23.95992,47.17225],[23.93603,47.19928],[23.91861,47.2548],[23.92126,47.27329],[23.93472,47.28475],[23.92678,47.29852],[23.98188,47.3213],[24.0064,47.30489],[24.02117,47.31415],[24.02944,47.32481],[24.0178,47.34453],[24.02271,47.36195],[23.96988,47.36566],[23.92518,47.35234],[23.89348,47.35649],[23.86986,47.3802],[23.86674,47.37022],[23.84685,47.37229],[23.83211,47.34761],[23.84163,47.32743],[23.81376,47.30709],[23.81594,47.29875],[23.80691,47.29597],[23.81347,47.29121],[23.79876,47.28152],[23.81282,47.26799],[23.81463,47.25129],[23.7622,47.28359],[23.75274,47.24194],[23.72584,47.24609],[23.72062,47.25484],[23.71155,47.2435],[23.65295,47.23472],[23.62669,47.19414],[23.6338,47.18251],[23.61582,47.16985],[23.59708,47.16451],[23.58247,47.17753],[23.56146,47.17892],[23.54391,47.15847],[23.49776,47.15499],[23.50121,47.14208],[23.49101,47.12962],[23.50411,47.11738],[23.48793,47.11957],[23.48976,47.10985],[23.47888,47.10772],[23.48525,47.09045],[23.42718,47.08984],[23.44775,47.0757],[23.4514,47.06023],[23.47501,47.05367],[23.47167,47.04357],[23.48561,47.02918],[23.47238,47.02855],[23.4738,47.01296],[23.46158,47.00937],[23.45874,46.99815],[23.42782,46.98834],[23.39842,46.99352],[23.41168,46.98175],[23.38497,46.97733],[23.38806,46.96685],[23.37094,46.96034],[23.38159,46.94631],[23.34456,46.92485],[23.35503,46.91995],[23.33857,46.90844],[23.32367,46.91414],[23.28209,46.8979],[23.27812,46.91059],[23.25885,46.91416],[23.25869,46.93507],[23.2283,46.96367],[23.23411,46.95696],[23.21722,46.95301],[23.21607,46.93952],[23.2296,46.93476],[23.20267,46.9226],[23.22264,46.89262],[23.20032,46.88212],[23.19867,46.86946],[23.16279,46.87926],[23.1753,46.87508],[23.10447,46.85344],[23.08337,46.86728],[23.09224,46.89031],[23.06546,46.90459],[23.03599,46.88182],[23.03184,46.88924],[23.04144,46.89732],[23.03349,46.9015],[23.01187,46.8878],[23.00694,46.90756],[22.98742,46.90259],[22.9315,46.91848],[22.89674,46.94375],[22.899,46.96948],[22.87127,46.97952],[22.87898,46.98887],[22.86618,46.98064],[22.83482,46.99517],[22.795,46.97712],[22.73504,47.00798],[22.67521,46.97115],[22.67099,46.95034],[22.68047,46.94224],[22.7175,46.9333],[22.7372,46.91447],[22.77501,46.91042],[22.77897,46.89702],[22.75227,46.87307],[22.72627,46.81575],[22.70438,46.8054],[22.63729,46.7994],[22.71385,46.76253],[22.70815,46.7387],[22.73964,46.71592],[22.7727,46.65245],[22.79387,46.63948],[22.78804,46.62697],[22.81906,46.63857],[22.80158,46.61816],[22.80628,46.5905],[22.81724,46.58431],[22.81064,46.56363],[22.83596,46.54643],[22.85574,46.55059],[22.85958,46.53988],[22.88444,46.53621],[22.93026,46.55506],[22.99992,46.55257],[22.98897,46.53767],[23.00091,46.53402],[23.01129,46.50363],[23.05555,46.49246],[23.05187,46.46604],[23.09362,46.46837],[23.10412,46.49048],[23.13017,46.49096],[23.15192,46.5062],[23.18506,46.50962],[23.19602,46.49242],[23.23687,46.49091],[23.3793,46.54095],[23.43928,46.5232],[23.45386,46.52838],[23.46226,46.50431],[23.52307,46.48595],[23.52959,46.49911],[23.54806,46.50386],[23.55934,46.48813],[23.57438,46.49718],[23.6119,46.48453],[23.58983,46.45646],[23.59192,46.43615],[23.60322,46.42859],[23.6042,46.41451],[23.66092,46.3967],[23.68112,46.40851],[23.6758,46.41685],[23.65617,46.41639],[23.65095,46.42761],[23.67238,46.42928],[23.67683,46.44921],[23.70152,46.45751],[23.72988,46.45146],[23.83316,46.46888],[23.85508,46.45095],[23.86603,46.45618],[23.86793,46.44705],[23.88021,46.44979],[23.88665,46.46344],[23.90963,46.46353],[23.9232,46.4493],[23.95048,46.45009],[23.98527,46.43092]]]},"properties":{"id":"36066543B42198475713558","country":"ROU","name":"CLUJ","label":"Cluj","center":[23.53426,46.81198],"strength":0.95}},{"type":"Feature","geometry":{"type":"Polygon","coordinates":[[[26.26337,46.24631],[26.25027,46.23547],[26.26155,46.21556],[26.21932,46.206],[26.20868,46.18033],[26.18735,46.18474],[26.17588,46.17794],[26.17183,46.16001],[26.13086,46.17234],[26.11627,46.16099],[26.05723,46.1597],[26.01951,46.12801],[25.99171,46.12524],[25.97867,46.13507],[25.85843,46.11905],[25.79356,46.17406],[25.79196,46.19325],[25.72713,46.25027],[25.73417,46.26332],[25.72598,46.27457],[25.70004,46.27665],[25.63081,46.24428],[25.603,46.24162],[25.57493,46.21279],[25.5629,46.21813],[25.55659,46.2078],[25.50816,46.18818],[25.50896,46.16163],[25.49763,46.14841],[25.47892,46.14564],[25.46727,46.10688],[25.45129,46.10388],[25.45077,46.07386],[25.50464,46.04532],[25.56188,46.0532],[25.55994,46.03629],[25.58548,46.02014],[25.57202,46.01518],[25.57311,46.0013],[25.5449,45.99594],[25.5535,45.98829],[25.54322,45.98936],[25.54881,45.97885],[25.53867,45.97109],[25.54863,45.96599],[25.53897,45.96569],[25.53936,45.95612],[25.55327,45.95584],[25.53574,45.94145],[25.56304,45.91441],[25.54115,45.89209],[25.60962,45.8915],[25.63965,45.90095],[25.60087,45.88701],[25.58746,45.87214],[25.58066,45.87555],[25.58904,45.88272],[25.5582,45.87816],[25.56668,45.8731],[25.557,45.87122],[25.56168,45.86364],[25.57166,45.86469],[25.56434,45.86018],[25.56957,45.85378],[25.55732,45.85264],[25.56783,45.83605],[25.61823,45.82639],[25.61439,45.81682],[25.62409,45.80819],[25.6435,45.80898],[25.63884,45.80174],[25.64973,45.80176],[25.65047,45.78935],[25.65482,45.79521],[25.66757,45.78661],[25.67736,45.75838],[25.66291,45.74838],[25.67765,45.74784],[25.70266,45.77364],[25.74363,45.77008],[25.76536,45.75644],[25.79037,45.76451],[25.788,45.7536],[25.83324,45.74762],[25.82162,45.72585],[25.83675,45.72268],[25.84185,45.73026],[25.86037,45.70776],[25.9129,45.7102],[25.93789,45.69284],[25.97203,45.68736],[25.9719,45.66598],[25.95131,45.65239],[25.96845,45.6405],[26.00228,45.64918],[26.02076,45.63718],[26.01288,45.62304],[26.01873,45.61552],[26.05631,45.61659],[26.06594,45.60642],[26.05477,45.5938],[26.093,45.57253],[26.10447,45.55082],[26.08682,45.52236],[26.09339,45.5165],[26.14842,45.58675],[26.17153,45.56305],[26.18549,45.60832],[26.2136,45.62186],[26.24565,45.6261],[26.2552,45.61763],[26.252,45.60195],[26.27959,45.586],[26.3034,45.60671],[26.31077,45.60279],[26.32981,45.63222],[26.3241,45.64886],[26.33251,45.68601],[26.35688,45.71046],[26.35339,45.72251],[26.38457,45.73646],[26.38328,45.78281],[26.39194,45.80244],[26.37499,45.82072],[26.37098,45.84336],[26.38797,45.87358],[26.37564,45.90731],[26.39448,45.92085],[26.39125,45.95791],[26.43744,45.98874],[26.43197,46.00045],[26.44563,46.01876],[26.43753,46.03552],[26.44193,46.05111],[26.42514,46.06687],[26.43061,46.07806],[26.40504,46.09225],[26.40788,46.10356],[26.38767,46.10173],[26.36926,46.11235],[26.38012,46.1282],[26.3925,46.12291],[26.38657,46.14498],[26.34324,46.13713],[26.34742,46.16211],[26.33051,46.18334],[26.34142,46.20369],[26.32669,46.22999],[26.26337,46.24631]]]},"properties":{"id":"36066543B24619858626166","country":"ROU","name":"COVASNA","label":"Covasna","center":[25.98919,45.93789],"strength":0.49}},{"type":"Feature","geometry":{"type":"Polygon","coordinates":[[[28.03052,45.40433],[28.05416,45.42424],[28.09775,45.44062],[28.1333,45.43725],[28.18953,45.41433],[28.19664,45.4522],[28.23293,45.46333],[28.18597,45.47454],[28.17224,45.50058],[28.15436,45.50975],[28.16671,45.52017],[28.15691,45.52432],[28.16626,45.52841],[28.15878,45.56076],[28.14813,45.5624],[28.15651,45.5752],[28.1455,45.56601],[28.13851,45.57755],[28.12109,45.57222],[28.08842,45.60525],[28.11275,45.62617],[28.1441,45.62146],[28.17415,45.64466],[28.15775,45.65114],[28.16589,45.6535],[28.17133,45.67943],[28.15996,45.70388],[28.17079,45.70951],[28.16063,45.72524],[28.16683,45.73633],[28.14344,45.76032],[28.15379,45.7825],[28.13493,45.77839],[28.11394,45.79047],[28.12101,45.80685],[28.10767,45.81633],[28.11259,45.8342],[28.10533,45.84326],[28.11403,45.8493],[28.10611,45.85986],[28.12696,45.8628],[28.13258,45.87692],[28.1126,45.88435],[28.12569,45.92236],[28.10177,45.9722],[28.10695,45.97832],[28.09828,45.97846],[28.10521,45.98889],[28.08537,46.00834],[28.09552,46.0147],[28.08746,46.02059],[28.09025,46.03462],[28.10505,46.05294],[28.09155,46.05411],[28.10058,46.06432],[28.08906,46.06966],[28.09281,46.07919],[28.10896,46.07833],[28.1022,46.09832],[28.12262,46.10536],[28.10913,46.10889],[28.11403,46.11371],[28.07679,46.11753],[28.00901,46.10496],[28.00951,46.11572],[27.98297,46.11152],[27.96456,46.1413],[27.93965,46.13517],[27.92632,46.15244],[27.91082,46.15398],[27.87183,46.14556],[27.87258,46.158],[27.85703,46.16317],[27.84684,46.15791],[27.84526,46.12629],[27.83089,46.12645],[27.831,46.11844],[27.8082,46.11166],[27.8155,46.10482],[27.79133,46.10079],[27.7864,46.09068],[27.76248,46.12806],[27.71108,46.12919],[27.71026,46.13857],[27.69315,46.13207],[27.67861,46.14125],[27.67159,46.1328],[27.65038,46.14038],[27.64721,46.1298],[27.63362,46.13845],[27.60732,46.13066],[27.59106,46.15018],[27.58108,46.14452],[27.58414,46.1355],[27.60128,46.12243],[27.5913,46.12412],[27.59649,46.11293],[27.58806,46.11139],[27.61098,46.07678],[27.58709,46.07196],[27.61452,46.07338],[27.62747,46.06134],[27.59992,46.05602],[27.60498,46.03619],[27.59567,46.02777],[27.60439,46.01931],[27.56267,46.00328],[27.51595,46.05353],[27.53203,46.06706],[27.51716,46.08539],[27.53544,46.09455],[27.50309,46.13949],[27.48406,46.13966],[27.48097,46.12585],[27.44843,46.1267],[27.4265,46.13947],[27.4182,46.13064],[27.42809,46.11611],[27.42435,46.08926],[27.37179,46.08778],[27.36828,46.07865],[27.29201,46.08331],[27.28175,46.07512],[27.29039,46.05967],[27.27789,46.05918],[27.26876,46.04161],[27.23314,46.04186],[27.2261,46.00275],[27.23728,45.95584],[27.28451,45.8867],[27.25237,45.88239],[27.24862,45.87264],[27.27946,45.87031],[27.27889,45.8575],[27.29009,45.86001],[27.30455,45.8423],[27.31906,45.80555],[27.34227,45.78825],[27.36325,45.72545],[27.39603,45.69011],[27.41256,45.67616],[27.42362,45.68066],[27.42249,45.66944],[27.44766,45.67732],[27.46528,45.63724],[27.49866,45.63772],[27.48957,45.62459],[27.5121,45.62156],[27.49676,45.60836],[27.51553,45.60436],[27.51912,45.59041],[27.53526,45.5815],[27.51003,45.57665],[27.50422,45.56316],[27.52828,45.54854],[27.52443,45.51974],[27.54147,45.50935],[27.52686,45.5003],[27.60005,45.48393],[27.62857,45.45473],[27.64604,45.46227],[27.64363,45.47759],[27.65494,45.47996],[27.65438,45.49071],[27.66414,45.48988],[27.66077,45.47261],[27.69154,45.48152],[27.69388,45.47371],[27.68163,45.46496],[27.69317,45.46235],[27.6733,45.44613],[27.71681,45.43349],[27.71819,45.4411],[27.73867,45.43638],[27.73179,45.44204],[27.75058,45.44849],[27.74159,45.41537],[27.78201,45.42225],[27.784,45.40795],[27.81312,45.40182],[27.81445,45.39446],[27.86467,45.39703],[27.8576,45.40215],[27.88312,45.42024],[27.98256,45.39025],[27.9934,45.40052],[28.03052,45.40433]]]},"properties":{"id":"36066543B93424276500239","country":"ROU","name":"GALATI","label":"Galati","center":[27.75619,45.79256],"strength":1.0}},{"type":"Feature","geometry":{"type":"Polygon","coordinates":[[[25.97516,46.69731],[25.89137,46.69911],[25.88374,46.6889],[25.90832,46.65411],[25.86726,46.64962],[25.79495,46.71925],[25.8072,46.73748],[25.79973,46.76877],[25.80721,46.80499],[25.7849,46.81324],[25.77975,46.82515],[25.80519,46.84057],[25.78277,46.85111],[25.7801,46.83388],[25.76258,46.8419],[25.78135,46.86277],[25.76413,46.88451],[25.80167,46.91605],[25.80331,46.92776],[25.86206,46.92353],[25.82701,46.97381],[25.80145,46.96668],[25.79003,46.997],[25.76962,47.01629],[25.7693,47.03554],[25.74379,47.05199],[25.73431,47.07386],[25.62379,47.09502],[25.60158,47.07732],[25.53854,47.08283],[25.53029,47.11052],[25.45762,47.14461],[25.42609,47.17034],[25.42553,47.18402],[25.35847,47.17971],[25.30541,47.16507],[25.28712,47.13311],[25.29593,47.11524],[25.24671,47.09792],[25.23063,47.07565],[25.23111,47.06153],[25.26963,47.03121],[25.26549,47.01064],[25.28905,46.99294],[25.28356,46.95344],[25.2711,46.94639],[25.26218,46.9123],[25.2773,46.89668],[25.25128,46.84115],[25.28357,46.83473],[25.28561,46.79731],[25.31695,46.78026],[25.31717,46.76851],[25.28952,46.75236],[25.26108,46.7498],[25.25904,46.72757],[25.29486,46.68795],[25.28046,46.67177],[25.23688,46.66943],[25.23897,46.65012],[25.22271,46.63955],[25.23235,46.63403],[25.21839,46.61928],[25.19458,46.62751],[25.17921,46.59914],[25.15114,46.57724],[25.10425,46.58226],[25.07556,46.57015],[25.06881,46.5554],[25.02237,46.54111],[25.00451,46.51022],[24.98323,46.49555],[25.00919,46.49499],[25.02475,46.47959],[25.02224,46.46983],[25.00189,46.45728],[24.98884,46.46545],[24.98108,46.44411],[24.94691,46.44328],[24.94999,46.4338],[24.93568,46.42088],[24.93654,46.40841],[24.95993,46.40376],[24.97963,46.3849],[24.94834,46.37445],[24.90855,46.39062],[24.87612,46.3821],[24.88906,46.37625],[24.88528,46.36401],[24.8571,46.35725],[24.85367,46.3479],[24.8699,46.33949],[24.86739,46.32569],[24.87813,46.32519],[24.86189,46.30846],[24.92968,46.27093],[24.92866,46.26219],[24.93859,46.25885],[24.93279,46.24636],[24.96221,46.24928],[24.95901,46.24391],[24.98577,46.23739],[25.00489,46.24834],[25.03774,46.24002],[25.0697,46.24493],[25.07623,46.23257],[25.10639,46.23046],[25.1351,46.18312],[25.1794,46.16412],[25.18968,46.17075],[25.24301,46.14142],[25.26057,46.15105],[25.26483,46.16698],[25.25138,46.17726],[25.25864,46.19041],[25.27344,46.18722],[25.26585,46.17496],[25.27322,46.17005],[25.33265,46.17782],[25.3735,46.13565],[25.4049,46.13269],[25.4071,46.12377],[25.44996,46.12454],[25.45129,46.10388],[25.46122,46.10223],[25.47825,46.1241],[25.47892,46.14564],[25.49763,46.14841],[25.50896,46.16163],[25.50816,46.18818],[25.55659,46.2078],[25.5629,46.21813],[25.57493,46.21279],[25.603,46.24162],[25.63081,46.24428],[25.70004,46.27665],[25.72598,46.27457],[25.73417,46.26332],[25.72713,46.25027],[25.79196,46.19325],[25.79356,46.17406],[25.85843,46.11905],[25.97867,46.13507],[25.99171,46.12524],[26.01951,46.12801],[26.05723,46.1597],[26.11627,46.16099],[26.13086,46.17234],[26.17183,46.16001],[26.17588,46.17794],[26.18735,46.18474],[26.20868,46.18033],[26.21932,46.206],[26.26155,46.21556],[26.25027,46.23547],[26.26225,46.23932],[26.26499,46.25622],[26.25328,46.27675],[26.27431,46.28718],[26.29164,46.33567],[26.27085,46.34464],[26.23565,46.33504],[26.22104,46.31438],[26.15668,46.31478],[26.14929,46.32916],[26.16633,46.35486],[26.1649,46.38488],[26.11,46.40077],[26.06179,46.40074],[26.06165,46.41207],[26.04689,46.41657],[25.99522,46.40676],[26.00314,46.42519],[25.98703,46.43884],[26.00478,46.44458],[26.00557,46.45718],[26.0172,46.46134],[26.01703,46.47672],[26.00697,46.48246],[26.01903,46.49234],[26.05658,46.49432],[26.07447,46.48465],[26.08294,46.51247],[26.07432,46.52567],[26.05767,46.52693],[26.03486,46.54449],[26.03338,46.57076],[25.99842,46.60172],[25.99074,46.62282],[26.00427,46.63793],[26.02007,46.63449],[25.99359,46.67373],[25.97269,46.67763],[25.97516,46.69731]]]},"properties":{"id":"36066543B14518908529982","country":"ROU","name":"HARGHITA","label":"Harghita","center":[25.55647,46.54915],"strength":0.98}},{"type":"Feature","geometry":{"type":"Polygon","coordinates":[[[26.70097,47.47162],[26.69543,47.45966],[26.68149,47.46151],[26.68038,47.43977],[26.70328,47.40879],[26.69551,47.40043],[26.68995,47.41397],[26.67812,47.41333],[26.6442,47.39897],[26.67898,47.37532],[26.66099,47.36987],[26.66701,47.36261],[26.6832,47.36649],[26.67354,47.35859],[26.6094,47.35537],[26.57051,47.37619],[26.5709,47.3894],[26.53289,47.38986],[26.52744,47.40462],[26.49336,47.39237],[26.50884,47.36315],[26.49881,47.36178],[26.49707,47.3499],[26.51092,47.3353],[26.52116,47.3404],[26.55075,47.30961],[26.56355,47.31509],[26.5745,47.30653],[26.56276,47.29219],[26.54627,47.30083],[26.50779,47.2717],[26.5582,47.24031],[26.57335,47.21734],[26.59644,47.20972],[26.59085,47.19874],[26.61367,47.19133],[26.61639,47.18172],[26.602,47.17228],[26.60922,47.16031],[26.60018,47.15452],[26.6226,47.13212],[26.61457,47.10958],[26.63662,47.09247],[26.68277,47.11247],[26.7254,47.0851],[26.75948,47.0979],[26.81248,47.06748],[26.82009,47.0419],[26.83244,47.03737],[26.87813,47.05758],[26.88472,47.05183],[26.87237,47.04773],[26.87619,47.04135],[26.88868,47.04558],[26.90251,47.02799],[26.96174,47.04578],[26.97114,47.07725],[26.98395,47.07756],[27.00266,47.0396],[27.02265,47.03346],[27.03656,47.04191],[27.02534,47.05261],[27.05219,47.06349],[27.06039,47.08493],[27.09787,47.09191],[27.15607,47.08262],[27.18299,47.06151],[27.17692,47.04022],[27.18643,47.02996],[27.24062,47.01181],[27.24343,46.99264],[27.21627,46.97415],[27.18033,46.98889],[27.17104,46.97096],[27.14781,46.95818],[27.13381,46.96343],[27.12205,46.95059],[27.1716,46.92567],[27.20134,46.89452],[27.19339,46.8878],[27.22339,46.87801],[27.22644,46.86805],[27.28471,46.87608],[27.32186,46.86421],[27.37255,46.89225],[27.39814,46.89364],[27.40206,46.87587],[27.41618,46.87606],[27.42451,46.8625],[27.45477,46.86935],[27.45983,46.86237],[27.53322,46.88215],[27.52168,46.89121],[27.51994,46.9145],[27.53192,46.91594],[27.54669,46.91429],[27.5682,46.87748],[27.57098,46.8889],[27.58894,46.88727],[27.5843,46.879],[27.59116,46.87888],[27.60678,46.89342],[27.644,46.89675],[27.60754,46.94619],[27.61673,46.95001],[27.60632,46.95722],[27.62098,46.99171],[27.63802,46.97708],[27.65845,46.97472],[27.69357,46.93713],[27.70534,46.94002],[27.72465,46.91996],[27.73292,46.92224],[27.7697,46.87268],[27.79169,46.87425],[27.76957,46.95506],[27.78397,46.94575],[27.81133,46.95301],[27.8149,46.88193],[27.79704,46.86021],[27.82974,46.85342],[27.83607,46.86496],[27.87025,46.8594],[27.86961,46.83972],[27.89025,46.82071],[27.92054,46.83013],[27.92849,46.81935],[27.9438,46.82249],[27.93659,46.83126],[27.9481,46.8375],[27.92144,46.86311],[27.92827,46.86642],[27.94197,46.85515],[27.97956,46.85764],[27.99019,46.83843],[28.01466,46.83376],[28.05364,46.85158],[28.11447,46.83792],[28.10756,46.84281],[28.12656,46.8529],[28.11708,46.85393],[28.12323,46.85649],[28.10761,46.86541],[28.11218,46.86938],[28.09832,46.87031],[28.1186,46.87776],[28.11103,46.89545],[28.09661,46.89206],[28.08284,46.90305],[28.1127,46.92158],[28.08142,46.93726],[28.09689,46.9422],[28.09364,46.95652],[28.07841,46.96287],[28.09605,46.97893],[28.03262,47.01112],[28.04117,47.01912],[28.05347,47.01387],[28.04805,47.02488],[28.02667,47.03004],[28.01987,47.02295],[27.97278,47.04464],[27.95882,47.04188],[27.96373,47.04948],[27.94481,47.05024],[27.95842,47.05758],[27.89785,47.07346],[27.8934,47.08691],[27.87982,47.09158],[27.88359,47.09926],[27.86705,47.10292],[27.87469,47.10792],[27.85931,47.10374],[27.85593,47.11277],[27.82832,47.11903],[27.83899,47.12912],[27.85043,47.12476],[27.84251,47.13553],[27.78211,47.14188],[27.79977,47.14246],[27.7844,47.15012],[27.81092,47.16327],[27.7962,47.171],[27.80339,47.18968],[27.78646,47.19097],[27.79067,47.20725],[27.77711,47.20433],[27.78611,47.21907],[27.76933,47.22233],[27.775,47.23051],[27.75573,47.2304],[27.7589,47.23961],[27.74551,47.24246],[27.75674,47.25056],[27.74242,47.25694],[27.75802,47.25771],[27.74478,47.2644],[27.74798,47.27666],[27.7378,47.2757],[27.73223,47.29288],[27.70466,47.29995],[27.70585,47.28961],[27.68591,47.28468],[27.6783,47.30982],[27.67318,47.29985],[27.65225,47.30806],[27.64598,47.29963],[27.63302,47.30337],[27.6385,47.31106],[27.62761,47.31047],[27.62191,47.32604],[27.60561,47.31714],[27.611,47.32467],[27.60461,47.32886],[27.5993,47.31714],[27.59534,47.32695],[27.58156,47.32764],[27.61532,47.33969],[27.59475,47.34772],[27.6006,47.36819],[27.56826,47.37547],[27.56953,47.39461],[27.5841,47.40871],[27.55304,47.43315],[27.57248,47.46399],[27.55927,47.46358],[27.53778,47.48889],[27.53642,47.47852],[27.52178,47.48219],[27.51535,47.47392],[27.5156,47.49033],[27.50613,47.47834],[27.49283,47.4805],[27.49355,47.48873],[27.47435,47.48549],[27.45421,47.508],[27.46715,47.52684],[27.45116,47.52214],[27.44406,47.53086],[27.45669,47.5362],[27.43126,47.54379],[27.4395,47.54925],[27.42393,47.55437],[27.43278,47.56226],[27.41808,47.56566],[27.42815,47.58266],[27.39115,47.58947],[27.33184,47.57273],[27.30102,47.576],[27.29527,47.56708],[27.2885,47.5741],[27.26358,47.5712],[27.24656,47.55647],[27.25913,47.52912],[27.22459,47.52236],[27.22952,47.51498],[27.22297,47.51285],[27.21877,47.52058],[27.17951,47.51734],[27.15913,47.53512],[27.14964,47.52926],[27.1444,47.54176],[27.1,47.54788],[27.07228,47.51272],[27.08221,47.46435],[27.04911,47.46621],[27.04192,47.4382],[27.02724,47.45748],[27.005,47.46684],[27.01652,47.46905],[27.00723,47.48503],[27.00828,47.47539],[26.97735,47.49622],[26.87964,47.49159],[26.81825,47.50794],[26.78776,47.49998],[26.71686,47.51527],[26.69866,47.50931],[26.70425,47.49934],[26.69754,47.49282],[26.72682,47.47287],[26.70097,47.47162]]]},"properties":{"id":"36066543B68152190067022","country":"ROU","name":"IASI","label":"Iasi","center":[27.28286,47.19951],"strength":1.0}},{"type":"Feature","geometry":{"type":"Polygon","coordinates":[[[24.96084,47.59685],[24.95856,47.61518],[25.05178,47.64057],[25.05548,47.65443],[24.95225,47.70552],[24.9471,47.72912],[24.88314,47.72435],[24.87819,47.75264],[24.83631,47.77966],[24.83658,47.79358],[24.8215,47.80629],[24.82774,47.82046],[24.78411,47.82342],[24.77811,47.83738],[24.75296,47.82972],[24.7344,47.84384],[24.70579,47.84011],[24.70291,47.85245],[24.67068,47.86589],[24.66574,47.87633],[24.67389,47.89636],[24.63587,47.92453],[24.62843,47.94855],[24.59745,47.94595],[24.57554,47.96743],[24.50767,47.95161],[24.43587,47.97037],[24.394,47.95429],[24.38132,47.92645],[24.34466,47.91468],[24.32489,47.92588],[24.22824,47.89644],[24.19642,47.91609],[24.11138,47.91503],[24.09859,47.9365],[24.06219,47.95339],[24.03184,47.94926],[24.00905,47.96724],[23.98267,47.95936],[23.97593,47.96788],[23.95459,47.96464],[23.94197,47.94845],[23.88368,47.94414],[23.86412,47.93174],[23.84313,47.94272],[23.81962,47.98046],[23.77181,47.99493],[23.72064,47.99494],[23.7164,47.98804],[23.70845,47.99438],[23.66466,47.98371],[23.63466,48.003],[23.56684,48.00292],[23.52906,48.01982],[23.52114,47.99458],[23.49375,47.96772],[23.54262,47.94136],[23.56473,47.94334],[23.58801,47.90059],[23.61171,47.89857],[23.63872,47.86227],[23.57432,47.83644],[23.56007,47.80416],[23.47701,47.7815],[23.45122,47.76177],[23.39031,47.77972],[23.31153,47.77476],[23.30132,47.78991],[23.26181,47.79734],[23.22475,47.7664],[23.2342,47.76568],[23.23013,47.7392],[23.24321,47.72478],[23.29207,47.72734],[23.30686,47.71191],[23.34191,47.7137],[23.36266,47.69846],[23.36411,47.68606],[23.38778,47.68434],[23.36333,47.6654],[23.35317,47.67207],[23.3344,47.65241],[23.34001,47.64379],[23.30388,47.62723],[23.28758,47.63019],[23.27935,47.61109],[23.28813,47.60317],[23.28647,47.58116],[23.26022,47.58078],[23.25763,47.55041],[23.2339,47.55031],[23.21257,47.56344],[23.18687,47.58106],[23.19051,47.58676],[23.16696,47.59355],[23.14343,47.62386],[23.12321,47.61577],[23.05292,47.55509],[23.04207,47.50788],[23.04635,47.48773],[22.99412,47.49353],[22.98698,47.48342],[22.96323,47.48646],[22.96295,47.4757],[22.98347,47.4606],[22.96533,47.45565],[22.96409,47.43935],[23.01686,47.43295],[23.04381,47.41207],[23.03556,47.41728],[23.04393,47.43299],[23.06099,47.44124],[23.15927,47.43792],[23.18366,47.45914],[23.22061,47.43318],[23.24707,47.43687],[23.26457,47.42543],[23.3113,47.42385],[23.33554,47.41165],[23.35682,47.41725],[23.37753,47.38813],[23.4816,47.37773],[23.51144,47.36204],[23.53862,47.36967],[23.57894,47.36218],[23.58461,47.37221],[23.61556,47.37557],[23.6176,47.39199],[23.64534,47.39292],[23.66805,47.37977],[23.66681,47.36549],[23.68076,47.35499],[23.71223,47.35237],[23.69981,47.34747],[23.71052,47.3309],[23.74525,47.32062],[23.76447,47.3369],[23.84139,47.34001],[23.83211,47.34761],[23.84685,47.37229],[23.86674,47.37022],[23.86986,47.3802],[23.89801,47.35433],[23.92518,47.35234],[23.96988,47.36566],[24.03277,47.36217],[24.03777,47.37389],[24.07555,47.38972],[24.07237,47.40966],[24.12423,47.43779],[24.11802,47.44726],[24.12846,47.47943],[24.11758,47.48293],[24.12671,47.4993],[24.14139,47.48739],[24.16687,47.50568],[24.24037,47.50012],[24.25221,47.51889],[24.26771,47.51737],[24.27939,47.54416],[24.30167,47.55846],[24.30306,47.57912],[24.34312,47.56594],[24.36146,47.57526],[24.38662,47.60833],[24.43951,47.59018],[24.45668,47.59545],[24.55355,47.57331],[24.56564,47.56265],[24.63189,47.5758],[24.65214,47.56751],[24.65958,47.55397],[24.72598,47.57624],[24.78751,47.577],[24.80724,47.56665],[24.82788,47.59661],[24.86065,47.59118],[24.89905,47.60285],[24.96084,47.59685]]]},"properties":{"id":"36066543B51562338382257","country":"ROU","name":"MARAMURES","label":"Maramures","center":[23.9786,47.6711],"strength":1.0}},{"type":"Feature","geometry":{"type":"Polygon","coordinates":[[[24.23137,46.25961],[24.24909,46.25013],[24.26428,46.25343],[24.26511,46.26656],[24.28758,46.28408],[24.29924,46.25505],[24.31222,46.25217],[24.3532,46.25421],[24.37895,46.24366],[24.42,46.26531],[24.48901,46.25876],[24.49754,46.24252],[24.51562,46.25392],[24.53544,46.25059],[24.53989,46.26073],[24.56268,46.25768],[24.56973,46.27464],[24.5936,46.27132],[24.60459,46.25159],[24.62373,46.25137],[24.6328,46.2706],[24.66575,46.28112],[24.67653,46.25002],[24.66932,46.22841],[24.656,46.23744],[24.65054,46.23196],[24.67354,46.21892],[24.68374,46.19728],[24.67398,46.16843],[24.6799,46.14825],[24.66858,46.13767],[24.67726,46.12833],[24.67269,46.10353],[24.7163,46.07633],[24.73752,46.08924],[24.76969,46.08675],[24.77513,46.10181],[24.80493,46.09251],[24.86302,46.1109],[24.9003,46.10612],[24.89994,46.09207],[24.91842,46.07936],[24.94654,46.07911],[24.95812,46.11222],[25.01485,46.14628],[25.04624,46.1332],[25.07898,46.1515],[25.12585,46.14233],[25.17303,46.16717],[25.1351,46.18312],[25.10639,46.23046],[25.07623,46.23257],[25.0697,46.24493],[25.03774,46.24002],[25.00489,46.24834],[24.98577,46.23739],[24.95901,46.24391],[24.96221,46.24928],[24.93279,46.24636],[24.93859,46.25885],[24.92866,46.26219],[24.92968,46.27093],[24.88807,46.29875],[24.86814,46.29902],[24.8614,46.31126],[24.87813,46.32519],[24.86739,46.32569],[24.8699,46.33949],[24.85367,46.3479],[24.8571,46.35725],[24.88528,46.36401],[24.88906,46.37625],[24.87869,46.38373],[24.90855,46.39062],[24.94834,46.37445],[24.97963,46.3849],[24.95993,46.40376],[24.93654,46.40841],[24.93568,46.42088],[24.94999,46.4338],[24.94691,46.44328],[24.98108,46.44411],[24.98884,46.46545],[25.00189,46.45728],[25.02224,46.46983],[25.02475,46.47959],[25.00919,46.49499],[24.98323,46.49555],[25.00451,46.51022],[25.02237,46.54111],[25.06881,46.5554],[25.07556,46.57015],[25.10425,46.58226],[25.15114,46.57724],[25.17921,46.59914],[25.19458,46.62751],[25.21839,46.61928],[25.23235,46.63403],[25.22271,46.63955],[25.23897,46.65012],[25.23688,46.66943],[25.28046,46.67177],[25.29486,46.68795],[25.25904,46.72757],[25.26108,46.7498],[25.28952,46.75236],[25.31845,46.77293],[25.31244,46.7861],[25.28561,46.79731],[25.28357,46.83473],[25.25128,46.84115],[25.2773,46.89668],[25.26218,46.9123],[25.28961,46.9828],[25.28905,46.99294],[25.26549,47.01064],[25.26963,47.03121],[25.23111,47.06153],[25.23063,47.07565],[25.24671,47.09792],[25.17307,47.13058],[25.14405,47.11321],[25.12488,47.12322],[25.09373,47.12079],[25.06338,47.13655],[25.0135,47.11117],[24.95326,47.12048],[24.93205,47.09603],[24.8971,47.10924],[24.86994,47.105],[24.79264,47.04911],[24.7681,47.00137],[24.74038,46.98155],[24.74498,46.97208],[24.73317,46.95741],[24.74099,46.95308],[24.72181,46.93239],[24.75454,46.90987],[24.72975,46.91254],[24.71947,46.90342],[24.65851,46.90953],[24.66433,46.91636],[24.64696,46.91732],[24.65361,46.92664],[24.62469,46.95437],[24.61444,46.94471],[24.59467,46.94555],[24.57904,46.92611],[24.58457,46.91507],[24.55367,46.91554],[24.56067,46.9057],[24.53269,46.90705],[24.53301,46.89894],[24.52127,46.89864],[24.53778,46.86752],[24.527,46.85431],[24.50428,46.85168],[24.50364,46.83957],[24.45825,46.8201],[24.46341,46.81161],[24.44942,46.78912],[24.47216,46.78273],[24.45211,46.76566],[24.41545,46.77397],[24.40108,46.76409],[24.401,46.75054],[24.38425,46.74717],[24.33843,46.75783],[24.30101,46.75324],[24.23487,46.77287],[24.1795,46.80476],[24.18807,46.79333],[24.18056,46.7872],[24.11753,46.77376],[24.12612,46.74647],[24.0879,46.75356],[24.07446,46.74537],[24.06651,46.73344],[24.0889,46.71108],[24.12436,46.70009],[24.11401,46.69409],[24.10245,46.66165],[24.03365,46.64493],[24.0202,46.62785],[24.02522,46.6155],[24.06909,46.60603],[24.05265,46.56183],[24.03744,46.55726],[24.04531,46.54497],[24.01918,46.53126],[23.98689,46.54227],[23.95909,46.51546],[23.97505,46.50457],[23.96421,46.49854],[23.97372,46.48184],[23.96323,46.47646],[23.97115,46.45911],[24.00474,46.44218],[23.98527,46.43092],[23.99722,46.42733],[24.02246,46.44912],[24.01994,46.45724],[24.0395,46.45752],[24.01706,46.43385],[24.03565,46.43342],[24.03534,46.40664],[23.98945,46.38105],[23.99728,46.37056],[24.0279,46.37279],[24.03219,46.36689],[24.01895,46.36074],[24.05805,46.33923],[24.14315,46.33175],[24.14485,46.2992],[24.15916,46.29151],[24.16368,46.2724],[24.17598,46.26886],[24.17668,46.28022],[24.19418,46.28297],[24.21008,46.26349],[24.23137,46.25961]]]},"properties":{"id":"36066543B31003852704017","country":"ROU","name":"MURES","label":"Mures","center":[24.69574,46.60946],"strength":0.92}},{"type":"Feature","geometry":{"type":"Polygon","coordinates":[[[27.20625,46.76987],[27.23391,46.77736],[27.22442,46.79115],[27.2133,46.78956],[27.21513,46.8176],[27.22711,46.82094],[27.20734,46.83991],[27.21941,46.84858],[27.18833,46.87144],[27.20237,46.8824],[27.19339,46.8878],[27.20134,46.89452],[27.1716,46.92567],[27.12205,46.95059],[27.13381,46.96343],[27.14781,46.95818],[27.17104,46.97096],[27.18033,46.98889],[27.21627,46.97415],[27.24343,46.99264],[27.24062,47.01181],[27.17692,47.04022],[27.18562,47.04965],[27.17309,47.072],[27.09787,47.09191],[27.06039,47.08493],[27.05219,47.06349],[27.02534,47.05261],[27.03656,47.04191],[27.02265,47.03346],[27.00266,47.0396],[26.98395,47.07756],[26.97114,47.07725],[26.96174,47.04578],[26.90251,47.02799],[26.88868,47.04558],[26.87619,47.04135],[26.87237,47.04773],[26.88472,47.05183],[26.87813,47.05758],[26.83244,47.03737],[26.82009,47.0419],[26.81248,47.06748],[26.75948,47.0979],[26.7254,47.0851],[26.68277,47.11247],[26.63662,47.09247],[26.61457,47.10958],[26.6226,47.13212],[26.60018,47.15452],[26.60922,47.16031],[26.602,47.17228],[26.61639,47.18172],[26.61367,47.19133],[26.59085,47.19874],[26.59644,47.20972],[26.57335,47.21734],[26.5582,47.24031],[26.51754,47.26054],[26.50013,47.28356],[26.40552,47.3403],[26.2771,47.29511],[26.28308,47.29141],[26.26721,47.28194],[26.24888,47.27975],[26.1859,47.30729],[26.17305,47.29656],[26.13719,47.28857],[26.12538,47.29732],[26.05632,47.27454],[26.02493,47.28934],[25.97857,47.28865],[25.93228,47.27706],[25.9236,47.25913],[25.89087,47.26776],[25.87004,47.29375],[25.8348,47.31215],[25.77295,47.32095],[25.76389,47.31761],[25.80458,47.28027],[25.81283,47.25936],[25.78683,47.23758],[25.74685,47.23221],[25.72898,47.21706],[25.72907,47.20351],[25.71605,47.19589],[25.72029,47.17458],[25.69995,47.17084],[25.69051,47.15475],[25.69778,47.14349],[25.66454,47.11829],[25.6595,47.09551],[25.7381,47.07114],[25.74379,47.05199],[25.7693,47.03554],[25.76962,47.01629],[25.79003,46.997],[25.80145,46.96668],[25.82701,46.97381],[25.86206,46.92353],[25.80331,46.92776],[25.80167,46.91605],[25.76413,46.88451],[25.78135,46.86277],[25.76258,46.8419],[25.7801,46.83388],[25.78277,46.85111],[25.80519,46.84057],[25.77975,46.82515],[25.7849,46.81324],[25.80721,46.80499],[25.79973,46.76877],[25.8072,46.73748],[25.79495,46.71925],[25.86726,46.64962],[25.90832,46.65411],[25.88374,46.6889],[25.89137,46.69911],[26.0142,46.69457],[26.05399,46.7165],[26.07166,46.7079],[26.08136,46.65616],[26.10073,46.64692],[26.1402,46.66072],[26.15927,46.64168],[26.21622,46.65603],[26.21757,46.68074],[26.26585,46.70305],[26.26215,46.6942],[26.28408,46.68079],[26.30101,46.65349],[26.33079,46.66427],[26.34591,46.65096],[26.39029,46.65122],[26.4088,46.66435],[26.41048,46.67857],[26.43564,46.68781],[26.44118,46.67908],[26.47222,46.67646],[26.51472,46.69475],[26.54664,46.67832],[26.57027,46.67858],[26.60824,46.71287],[26.67598,46.736],[26.67591,46.76768],[26.7429,46.76829],[26.7312,46.7492],[26.75476,46.75625],[26.75134,46.7379],[26.7869,46.7171],[26.79994,46.72198],[26.84186,46.75132],[26.8215,46.77315],[26.84954,46.77996],[26.84946,46.8047],[26.88248,46.81584],[26.88544,46.8286],[26.90944,46.82721],[26.91482,46.81102],[26.90063,46.81611],[26.9081,46.80039],[26.89316,46.79768],[26.91273,46.79332],[26.90782,46.78649],[26.92226,46.78296],[26.92244,46.7752],[26.93554,46.78475],[26.94678,46.77162],[26.93933,46.75186],[27.04434,46.77409],[27.06141,46.7561],[27.09855,46.76952],[27.11528,46.74863],[27.14625,46.75346],[27.14235,46.74127],[27.15074,46.7312],[27.16052,46.73435],[27.16316,46.74947],[27.18572,46.74972],[27.18814,46.76078],[27.20625,46.76987]]]},"properties":{"id":"36066543B92634150337313","country":"ROU","name":"NEAMT","label":"Neamt","center":[26.37309,46.9693],"strength":1.0}},{"type":"Feature","geometry":{"type":"Polygon","coordinates":[[[22.72878,47.00718],[22.75385,47.003],[22.795,46.97712],[22.83482,46.99517],[22.86618,46.98064],[22.87898,46.98887],[22.87127,46.97952],[22.899,46.96948],[22.89674,46.94375],[22.9315,46.91848],[22.98742,46.90259],[23.00694,46.90756],[23.01187,46.8878],[23.03349,46.9015],[23.04144,46.89732],[23.03184,46.88924],[23.03599,46.88182],[23.06546,46.90459],[23.09224,46.89031],[23.08337,46.86728],[23.10447,46.85344],[23.1753,46.87508],[23.16279,46.87926],[23.19867,46.86946],[23.20032,46.88212],[23.22264,46.89262],[23.20267,46.9226],[23.2296,46.93476],[23.21607,46.93952],[23.21722,46.95301],[23.23411,46.95696],[23.2283,46.96367],[23.25869,46.93507],[23.25885,46.91416],[23.27812,46.91059],[23.28209,46.8979],[23.32367,46.91414],[23.33857,46.90844],[23.35503,46.91995],[23.34456,46.92485],[23.38159,46.94631],[23.37094,46.96034],[23.38806,46.96685],[23.38497,46.97733],[23.41168,46.98175],[23.39842,46.99352],[23.42782,46.98834],[23.45874,46.99815],[23.46158,47.00937],[23.4738,47.01296],[23.47238,47.02855],[23.48561,47.02918],[23.47167,47.04357],[23.47501,47.05367],[23.4514,47.06023],[23.44775,47.0757],[23.42718,47.08984],[23.48525,47.09045],[23.47888,47.10772],[23.48976,47.10985],[23.48793,47.11957],[23.50411,47.11738],[23.49101,47.12962],[23.50121,47.14208],[23.49776,47.15499],[23.54391,47.15847],[23.56146,47.17892],[23.58247,47.17753],[23.59708,47.16451],[23.61582,47.16985],[23.6338,47.18251],[23.62669,47.19414],[23.65295,47.23472],[23.71155,47.2435],[23.72062,47.25484],[23.72584,47.24609],[23.75274,47.24194],[23.7622,47.28359],[23.81463,47.25129],[23.81282,47.26799],[23.79876,47.28152],[23.81347,47.29121],[23.80691,47.29597],[23.81594,47.29875],[23.81376,47.30709],[23.84163,47.32743],[23.84139,47.34001],[23.76447,47.3369],[23.76027,47.32592],[23.72767,47.32096],[23.70161,47.34078],[23.71223,47.35237],[23.68076,47.35499],[23.66681,47.36549],[23.66805,47.37977],[23.64534,47.39292],[23.6176,47.39199],[23.61556,47.37557],[23.58461,47.37221],[23.57894,47.36218],[23.53862,47.36967],[23.50302,47.36292],[23.4816,47.37773],[23.37753,47.38813],[23.35682,47.41725],[23.33554,47.41165],[23.3113,47.42385],[23.26457,47.42543],[23.24707,47.43687],[23.22061,47.43318],[23.18366,47.45914],[23.15927,47.43792],[23.10355,47.4411],[23.11596,47.43148],[23.11244,47.41085],[23.12048,47.39562],[23.08977,47.38423],[23.10415,47.37351],[23.05162,47.35017],[23.04321,47.36055],[23.02037,47.35687],[23.00599,47.36876],[22.97668,47.35204],[22.95964,47.35858],[22.9361,47.37487],[22.91584,47.4137],[22.86118,47.41229],[22.84776,47.42215],[22.81085,47.39993],[22.80186,47.41155],[22.76801,47.42049],[22.72282,47.39271],[22.64551,47.37421],[22.62974,47.34976],[22.63498,47.3355],[22.62749,47.34131],[22.60894,47.32822],[22.58727,47.3273],[22.5951,47.31942],[22.58055,47.3012],[22.55275,47.3028],[22.54673,47.26903],[22.55235,47.27252],[22.5606,47.26445],[22.55164,47.26022],[22.56599,47.25145],[22.51674,47.23268],[22.52798,47.21982],[22.506,47.20918],[22.51101,47.19487],[22.4929,47.18686],[22.50823,47.16573],[22.5317,47.16926],[22.53944,47.16171],[22.53456,47.14972],[22.55437,47.14308],[22.54452,47.13565],[22.56665,47.12514],[22.5147,47.10916],[22.59276,47.06386],[22.68649,47.05119],[22.70127,47.01775],[22.72878,47.00718]]]},"properties":{"id":"36066543B8882897274660","country":"ROU","name":"SALAJ","label":"Salaj","center":[23.10471,47.18381],"strength":1.0}},{"type":"Feature","geometry":{"type":"Polygon","coordinates":[[[22.61276,47.33473],[22.63143,47.34194],[22.63498,47.3355],[22.62974,47.34976],[22.64551,47.37421],[22.72282,47.39271],[22.77095,47.42105],[22.80186,47.41155],[22.81085,47.39993],[22.84776,47.42215],[22.86118,47.41229],[22.91584,47.4137],[22.9361,47.37487],[22.97668,47.35204],[23.00287,47.36894],[23.02037,47.35687],[23.04321,47.36055],[23.05162,47.35017],[23.08716,47.36339],[23.10415,47.37351],[23.08977,47.38423],[23.096,47.39067],[23.12048,47.39562],[23.11093,47.4401],[23.06099,47.44124],[23.04393,47.43299],[23.03556,47.41728],[23.04497,47.41273],[23.03237,47.41444],[23.01686,47.43295],[22.96409,47.43935],[22.96533,47.45565],[22.98347,47.4606],[22.96295,47.4757],[22.96323,47.48646],[22.98698,47.48342],[22.99412,47.49353],[23.04635,47.48773],[23.04207,47.50788],[23.05292,47.55509],[23.14077,47.62418],[23.16696,47.59355],[23.19051,47.58676],[23.18687,47.58106],[23.21257,47.56344],[23.2339,47.55031],[23.25763,47.55041],[23.26022,47.58078],[23.28647,47.58116],[23.28813,47.60317],[23.27935,47.61109],[23.28758,47.63019],[23.30388,47.62723],[23.34001,47.64379],[23.3344,47.65241],[23.35317,47.67207],[23.36333,47.6654],[23.38778,47.68434],[23.36411,47.68606],[23.36266,47.69846],[23.34191,47.7137],[23.30686,47.71191],[23.29207,47.72734],[23.24321,47.72478],[23.23013,47.7392],[23.2342,47.76568],[23.22475,47.7664],[23.26181,47.79734],[23.28141,47.7973],[23.30855,47.78615],[23.31153,47.77476],[23.39031,47.77972],[23.45122,47.76177],[23.47701,47.7815],[23.56007,47.80416],[23.57432,47.83644],[23.59562,47.84995],[23.62791,47.85336],[23.63861,47.8703],[23.61171,47.89857],[23.58801,47.90059],[23.56473,47.94334],[23.55177,47.93826],[23.48014,47.97333],[23.4498,47.97622],[23.43371,47.99049],[23.41676,47.98669],[23.39954,48.00116],[23.33199,48.02039],[23.33693,48.0369],[23.29385,48.04432],[23.27693,48.05761],[23.29213,48.07312],[23.26955,48.08515],[23.26791,48.10017],[23.25194,48.10083],[23.24648,48.09192],[23.18924,48.09774],[23.18124,48.11745],[23.16661,48.1201],[23.1391,48.09459],[23.11398,48.08623],[23.12323,48.07736],[23.10644,48.06589],[23.11242,48.05443],[23.0981,48.04423],[23.10922,48.03536],[23.08983,48.01944],[23.09794,48.01566],[23.0912,48.00555],[23.06576,48.0078],[23.0136,47.99047],[22.97776,48.00992],[22.92693,48.0191],[22.92017,48.00683],[22.9374,47.99596],[22.948,47.96732],[22.88707,47.95161],[22.84701,47.90806],[22.8257,47.90767],[22.79302,47.89095],[22.75824,47.89345],[22.77687,47.8434],[22.71171,47.83491],[22.68016,47.7876],[22.61165,47.77193],[22.54948,47.77247],[22.48144,47.81092],[22.4479,47.80312],[22.42625,47.75132],[22.43026,47.74096],[22.35683,47.74898],[22.32428,47.76676],[22.31743,47.76592],[22.31755,47.74324],[22.28545,47.72934],[22.26462,47.73116],[22.25906,47.69798],[22.22601,47.68797],[22.22214,47.66213],[22.20333,47.65487],[22.18083,47.60008],[22.22428,47.58646],[22.23619,47.56487],[22.26125,47.56443],[22.25605,47.53885],[22.28956,47.54053],[22.29527,47.51967],[22.28594,47.51577],[22.28829,47.50651],[22.34097,47.4908],[22.341,47.45559],[22.35817,47.42933],[22.40672,47.43452],[22.43149,47.42209],[22.45923,47.43179],[22.47397,47.42116],[22.52936,47.41864],[22.5304,47.39931],[22.56601,47.39215],[22.5685,47.38336],[22.55966,47.3802],[22.57718,47.36644],[22.57,47.35688],[22.58444,47.35812],[22.61276,47.33473]]]},"properties":{"id":"36066543B37248446823778","country":"ROU","name":"SATU MARE","label":"Satu Mare","center":[22.89707,47.70535],"strength":1.0}},{"type":"Feature","geometry":{"type":"Polygon","coordinates":[[[23.70355,45.49676],[23.77116,45.5107],[23.79481,45.53016],[23.85784,45.53502],[23.87335,45.52282],[23.92227,45.53597],[24.02164,45.53099],[24.11869,45.50876],[24.20503,45.52356],[24.22715,45.54711],[24.25746,45.54306],[24.26601,45.55574],[24.33431,45.5819],[24.33711,45.57251],[24.38659,45.58392],[24.43238,45.58118],[24.44647,45.59085],[24.47765,45.58159],[24.48159,45.5725],[24.51283,45.58682],[24.52671,45.58017],[24.55366,45.58774],[24.56589,45.57914],[24.62618,45.60391],[24.67095,45.59457],[24.68493,45.60411],[24.66933,45.63978],[24.68297,45.67068],[24.67463,45.6839],[24.6816,45.70952],[24.64288,45.76549],[24.63928,45.79506],[24.66099,45.81753],[24.68424,45.82452],[24.68804,45.83641],[24.71349,45.81612],[24.7252,45.82661],[24.71827,45.84095],[24.77348,45.83964],[24.77516,45.85038],[24.77192,45.86808],[24.71608,45.89449],[24.70281,45.94024],[24.7209,45.94586],[24.74874,45.93503],[24.77184,45.96266],[24.76876,45.97572],[24.83549,45.9778],[24.83883,45.98646],[24.82118,46.01013],[24.86549,46.00965],[24.88948,46.0397],[24.92934,46.04455],[24.96499,46.06397],[24.94654,46.07911],[24.9063,46.08603],[24.9003,46.10612],[24.88535,46.1098],[24.84185,46.10688],[24.80493,46.09251],[24.77513,46.10181],[24.76969,46.08675],[24.73752,46.08924],[24.7163,46.07633],[24.69558,46.08312],[24.67269,46.10353],[24.67726,46.12833],[24.66858,46.13767],[24.6799,46.14825],[24.67398,46.16843],[24.68374,46.19728],[24.67354,46.21892],[24.65054,46.23196],[24.656,46.23744],[24.66932,46.22841],[24.67653,46.25002],[24.66575,46.28112],[24.6328,46.2706],[24.62373,46.25137],[24.60459,46.25159],[24.5936,46.27132],[24.56973,46.27464],[24.56268,46.25768],[24.53989,46.26073],[24.53544,46.25059],[24.51562,46.25392],[24.49754,46.24252],[24.48901,46.25876],[24.42,46.26531],[24.37895,46.24366],[24.3532,46.25421],[24.31222,46.25217],[24.29924,46.25505],[24.29017,46.28255],[24.27818,46.28085],[24.26428,46.25343],[24.22766,46.25519],[24.25167,46.24039],[24.18969,46.22393],[24.19879,46.21246],[24.18807,46.18301],[24.20962,46.17414],[24.21331,46.1542],[24.15156,46.13489],[24.11892,46.13478],[24.05833,46.0845],[24.04194,46.09616],[24.04408,46.07962],[24.02693,46.06283],[24.03233,46.0407],[24.01874,46.03885],[24.02696,46.02852],[24.00655,46.0155],[24.00616,46.00017],[23.98966,46.00921],[23.97962,46.03822],[23.93691,46.03776],[23.92239,46.04864],[23.91295,46.04106],[23.89129,46.04469],[23.84567,46.00781],[23.85689,46.0008],[23.85232,45.98554],[23.86362,45.96293],[23.87473,45.95782],[23.87009,45.94865],[23.85,45.95901],[23.81638,45.9232],[23.78946,45.92836],[23.73321,45.91437],[23.73043,45.89719],[23.77338,45.88071],[23.73269,45.84285],[23.72691,45.84818],[23.73448,45.83074],[23.69935,45.82867],[23.68752,45.8026],[23.62494,45.80831],[23.61659,45.80197],[23.622,45.78331],[23.6643,45.75907],[23.64375,45.74539],[23.6221,45.75032],[23.61972,45.73563],[23.58883,45.70257],[23.61089,45.68756],[23.59276,45.6736],[23.64477,45.63988],[23.63221,45.62162],[23.65257,45.60121],[23.64349,45.58802],[23.62488,45.58471],[23.6179,45.56007],[23.63784,45.54443],[23.66506,45.49337],[23.70355,45.49676]]]},"properties":{"id":"36066543B78296944586190","country":"ROU","name":"SIBIU","label":"Sibiu","center":[24.24421,45.85918],"strength":0.28}},{"type":"Feature","geometry":{"type":"Polygon","coordinates":[[[25.06338,47.13655],[25.09373,47.12079],[25.12488,47.12322],[25.14405,47.11321],[25.17307,47.13058],[25.23335,47.0983],[25.2515,47.09781],[25.29593,47.11524],[25.28712,47.13311],[25.30541,47.16507],[25.35847,47.17971],[25.42553,47.18402],[25.42609,47.17034],[25.45762,47.14461],[25.53029,47.11052],[25.53854,47.08283],[25.60158,47.07732],[25.62379,47.09502],[25.65214,47.08721],[25.66159,47.09166],[25.66454,47.11829],[25.69778,47.14349],[25.69051,47.15475],[25.69995,47.17084],[25.72029,47.17458],[25.71605,47.19589],[25.72907,47.20351],[25.72898,47.21706],[25.74685,47.23221],[25.78683,47.23758],[25.81283,47.25936],[25.80458,47.28027],[25.76389,47.31761],[25.77295,47.32095],[25.8348,47.31215],[25.87004,47.29375],[25.89087,47.26776],[25.9236,47.25913],[25.93228,47.27706],[25.97857,47.28865],[26.02493,47.28934],[26.05632,47.27454],[26.12538,47.29732],[26.13719,47.28857],[26.17305,47.29656],[26.1859,47.30729],[26.24888,47.27975],[26.26721,47.28194],[26.28308,47.29141],[26.2771,47.29511],[26.40552,47.3403],[26.43644,47.32731],[26.50779,47.2717],[26.54627,47.30083],[26.56276,47.29219],[26.5745,47.30653],[26.56355,47.31509],[26.55075,47.30961],[26.52116,47.3404],[26.51092,47.3353],[26.49707,47.3499],[26.49881,47.36178],[26.50884,47.36315],[26.49336,47.39237],[26.52744,47.40462],[26.53289,47.38986],[26.5709,47.3894],[26.57051,47.37619],[26.6094,47.35537],[26.67354,47.35859],[26.6832,47.36649],[26.66701,47.36261],[26.66099,47.36987],[26.67898,47.37532],[26.6442,47.39897],[26.67812,47.41333],[26.68995,47.41397],[26.69551,47.40043],[26.70328,47.40879],[26.68038,47.43977],[26.68149,47.46151],[26.69543,47.45966],[26.70097,47.47162],[26.63864,47.47287],[26.59103,47.4597],[26.58907,47.49059],[26.56054,47.49559],[26.55039,47.5117],[26.60486,47.52058],[26.60392,47.53274],[26.57801,47.53533],[26.55809,47.57906],[26.54172,47.58257],[26.54796,47.59114],[26.53719,47.59807],[26.55196,47.60953],[26.53613,47.61923],[26.5427,47.63169],[26.53498,47.63871],[26.5456,47.64344],[26.49666,47.65874],[26.50747,47.66345],[26.46343,47.70693],[26.45915,47.71381],[26.46763,47.71588],[26.44601,47.73356],[26.43233,47.72629],[26.43985,47.74297],[26.42104,47.74751],[26.39611,47.73432],[26.39004,47.7449],[26.40637,47.75432],[26.4003,47.75761],[26.40666,47.75836],[26.40636,47.78405],[26.37554,47.77365],[26.35316,47.78495],[26.31811,47.81499],[26.32502,47.83093],[26.30088,47.83538],[26.31096,47.84929],[26.29353,47.8631],[26.28179,47.85668],[26.26414,47.86836],[26.273,47.87549],[26.2289,47.90015],[26.19939,47.8844],[26.18373,47.89295],[26.19172,47.90874],[26.18274,47.91085],[26.18428,47.91949],[26.12598,47.93264],[26.12293,47.94562],[26.13111,47.95334],[26.11099,47.96507],[26.11967,47.97231],[26.06118,47.98802],[25.95197,47.97083],[25.91464,47.9774],[25.90787,47.96494],[25.89195,47.96122],[25.83759,47.96713],[25.77479,47.93946],[25.62551,47.94874],[25.59241,47.93835],[25.31088,47.91433],[25.26988,47.89239],[25.22999,47.89288],[25.22196,47.85866],[25.18017,47.82591],[25.16686,47.80894],[25.1676,47.79225],[25.13409,47.7823],[25.11619,47.76788],[25.1156,47.75482],[25.06514,47.74058],[25.05382,47.74639],[25.0401,47.7254],[25.00694,47.73435],[24.99492,47.72501],[24.9471,47.72912],[24.95225,47.70552],[25.05158,47.65875],[25.05642,47.64754],[24.975,47.6138],[24.95856,47.61518],[24.96084,47.59685],[24.99204,47.58556],[25.00705,47.56902],[25.05192,47.56036],[25.06643,47.53054],[25.09352,47.5123],[25.09215,47.5019],[25.06138,47.48135],[25.03996,47.48285],[25.06612,47.45044],[25.09079,47.4491],[25.05261,47.43132],[25.05832,47.41648],[25.02641,47.43598],[24.99918,47.42017],[24.98288,47.42387],[25.03316,47.39437],[25.04053,47.38008],[25.06257,47.3792],[25.06936,47.3702],[25.06044,47.35302],[25.0771,47.34076],[25.07943,47.31471],[25.02803,47.28669],[25.07969,47.25831],[25.04452,47.21546],[25.05821,47.20142],[25.06706,47.16688],[25.05757,47.15057],[25.06338,47.13655]]]},"properties":{"id":"36066543B72359943930714","country":"ROU","name":"SUCEAVA","label":"Suceava","center":[25.74684,47.55283],"strength":1.0}},{"type":"Feature","geometry":{"type":"MultiPolygon","coordinates":[[[[29.59431,44.82019],[29.61056,44.84058],[29.5474,44.79356],[29.51242,44.78833],[29.49796,44.79827],[29.49809,44.78957],[29.50744,44.77659],[29.53238,44.78059],[29.59431,44.82019]]],[[[29.612044606578397,44.84077843727351],[29.618248049265937,44.85351798546919],[29.621253085047194,44.86681523879734],[29.61780584968968,44.87757016057622],[29.611319888751645,44.843346435500635],[29.60976907799922,44.84075697523356],[29.612044606578397,44.84077843727351]]],[[[28.07337,44.80411],[28.11486,44.79296],[28.15314,44.80044],[28.18164,44.78543],[28.1816,44.76135],[28.19444,44.75416],[28.2398,44.76473],[28.24111,44.7407],[28.25179,44.74353],[28.23292,44.70885],[28.27369,44.6973],[28.31283,44.71145],[28.32716,44.7074],[28.31459,44.6961],[28.36552,44.69166],[28.36494,44.68484],[28.38535,44.68046],[28.37652,44.66388],[28.38671,44.63954],[28.40827,44.64892],[28.39466,44.6337],[28.42163,44.63212],[28.40247,44.61792],[28.41343,44.61277],[28.43408,44.61633],[28.44774,44.63924],[28.4453,44.65257],[28.42668,44.65583],[28.43141,44.68076],[28.45015,44.67438],[28.44854,44.66331],[28.46896,44.65846],[28.46967,44.64828],[28.52804,44.63282],[28.53586,44.66278],[28.5906,44.65405],[28.68313,44.66885],[28.67504,44.64973],[28.72618,44.65907],[28.7785,44.65498],[28.78931,44.63595],[28.82448,44.63221],[28.8659,44.66451],[28.92048,44.68973],[28.91454,44.69664],[28.96236,44.69333],[28.99503,44.67901],[29.08505,44.74902],[29.15911,44.78002],[29.24537,44.79678],[29.55351,44.82288],[29.57408,44.83913],[29.60574,44.84663],[29.61338,44.85677],[29.60307,44.8766],[29.62479,44.88379],[29.66028,45.10754],[29.68696,45.15248],[29.71525,45.16529],[29.65023,45.16017],[29.6382,45.17646],[29.6285,45.21699],[29.63773,45.22435],[29.68199,45.20583],[29.65997,45.24808],[29.67802,45.27163],[29.65109,45.33976],[29.56407,45.40239],[29.42852,45.44294],[29.35366,45.43795],[29.32251,45.44755],[29.28574,45.42642],[29.24253,45.43435],[29.18738,45.41242],[29.16898,45.39509],[28.96494,45.33205],[28.94832,45.30911],[28.9526,45.28725],[28.94256,45.2806],[28.91397,45.28772],[28.87348,45.31619],[28.84509,45.31807],[28.8173,45.33606],[28.79394,45.33364],[28.7804,45.32321],[28.80487,45.31128],[28.80141,45.30086],[28.75188,45.28455],[28.79212,45.2428],[28.70661,45.22429],[28.63304,45.24446],[28.56098,45.24959],[28.34992,45.3199],[28.28543,45.39975],[28.28679,45.43311],[28.26735,45.45349],[28.22252,45.46323],[28.19664,45.4522],[28.18953,45.41433],[28.12567,45.43934],[28.08095,45.43725],[28.03052,45.40433],[28.02296,45.3527],[27.99481,45.28674],[28.05947,45.25423],[28.09227,45.24924],[28.11515,45.2588],[28.13057,45.2338],[28.09137,45.19025],[28.19768,45.13745],[28.1699,45.12265],[28.17546,45.10147],[28.13565,45.10168],[28.13847,45.0645],[28.15258,45.03707],[28.12837,45.0132],[28.15111,44.97294],[28.12483,44.92212],[28.12798,44.90239],[28.14232,44.88993],[28.10055,44.86185],[28.07337,44.80411]]]]},"properties":{"id":"36066543B86483735073728","country":"ROU","name":"TULCEA","label":"Tulcea","center":[28.85916,45.0477],"strength":1.0}},{"type":"Feature","geometry":{"type":"Polygon","coordinates":[[[27.49308,46.15918],[27.48469,46.14526],[27.5024,46.14331],[27.53544,46.09455],[27.51716,46.08539],[27.53203,46.06706],[27.51595,46.05353],[27.56267,46.00328],[27.60439,46.01931],[27.59567,46.02777],[27.60498,46.03619],[27.59992,46.05602],[27.62747,46.06134],[27.61452,46.07338],[27.58709,46.07196],[27.61098,46.07678],[27.58806,46.11139],[27.59649,46.11293],[27.5913,46.12412],[27.60128,46.12243],[27.58414,46.1355],[27.58108,46.14452],[27.59106,46.15018],[27.60732,46.13066],[27.63362,46.13845],[27.64721,46.1298],[27.65038,46.14038],[27.67159,46.1328],[27.67861,46.14125],[27.69315,46.13207],[27.71026,46.13857],[27.71108,46.12919],[27.76248,46.12806],[27.7864,46.09068],[27.79133,46.10079],[27.8155,46.10482],[27.8082,46.11166],[27.831,46.11844],[27.83089,46.12645],[27.84526,46.12629],[27.84684,46.15791],[27.85703,46.16317],[27.87258,46.158],[27.87183,46.14556],[27.91082,46.15398],[27.92632,46.15244],[27.93965,46.13517],[27.96456,46.1413],[27.98297,46.11152],[28.00951,46.11572],[28.00901,46.10496],[28.07679,46.11753],[28.12448,46.11202],[28.12486,46.12625],[28.13437,46.13076],[28.12432,46.15158],[28.14284,46.16424],[28.12833,46.1779],[28.14415,46.17928],[28.13096,46.18391],[28.14057,46.18325],[28.14074,46.19242],[28.11796,46.19229],[28.12346,46.21084],[28.10963,46.20498],[28.10985,46.24279],[28.11916,46.23876],[28.14636,46.25176],[28.12636,46.26191],[28.13617,46.26462],[28.13952,46.28471],[28.15197,46.2787],[28.15214,46.29271],[28.16954,46.28267],[28.17191,46.29812],[28.18058,46.2856],[28.18716,46.29318],[28.17848,46.30025],[28.20374,46.31191],[28.20921,46.3205],[28.18417,46.33274],[28.19682,46.33402],[28.1995,46.34392],[28.18297,46.35265],[28.19538,46.34934],[28.19209,46.35904],[28.20831,46.35912],[28.19916,46.36443],[28.20714,46.36953],[28.19756,46.37038],[28.22161,46.38162],[28.21785,46.39593],[28.24268,46.39487],[28.22471,46.39937],[28.23876,46.40682],[28.23004,46.41447],[28.25024,46.41577],[28.26082,46.43754],[28.23998,46.45218],[28.25812,46.46226],[28.24555,46.46355],[28.25211,46.46747],[28.24215,46.47923],[28.22497,46.47943],[28.23085,46.49479],[28.20923,46.50574],[28.22282,46.51131],[28.21445,46.52221],[28.22995,46.52669],[28.21541,46.53758],[28.22666,46.55365],[28.23567,46.55186],[28.22287,46.5798],[28.24119,46.58108],[28.23115,46.58518],[28.25016,46.60402],[28.24424,46.60718],[28.25136,46.6213],[28.23907,46.62986],[28.24463,46.63766],[28.23819,46.64429],[28.24599,46.64561],[28.23754,46.65123],[28.23637,46.67899],[28.22384,46.67582],[28.22006,46.6905],[28.2079,46.68598],[28.21474,46.69454],[28.20212,46.70011],[28.20894,46.71268],[28.20198,46.72155],[28.18868,46.71909],[28.19517,46.73263],[28.18298,46.7344],[28.18336,46.7462],[28.17314,46.75096],[28.18478,46.75993],[28.16056,46.77711],[28.17577,46.7772],[28.16644,46.78994],[28.16056,46.78443],[28.15265,46.79984],[28.12868,46.80646],[28.12528,46.82291],[28.11416,46.82198],[28.11447,46.83792],[28.07029,46.85219],[28.01466,46.83376],[27.99019,46.83843],[27.97956,46.85764],[27.94197,46.85515],[27.92827,46.86642],[27.92144,46.86311],[27.9481,46.8375],[27.93659,46.83126],[27.9438,46.82249],[27.92849,46.81935],[27.92054,46.83013],[27.89025,46.82071],[27.86961,46.83972],[27.87025,46.8594],[27.83607,46.86496],[27.82974,46.85342],[27.79704,46.86021],[27.8149,46.88193],[27.81133,46.95301],[27.78397,46.94575],[27.76957,46.95506],[27.79169,46.87425],[27.7697,46.87268],[27.73292,46.92224],[27.72465,46.91996],[27.70534,46.94002],[27.69357,46.93713],[27.65845,46.97472],[27.63802,46.97708],[27.62098,46.99171],[27.60632,46.95722],[27.61673,46.95001],[27.60754,46.94619],[27.644,46.89675],[27.60678,46.89342],[27.59116,46.87888],[27.5843,46.879],[27.58894,46.88727],[27.57098,46.8889],[27.5682,46.87748],[27.54669,46.91429],[27.53192,46.91594],[27.51994,46.9145],[27.52168,46.89121],[27.53322,46.88215],[27.45983,46.86237],[27.45477,46.86935],[27.42451,46.8625],[27.41618,46.87606],[27.40206,46.87587],[27.39814,46.89364],[27.37255,46.89225],[27.33639,46.86774],[27.31131,46.86305],[27.28471,46.87608],[27.25124,46.86754],[27.24842,46.8762],[27.22644,46.86805],[27.22339,46.87801],[27.18877,46.87603],[27.20011,46.8562],[27.20567,46.86372],[27.21941,46.84858],[27.20734,46.83991],[27.22711,46.82094],[27.21513,46.8176],[27.2133,46.78956],[27.22442,46.79115],[27.23391,46.77736],[27.20625,46.76987],[27.21031,46.7606],[27.22834,46.74459],[27.23701,46.74761],[27.23927,46.73529],[27.32659,46.69801],[27.29294,46.67685],[27.32219,46.65681],[27.27617,46.62525],[27.31862,46.59555],[27.36014,46.53623],[27.37981,46.52407],[27.37296,46.51934],[27.38364,46.51798],[27.38198,46.50058],[27.39897,46.46959],[27.41535,46.46216],[27.41992,46.43137],[27.46435,46.37146],[27.45893,46.36023],[27.47722,46.32301],[27.45628,46.32116],[27.46372,46.29585],[27.48384,46.2828],[27.46857,46.27375],[27.47396,46.23629],[27.47894,46.22067],[27.50641,46.21942],[27.51012,46.21],[27.50034,46.16461],[27.50619,46.1554],[27.49308,46.15918]]]},"properties":{"id":"36066543B98418194735101","country":"ROU","name":"VASLUI","label":"Vaslui","center":[27.76784,46.52705],"strength":1.0}},{"type":"Feature","geometry":{"type":"Polygon","coordinates":[[[26.44001,46.0389],[26.44563,46.01876],[26.43197,46.00045],[26.43744,45.98874],[26.38922,45.95467],[26.39448,45.92085],[26.37564,45.90731],[26.38797,45.87358],[26.37434,45.85776],[26.37499,45.82072],[26.38468,45.80601],[26.44083,45.77641],[26.44219,45.73108],[26.46423,45.72242],[26.46714,45.70461],[26.48298,45.70114],[26.49281,45.67689],[26.55157,45.62931],[26.58466,45.63574],[26.5935,45.62042],[26.61491,45.62786],[26.64797,45.609],[26.68165,45.60877],[26.71895,45.57184],[26.74336,45.56646],[26.74316,45.55067],[26.80538,45.5479],[26.83391,45.51783],[26.85321,45.5253],[26.89014,45.5168],[26.90333,45.53865],[26.94301,45.53061],[26.94823,45.52189],[26.98583,45.53771],[26.97505,45.53193],[27.00193,45.48486],[27.04503,45.45265],[27.08992,45.4459],[27.10922,45.47494],[27.15835,45.46517],[27.10654,45.43856],[27.1127,45.43474],[27.10463,45.42595],[27.11993,45.4212],[27.11457,45.40929],[27.14335,45.41044],[27.17481,45.42837],[27.19439,45.45338],[27.20423,45.45282],[27.22342,45.42755],[27.24027,45.42884],[27.25656,45.44922],[27.27958,45.45435],[27.28026,45.42689],[27.26436,45.42099],[27.26998,45.39013],[27.33955,45.38352],[27.3367,45.37135],[27.39439,45.38329],[27.40143,45.37701],[27.43376,45.39429],[27.43242,45.40981],[27.55852,45.48841],[27.52686,45.5003],[27.54147,45.50935],[27.52443,45.51974],[27.52828,45.54854],[27.50422,45.56316],[27.51003,45.57665],[27.53526,45.5815],[27.51912,45.59041],[27.51553,45.60436],[27.49676,45.60836],[27.5121,45.62156],[27.48957,45.62459],[27.49866,45.63772],[27.46528,45.63724],[27.44766,45.67732],[27.42249,45.66944],[27.42362,45.68066],[27.41256,45.67616],[27.39603,45.69011],[27.36325,45.72545],[27.34227,45.78825],[27.31906,45.80555],[27.30455,45.8423],[27.29009,45.86001],[27.27889,45.8575],[27.27946,45.87031],[27.24862,45.87264],[27.25237,45.88239],[27.28451,45.8867],[27.23728,45.95584],[27.2261,46.00275],[27.23314,46.04186],[27.26876,46.04161],[27.27789,46.05918],[27.29039,46.05967],[27.28505,46.07933],[27.3196,46.08613],[27.32231,46.07912],[27.36828,46.07865],[27.37179,46.08778],[27.42435,46.08926],[27.42809,46.11611],[27.4182,46.13064],[27.4265,46.13947],[27.44843,46.1267],[27.48097,46.12585],[27.48406,46.13966],[27.50309,46.13949],[27.48469,46.14526],[27.49299,46.1624],[27.47884,46.16758],[27.45922,46.1574],[27.44808,46.18415],[27.39374,46.19427],[27.3768,46.1861],[27.37453,46.15734],[27.34997,46.15284],[27.35022,46.16893],[27.33397,46.1684],[27.33035,46.17943],[27.31407,46.18373],[27.31791,46.20265],[27.30651,46.20599],[27.26267,46.20038],[27.2699,46.18319],[27.24565,46.17784],[27.22167,46.19131],[27.2013,46.17947],[27.19054,46.18782],[27.18571,46.17183],[27.17334,46.18132],[27.16446,46.17458],[27.17018,46.16954],[27.12358,46.14755],[27.1397,46.13425],[27.1369,46.11567],[27.12076,46.10029],[27.10863,46.11291],[27.0863,46.11141],[27.10528,46.10502],[27.10575,46.08886],[27.08452,46.09534],[27.07341,46.08758],[26.98364,46.11327],[26.94759,46.10059],[26.95153,46.0858],[26.93398,46.06513],[26.87179,46.08465],[26.80704,46.06572],[26.78,46.09381],[26.76109,46.08685],[26.70439,46.09466],[26.65677,46.08585],[26.63362,46.05772],[26.58602,46.04035],[26.57268,46.01683],[26.51562,46.02695],[26.49216,46.04553],[26.45642,46.03403],[26.44001,46.0389]]]},"properties":{"id":"36066543B45061076601041","country":"ROU","name":"VRANCEA","label":"Vrancea","center":[26.97841,45.78778],"strength":0.49}}]}