{"type":"FeatureCollection","features":[{"type":"Feature","geometry":{"type":"Polygon","coordinates":[[[16.94978,48.5358],[16.94355,48.52171],[16.91391,48.51195],[16.91686,48.49535],[16.89564,48.49647],[16.88999,48.47636],[16.88072,48.47749],[16.85948,48.45937],[16.86312,48.45303],[16.85001,48.44916],[16.86375,48.41934],[16.85057,48.41003],[16.85043,48.38319],[16.83328,48.38127],[16.84318,48.35139],[16.87297,48.34884],[16.87166,48.33795],[16.90855,48.32619],[16.89454,48.31124],[16.9199,48.27394],[16.95707,48.26382],[16.94612,48.23588],[16.96178,48.22083],[16.97625,48.17214],[17.02691,48.14087],[17.0572,48.14372],[17.06882,48.12421],[17.06279,48.12148],[17.09271,48.09965],[17.09314,48.09143],[17.07157,48.08094],[17.07891,48.07824],[17.07223,48.07045],[17.08679,48.06536],[17.06825,48.05539],[17.08779,48.04568],[17.06742,48.03143],[17.08987,48.01978],[17.11006,48.03122],[17.16078,48.00666],[17.20178,48.02007],[17.24177,48.02247],[17.24743,48.01201],[17.25885,48.02261],[17.2535,48.02892],[17.26925,48.02864],[17.28172,48.04279],[17.30641,48.04979],[17.2965,48.06616],[17.31406,48.05995],[17.35368,48.09217],[17.32655,48.08884],[17.30712,48.09941],[17.31343,48.11533],[17.30436,48.12318],[17.34047,48.11845],[17.36674,48.13369],[17.37897,48.13046],[17.39097,48.14299],[17.37775,48.14746],[17.38128,48.15768],[17.37418,48.16036],[17.39965,48.1741],[17.41023,48.16418],[17.40122,48.15223],[17.43597,48.14404],[17.4674,48.1523],[17.48224,48.17107],[17.51429,48.17495],[17.5292,48.1965],[17.50074,48.20531],[17.52056,48.22555],[17.47328,48.23508],[17.51374,48.27908],[17.46623,48.30996],[17.4597,48.30581],[17.44931,48.31946],[17.46212,48.32513],[17.47752,48.35258],[17.45217,48.37449],[17.42631,48.37499],[17.43112,48.38088],[17.41061,48.40058],[17.41722,48.405],[17.40092,48.40623],[17.40439,48.41737],[17.37988,48.42918],[17.39313,48.43838],[17.31689,48.45153],[17.30218,48.46594],[17.31413,48.48108],[17.33545,48.4826],[17.33661,48.49769],[17.35505,48.50659],[17.32621,48.51468],[17.30044,48.53635],[17.27195,48.53864],[17.32012,48.56797],[17.3332,48.56386],[17.32477,48.57808],[17.34067,48.57922],[17.37573,48.60745],[17.36934,48.63216],[17.35359,48.64635],[17.32763,48.65403],[17.29617,48.60744],[17.28245,48.60847],[17.26574,48.5895],[17.23449,48.58076],[17.23579,48.56741],[17.12526,48.54673],[17.10618,48.56283],[17.05231,48.56382],[17.05875,48.55555],[16.98298,48.55154],[16.96658,48.54722],[16.97089,48.53765],[16.94978,48.5358]]]},"properties":{"id":"25762395B46801803338249","country":"SVK","name":"Region of Bratislava","label":"Region of Bratislava","center":[17.17942,48.31702],"strength":1.0,"showLabel":false,"priorityLabel":false}},{"type":"Feature","geometry":{"type":"Polygon","coordinates":[[[17.24743,48.01201],[17.25088,48.00157],[17.27725,47.9943],[17.33465,47.99312],[17.40299,47.94785],[17.45392,47.88526],[17.52517,47.86644],[17.56671,47.81564],[17.6084,47.82189],[17.70542,47.75899],[17.73005,47.77577],[17.72982,47.80486],[17.7626,47.80207],[17.77069,47.81419],[17.79464,47.82194],[17.79549,47.85298],[17.80769,47.8706],[17.83274,47.87506],[17.8463,47.89186],[17.88891,47.91337],[17.87142,47.9279],[17.88599,47.94269],[17.8731,47.96331],[17.88053,47.98799],[17.86862,48.02249],[17.88447,48.03427],[17.87144,48.0531],[17.83847,48.06339],[17.85157,48.06928],[17.84355,48.07684],[17.81462,48.06539],[17.80562,48.07061],[17.8201,48.10575],[17.75477,48.14833],[17.77803,48.15817],[17.80681,48.15067],[17.82897,48.16719],[17.80101,48.19141],[17.82048,48.20105],[17.83765,48.18274],[17.88209,48.2086],[17.84627,48.24621],[17.85908,48.25259],[17.85065,48.26132],[17.86686,48.27872],[17.83295,48.29757],[17.8471,48.30662],[17.84934,48.33208],[17.86052,48.33704],[17.85532,48.35043],[17.90467,48.39643],[17.93236,48.44219],[17.94501,48.44093],[17.96467,48.4648],[17.89207,48.50398],[17.84647,48.51402],[17.84553,48.52157],[17.86512,48.53276],[17.87148,48.5615],[17.89578,48.59237],[17.91937,48.58211],[17.95285,48.58302],[17.94983,48.59056],[17.98302,48.59642],[17.9791,48.61253],[17.89709,48.63225],[17.88047,48.62762],[17.86517,48.6388],[17.85231,48.63232],[17.83937,48.65101],[17.82573,48.65313],[17.82047,48.63937],[17.78822,48.63675],[17.74358,48.65176],[17.70197,48.68252],[17.66917,48.66673],[17.64785,48.66761],[17.65276,48.6629],[17.63406,48.66158],[17.62461,48.67208],[17.61539,48.66129],[17.62549,48.64447],[17.57788,48.63773],[17.56128,48.64484],[17.53312,48.62662],[17.46614,48.69994],[17.47655,48.72494],[17.48745,48.72404],[17.49265,48.73427],[17.47281,48.76084],[17.4277,48.76904],[17.41654,48.7872],[17.38679,48.77109],[17.35304,48.77753],[17.39044,48.79374],[17.39942,48.80911],[17.38944,48.81659],[17.36152,48.81343],[17.32166,48.8453],[17.202,48.87815],[17.15411,48.84481],[17.11163,48.83172],[17.08911,48.786],[17.04374,48.7647],[16.99779,48.70883],[16.99732,48.69175],[16.96765,48.66817],[16.96917,48.64494],[16.93365,48.60112],[16.9358,48.57085],[16.95393,48.54426],[16.94978,48.5358],[16.97089,48.53765],[16.96658,48.54722],[16.98298,48.55154],[17.05875,48.55555],[17.05231,48.56382],[17.10618,48.56283],[17.12526,48.54673],[17.23579,48.56741],[17.23449,48.58076],[17.26574,48.5895],[17.28245,48.60847],[17.29617,48.60744],[17.32763,48.65403],[17.35359,48.64635],[17.36934,48.63216],[17.37573,48.60745],[17.34067,48.57922],[17.32477,48.57808],[17.3332,48.56386],[17.32012,48.56797],[17.27195,48.53864],[17.30044,48.53635],[17.32621,48.51468],[17.35505,48.50659],[17.33661,48.49769],[17.33545,48.4826],[17.31413,48.48108],[17.30218,48.46594],[17.31689,48.45153],[17.39313,48.43838],[17.37988,48.42918],[17.40439,48.41737],[17.40092,48.40623],[17.41722,48.405],[17.41061,48.40058],[17.43112,48.38088],[17.42631,48.37499],[17.45217,48.37449],[17.47752,48.35258],[17.46212,48.32513],[17.44931,48.31946],[17.4597,48.30581],[17.46623,48.30996],[17.51374,48.27908],[17.47328,48.23508],[17.52056,48.22555],[17.50074,48.20531],[17.5292,48.1965],[17.51429,48.17495],[17.48224,48.17107],[17.4674,48.1523],[17.43597,48.14404],[17.40122,48.15223],[17.41023,48.16418],[17.39965,48.1741],[17.37418,48.16036],[17.38128,48.15768],[17.37775,48.14746],[17.39097,48.14299],[17.37897,48.13046],[17.36674,48.13369],[17.34047,48.11845],[17.30436,48.12318],[17.31343,48.11533],[17.30712,48.09941],[17.32655,48.08884],[17.35368,48.09217],[17.31406,48.05995],[17.2965,48.06616],[17.30641,48.04979],[17.28172,48.04279],[17.26925,48.02864],[17.2535,48.02892],[17.25885,48.02261],[17.24743,48.01201]]]},"properties":{"id":"25762395B43018944697777","country":"SVK","name":"Region of Trnava","label":"Region of Trnava","center":[17.53452,48.35361],"strength":1.0,"showLabel":false,"priorityLabel":false}},{"type":"Feature","geometry":{"type":"Polygon","coordinates":[[[17.9791,48.61253],[18.00372,48.62922],[18.01584,48.62313],[18.02335,48.63824],[17.99403,48.68189],[17.99136,48.70639],[18.02179,48.71443],[18.02813,48.70251],[18.09649,48.69121],[18.10527,48.6969],[18.16466,48.64288],[18.1845,48.64637],[18.25609,48.60936],[18.21433,48.57679],[18.23521,48.56735],[18.22677,48.5549],[18.26604,48.55202],[18.30345,48.52026],[18.31137,48.49689],[18.34128,48.48971],[18.34982,48.50109],[18.36603,48.48568],[18.36599,48.49402],[18.41489,48.52123],[18.48734,48.5493],[18.49747,48.56885],[18.53077,48.56132],[18.56727,48.56698],[18.57745,48.57747],[18.5977,48.57527],[18.60162,48.59259],[18.6565,48.63992],[18.71725,48.62679],[18.71389,48.64779],[18.74135,48.66204],[18.75447,48.69178],[18.79614,48.70061],[18.82635,48.74406],[18.81014,48.76917],[18.77672,48.79078],[18.78032,48.80418],[18.76948,48.80858],[18.77796,48.81275],[18.69807,48.84771],[18.69542,48.8807],[18.70794,48.89749],[18.69364,48.9089],[18.69375,48.92561],[18.72028,48.93749],[18.69456,48.95918],[18.63173,48.96503],[18.5951,48.9568],[18.57795,48.97131],[18.55981,48.94933],[18.52341,48.93705],[18.46594,48.94804],[18.46373,48.95563],[18.49719,48.96354],[18.51087,48.98321],[18.56964,48.9981],[18.5996,49.02423],[18.59892,49.07274],[18.57903,49.0862],[18.557,49.08759],[18.59096,49.11649],[18.57469,49.1243],[18.57491,49.14319],[18.46765,49.1895],[18.4643,49.20457],[18.44665,49.21234],[18.43034,49.25499],[18.3771,49.30338],[18.3734,49.31898],[18.3559,49.3197],[18.18403,49.287],[18.18426,49.26983],[18.14697,49.24793],[18.14441,49.22924],[18.15627,49.22954],[18.15491,49.21615],[18.13084,49.18879],[18.13671,49.16102],[18.10675,49.13419],[18.12221,49.118],[18.11027,49.11355],[18.11555,49.09008],[18.09165,49.06744],[18.09547,49.05924],[18.05712,49.02851],[17.9243,49.01997],[17.91384,49.01091],[17.88531,48.92768],[17.78132,48.92527],[17.78267,48.91669],[17.70334,48.86002],[17.63298,48.85489],[17.58889,48.82519],[17.55457,48.83156],[17.5473,48.81652],[17.52854,48.81217],[17.51569,48.8189],[17.51906,48.8293],[17.50981,48.8196],[17.45318,48.84673],[17.42703,48.8263],[17.40268,48.82044],[17.39044,48.79374],[17.35304,48.77753],[17.38679,48.77109],[17.41654,48.7872],[17.4277,48.76904],[17.47281,48.76084],[17.49265,48.73427],[17.48745,48.72404],[17.47655,48.72494],[17.46614,48.69994],[17.53312,48.62662],[17.56128,48.64484],[17.57788,48.63773],[17.62549,48.64447],[17.61539,48.66129],[17.62461,48.67208],[17.63406,48.66158],[17.65276,48.6629],[17.64785,48.66761],[17.66917,48.66673],[17.70197,48.68252],[17.74358,48.65176],[17.78822,48.63675],[17.82047,48.63937],[17.82573,48.65313],[17.83937,48.65101],[17.85231,48.63232],[17.86517,48.6388],[17.88047,48.62762],[17.89709,48.63225],[17.9791,48.61253]]]},"properties":{"id":"25762395B87770954339991","country":"SVK","name":"Region of Trenčín","label":"Region of Trenčín","center":[18.21364,48.85857],"strength":1.0,"showLabel":false,"priorityLabel":false}},{"type":"Feature","geometry":{"type":"Polygon","coordinates":[[[17.70542,47.75899],[17.78262,47.73919],[17.8661,47.74575],[17.90013,47.73926],[17.94687,47.74467],[17.97087,47.75784],[18.00441,47.74634],[18.03806,47.75768],[18.2908,47.73143],[18.45407,47.76512],[18.49316,47.75276],[18.55908,47.766],[18.64609,47.75909],[18.72607,47.78904],[18.74118,47.81382],[18.792,47.82309],[18.84854,47.81672],[18.85588,47.82608],[18.82801,47.83429],[18.82227,47.84998],[18.76378,47.87135],[18.75776,47.91972],[18.77405,47.93235],[18.77675,47.95509],[18.75488,47.97555],[18.81599,47.99368],[18.81557,48.02142],[18.82655,48.03135],[18.82,48.03968],[18.84558,48.05257],[18.87494,48.04707],[18.88667,48.05868],[18.90898,48.05114],[18.99129,48.05782],[19.01274,48.07335],[19.01333,48.09338],[19.06648,48.13486],[19.04952,48.16059],[19.07213,48.19435],[19.05014,48.20463],[19.02181,48.18984],[18.95903,48.18246],[18.93342,48.17412],[18.93166,48.15875],[18.87861,48.15652],[18.87151,48.16698],[18.83245,48.17775],[18.80885,48.16483],[18.7984,48.18738],[18.8317,48.2063],[18.80876,48.22991],[18.82092,48.23556],[18.80567,48.24528],[18.81721,48.26055],[18.84058,48.26807],[18.85242,48.30579],[18.84539,48.32061],[18.82495,48.33126],[18.81057,48.37053],[18.78378,48.37688],[18.74633,48.41636],[18.73144,48.41678],[18.69831,48.39311],[18.68912,48.37463],[18.67904,48.37374],[18.67554,48.35507],[18.65279,48.34518],[18.63495,48.35389],[18.61264,48.34378],[18.57351,48.34826],[18.53744,48.30981],[18.53363,48.32236],[18.54173,48.32705],[18.52441,48.33264],[18.53638,48.3318],[18.53683,48.34132],[18.56696,48.35869],[18.57624,48.37592],[18.56065,48.4182],[18.53878,48.41778],[18.54581,48.43604],[18.53511,48.43948],[18.53264,48.45201],[18.52097,48.45104],[18.54659,48.47696],[18.53107,48.47412],[18.53781,48.5035],[18.5105,48.50961],[18.4811,48.4998],[18.51805,48.52895],[18.50252,48.526],[18.47867,48.5486],[18.36599,48.49402],[18.36603,48.48568],[18.34982,48.50109],[18.34128,48.48971],[18.31137,48.49689],[18.28566,48.54088],[18.25489,48.55597],[18.23138,48.55135],[18.23521,48.56735],[18.21502,48.57379],[18.25609,48.60936],[18.1845,48.64637],[18.16466,48.64288],[18.10527,48.6969],[18.08801,48.69212],[18.00435,48.71317],[17.99087,48.70343],[17.99881,48.6722],[18.02335,48.63824],[18.01584,48.62313],[18.00202,48.62835],[17.9791,48.61253],[17.98302,48.59642],[17.94983,48.59056],[17.95285,48.58302],[17.91937,48.58211],[17.89578,48.59237],[17.87148,48.5615],[17.86512,48.53276],[17.84553,48.52157],[17.84647,48.51402],[17.89207,48.50398],[17.96467,48.4648],[17.94501,48.44093],[17.93236,48.44219],[17.90467,48.39643],[17.85532,48.35043],[17.86052,48.33704],[17.84934,48.33208],[17.8471,48.30662],[17.83295,48.29757],[17.86686,48.27872],[17.85065,48.26132],[17.85908,48.25259],[17.84627,48.24621],[17.88209,48.2086],[17.83765,48.18274],[17.82048,48.20105],[17.80101,48.19141],[17.82897,48.16719],[17.80681,48.15067],[17.77803,48.15817],[17.75477,48.14833],[17.8201,48.10575],[17.80562,48.07061],[17.81462,48.06539],[17.84355,48.07684],[17.85157,48.06928],[17.83847,48.06339],[17.88105,48.04569],[17.88447,48.03427],[17.86862,48.02249],[17.88053,47.98799],[17.8731,47.96331],[17.88599,47.94269],[17.87142,47.9279],[17.88891,47.91337],[17.8463,47.89186],[17.83274,47.87506],[17.80769,47.8706],[17.79549,47.85298],[17.79464,47.82194],[17.77069,47.81419],[17.7626,47.80207],[17.72982,47.80486],[17.73005,47.77577],[17.70542,47.75899]]]},"properties":{"id":"25762395B46915118171536","country":"SVK","name":"Region of Nitra","label":"Region of Nitra","center":[18.31061,48.14209],"strength":1.0,"showLabel":false,"priorityLabel":false}},{"type":"Feature","geometry":{"type":"Polygon","coordinates":[[[18.82635,48.74406],[18.88137,48.76977],[18.89186,48.75109],[18.92351,48.74115],[19.00007,48.7501],[19.01658,48.79026],[18.99245,48.80244],[19.00325,48.82253],[18.99438,48.84719],[19.01657,48.85557],[19.02288,48.87532],[19.04708,48.88368],[19.08104,48.87462],[19.15366,48.87789],[19.24405,48.89516],[19.26537,48.88384],[19.26648,48.86498],[19.25294,48.85611],[19.29781,48.85963],[19.31599,48.86922],[19.33124,48.89347],[19.35128,48.89807],[19.38461,48.92615],[19.44084,48.92745],[19.53993,48.94725],[19.62989,48.9395],[19.67527,48.91819],[19.69616,48.92328],[19.74462,48.89683],[19.81722,48.91636],[19.83832,48.90422],[19.95428,48.90703],[19.97688,48.91591],[19.99226,48.9075],[20.02659,48.91137],[20.06044,48.9323],[20.03276,48.93393],[20.01968,48.95009],[20.02318,48.96662],[19.96355,49.00893],[19.96896,49.01657],[20.01529,49.01598],[20.01286,49.03605],[20.02702,49.05558],[20.01938,49.07088],[20.03016,49.07783],[20.03775,49.10831],[19.9889,49.10536],[19.97088,49.11783],[19.95272,49.10927],[19.9487,49.12748],[19.98094,49.14052],[20.00013,49.16282],[19.958,49.14389],[19.9269,49.14194],[19.91331,49.12121],[19.89505,49.13094],[19.92321,49.16002],[19.91525,49.18189],[19.89762,49.18545],[19.90035,49.20022],[19.8811,49.20437],[19.841,49.19262],[19.82946,49.20169],[19.78425,49.19929],[19.76311,49.20758],[19.76677,49.2366],[19.78502,49.24666],[19.79247,49.26797],[19.8228,49.27679],[19.80988,49.2954],[19.79247,49.29974],[19.80496,49.32277],[19.79472,49.34453],[19.80382,49.36482],[19.79113,49.38351],[19.79059,49.41069],[19.74628,49.40794],[19.71764,49.38642],[19.68537,49.40358],[19.63173,49.4088],[19.6486,49.43536],[19.63779,49.44054],[19.64112,49.45756],[19.61145,49.44687],[19.59744,49.45863],[19.58147,49.45541],[19.53045,49.53577],[19.52933,49.57302],[19.47847,49.58803],[19.46738,49.61376],[19.44623,49.6133],[19.44202,49.5985],[19.40999,49.59216],[19.40002,49.57413],[19.37136,49.56744],[19.3623,49.53609],[19.26069,49.53123],[19.23327,49.51049],[19.23551,49.49566],[19.22047,49.47349],[19.22531,49.45431],[19.19858,49.44816],[19.18574,49.43472],[19.1974,49.41456],[19.15066,49.40364],[19.13752,49.40996],[19.10729,49.40368],[19.07273,49.41798],[19.05391,49.41516],[19.03502,49.39572],[18.97985,49.39522],[18.96875,49.41333],[18.98897,49.4313],[18.97387,49.45165],[18.96078,49.4547],[18.9702,49.47681],[18.96045,49.48275],[18.97277,49.50261],[18.94166,49.5189],[18.81237,49.51638],[18.75448,49.48838],[18.67782,49.50763],[18.63952,49.49623],[18.60282,49.49708],[18.59725,49.51024],[18.54575,49.50051],[18.53437,49.48455],[18.54795,49.46786],[18.48996,49.43318],[18.49411,49.42818],[18.47569,49.40855],[18.44996,49.3935],[18.40366,49.39669],[18.41557,49.36755],[18.39818,49.3568],[18.40425,49.35023],[18.36567,49.32442],[18.3226,49.31511],[18.3734,49.31898],[18.3771,49.30338],[18.43034,49.25499],[18.44665,49.21234],[18.4643,49.20457],[18.46765,49.1895],[18.57491,49.14319],[18.57469,49.1243],[18.59096,49.11649],[18.557,49.08759],[18.57903,49.0862],[18.59892,49.07274],[18.5996,49.02423],[18.56964,48.9981],[18.51087,48.98321],[18.49719,48.96354],[18.46373,48.95563],[18.46594,48.94804],[18.52341,48.93705],[18.55981,48.94933],[18.57795,48.97131],[18.5951,48.9568],[18.63173,48.96503],[18.69456,48.95918],[18.72028,48.93749],[18.69375,48.92561],[18.69364,48.9089],[18.70794,48.89749],[18.69542,48.8807],[18.69807,48.84771],[18.77796,48.81275],[18.76948,48.80858],[18.78032,48.80418],[18.77672,48.79078],[18.81014,48.76917],[18.82635,48.74406]]]},"properties":{"id":"25762395B19733540227871","country":"SVK","name":"Region of Žilina","label":"Region of Žilina","center":[19.17745,49.17729],"strength":1.0,"showLabel":false,"priorityLabel":false}},{"type":"Feature","geometry":{"type":"Polygon","coordinates":[[[18.47867,48.5486],[18.50252,48.526],[18.51805,48.52895],[18.4811,48.4998],[18.5105,48.50961],[18.53781,48.5035],[18.53107,48.47412],[18.54659,48.47696],[18.52097,48.45104],[18.53264,48.45201],[18.53511,48.43948],[18.54581,48.43604],[18.53878,48.41778],[18.56065,48.4182],[18.57075,48.40405],[18.57624,48.37592],[18.56696,48.35869],[18.54493,48.35016],[18.53638,48.3318],[18.52441,48.33264],[18.54173,48.32705],[18.53363,48.32236],[18.53615,48.31033],[18.57351,48.34826],[18.61264,48.34378],[18.63495,48.35389],[18.65279,48.34518],[18.67554,48.35507],[18.67904,48.37374],[18.68912,48.37463],[18.69831,48.39311],[18.73144,48.41678],[18.74633,48.41636],[18.78378,48.37688],[18.81057,48.37053],[18.82495,48.33126],[18.84539,48.32061],[18.85242,48.30579],[18.84058,48.26807],[18.81721,48.26055],[18.80567,48.24528],[18.82092,48.23556],[18.80876,48.22991],[18.8317,48.2063],[18.7984,48.18738],[18.80885,48.16483],[18.83245,48.17775],[18.87151,48.16698],[18.87861,48.15652],[18.93166,48.15875],[18.9382,48.17702],[19.02181,48.18984],[19.05014,48.20463],[19.07213,48.19435],[19.04952,48.16059],[19.06648,48.13486],[19.01216,48.08593],[19.02051,48.07095],[19.05852,48.05735],[19.08436,48.07278],[19.1074,48.0656],[19.13529,48.07415],[19.24137,48.05365],[19.25578,48.07156],[19.30311,48.08871],[19.3866,48.09191],[19.40002,48.0823],[19.44264,48.10127],[19.45405,48.10144],[19.4518,48.09173],[19.46766,48.08402],[19.49442,48.10991],[19.49238,48.13966],[19.51282,48.15466],[19.50452,48.17344],[19.52897,48.19036],[19.52604,48.20313],[19.5775,48.21601],[19.63083,48.25007],[19.64452,48.23917],[19.66986,48.23921],[19.69122,48.20389],[19.72113,48.20147],[19.74618,48.21651],[19.78716,48.19253],[19.79873,48.19482],[19.80528,48.18373],[19.78242,48.16504],[19.79481,48.15353],[19.82133,48.16908],[19.84528,48.16274],[19.85517,48.17843],[19.86013,48.16941],[19.89875,48.16631],[19.91454,48.14686],[19.8983,48.1249],[19.93738,48.13112],[19.97439,48.166],[19.98871,48.16217],[20.02904,48.17768],[20.04945,48.1672],[20.07299,48.17961],[20.07884,48.18374],[20.07004,48.1917],[20.13409,48.22518],[20.13963,48.24287],[20.13319,48.25398],[20.20616,48.25098],[20.20383,48.26191],[20.22847,48.26278],[20.23495,48.27993],[20.28686,48.26164],[20.32571,48.27279],[20.33747,48.30167],[20.36566,48.31661],[20.38412,48.35116],[20.40981,48.36587],[20.40253,48.38257],[20.42058,48.40414],[20.41614,48.41816],[20.44621,48.44502],[20.46982,48.45255],[20.45559,48.47357],[20.42028,48.47049],[20.3962,48.45648],[20.38003,48.46816],[20.34171,48.46107],[20.33446,48.46331],[20.3416,48.47278],[20.30642,48.47967],[20.30267,48.51888],[20.33171,48.53735],[20.35599,48.59884],[20.29646,48.61104],[20.30378,48.62349],[20.29344,48.64425],[20.30239,48.65802],[20.26352,48.69274],[20.1823,48.72823],[20.18195,48.75707],[20.20763,48.77356],[20.19432,48.79059],[20.19718,48.81858],[20.24101,48.8445],[20.24826,48.87052],[20.26746,48.87407],[20.17566,48.90797],[20.15807,48.8892],[20.01525,48.90116],[19.97688,48.91591],[19.95428,48.90703],[19.83832,48.90422],[19.80436,48.91555],[19.74462,48.89683],[19.69616,48.92328],[19.67527,48.91819],[19.62989,48.9395],[19.53993,48.94725],[19.44084,48.92745],[19.38461,48.92615],[19.35128,48.89807],[19.33124,48.89347],[19.31599,48.86922],[19.29781,48.85963],[19.25294,48.85611],[19.26648,48.86498],[19.26537,48.88384],[19.24405,48.89516],[19.15366,48.87789],[19.03562,48.88104],[19.02288,48.87532],[19.01657,48.85557],[18.99438,48.84719],[19.00325,48.82253],[18.99245,48.80244],[19.01658,48.79026],[19.00007,48.7501],[18.92351,48.74115],[18.89186,48.75109],[18.88137,48.76977],[18.85453,48.76344],[18.82635,48.74406],[18.79614,48.70061],[18.75447,48.69178],[18.74135,48.66204],[18.71389,48.64779],[18.71725,48.62679],[18.6565,48.63992],[18.60162,48.59259],[18.5977,48.57527],[18.57745,48.57747],[18.56727,48.56698],[18.53077,48.56132],[18.49747,48.56885],[18.47867,48.5486]]]},"properties":{"id":"25762395B36213439185612","country":"SVK","name":"Region of Banská Bystrica","label":"Region of Banská Bystrica","center":[19.50422,48.51571],"strength":1.0,"showLabel":false,"priorityLabel":false}},{"type":"Feature","geometry":{"type":"Polygon","coordinates":[[[19.99226,48.9075],[20.15807,48.8892],[20.17566,48.90797],[20.27691,48.87101],[20.28884,48.87566],[20.29526,48.89929],[20.30648,48.9074],[20.32437,48.90342],[20.34227,48.92366],[20.32332,48.93599],[20.29918,48.93444],[20.30072,48.94507],[20.36711,48.98132],[20.41388,48.98758],[20.42889,49.00351],[20.45582,48.98873],[20.46691,48.99427],[20.47814,48.98553],[20.47654,48.97397],[20.49014,48.9678],[20.48333,48.98919],[20.50975,48.99388],[20.48158,49.00292],[20.50596,49.00209],[20.51716,49.01833],[20.53146,49.01885],[20.52615,48.99927],[20.57634,48.97078],[20.61789,48.97882],[20.63231,48.95224],[20.67418,48.95756],[20.67829,48.97312],[20.71105,48.98195],[20.73396,48.96708],[20.75332,48.97735],[20.7661,48.96605],[20.78161,48.97129],[20.77118,48.97555],[20.76928,49.00303],[20.77289,48.99181],[20.78372,48.99947],[20.81527,48.98692],[20.83942,48.99074],[20.81773,48.98061],[20.82277,48.97521],[20.87724,48.97538],[20.94997,48.9474],[20.98503,48.9594],[20.99017,48.93603],[21.01351,48.9238],[21.02538,48.90391],[21.05805,48.90571],[21.09865,48.89393],[21.13541,48.90137],[21.15631,48.89516],[21.18152,48.87062],[21.19698,48.88454],[21.22372,48.871],[21.22585,48.87886],[21.23635,48.86894],[21.2601,48.87369],[21.26667,48.85972],[21.24384,48.85182],[21.24606,48.82885],[21.27975,48.81079],[21.31365,48.81506],[21.3012,48.82821],[21.3168,48.83715],[21.36726,48.83809],[21.38368,48.85807],[21.3772,48.88191],[21.39434,48.88511],[21.41426,48.87186],[21.42053,48.89416],[21.43012,48.87295],[21.48394,48.88227],[21.48428,48.86886],[21.50197,48.86209],[21.4944,48.84738],[21.52666,48.82759],[21.52581,48.81271],[21.54157,48.79408],[21.57593,48.79097],[21.58361,48.78047],[21.61574,48.77357],[21.65956,48.77992],[21.67467,48.76553],[21.70267,48.76315],[21.72394,48.76888],[21.72979,48.78068],[21.75581,48.77454],[21.77019,48.78737],[21.80234,48.79054],[21.80698,48.80605],[21.79249,48.82183],[21.79786,48.83644],[21.78637,48.86029],[21.79362,48.86438],[21.78342,48.88125],[21.78703,48.89585],[21.79964,48.90138],[21.82105,48.89911],[21.83319,48.88655],[21.84945,48.89398],[21.91286,48.88148],[21.94586,48.8689],[21.94662,48.85181],[21.9912,48.84748],[21.99105,48.83971],[22.13122,48.84463],[22.12611,48.88798],[22.15658,48.89351],[22.18863,48.92915],[22.21432,48.92982],[22.23101,48.92556],[22.2576,48.86577],[22.32677,48.87512],[22.37582,48.86998],[22.38285,48.86211],[22.39455,48.8772],[22.42112,48.8846],[22.43155,48.91925],[22.42492,48.92933],[22.47561,48.97628],[22.47731,48.99118],[22.54549,49.00677],[22.53799,49.02132],[22.55108,49.03016],[22.55324,49.07948],[22.56571,49.088],[22.53942,49.09469],[22.49702,49.08589],[22.45607,49.10377],[22.42265,49.09949],[22.36726,49.1466],[22.3346,49.14647],[22.31765,49.13555],[22.22571,49.15254],[22.2358,49.17008],[22.22246,49.18446],[22.1899,49.17402],[22.1431,49.19274],[22.14381,49.20051],[22.06196,49.21159],[22.03042,49.22517],[22.04189,49.25716],[22.03032,49.26267],[22.03402,49.27855],[21.98318,49.31037],[21.96195,49.34855],[21.90377,49.34996],[21.88733,49.36898],[21.859,49.36856],[21.83832,49.39167],[21.80299,49.38218],[21.78784,49.36772],[21.78922,49.35549],[21.77799,49.35605],[21.76338,49.38347],[21.7269,49.39811],[21.72177,49.41228],[21.65891,49.4168],[21.63094,49.44731],[21.59056,49.43382],[21.56398,49.44126],[21.53027,49.43508],[21.51705,49.4178],[21.49266,49.4295],[21.4737,49.41359],[21.43408,49.41228],[21.40202,49.43342],[21.37275,49.43264],[21.34468,49.45042],[21.30718,49.448],[21.27752,49.46094],[21.26592,49.44698],[21.23275,49.43655],[21.22725,49.41695],[21.20819,49.40248],[21.19213,49.40099],[21.12402,49.43658],[21.11373,49.42394],[21.09639,49.42949],[21.04754,49.41834],[21.05431,49.40422],[21.1041,49.3764],[21.09411,49.36506],[21.04255,49.36488],[20.98907,49.32845],[20.99414,49.31268],[20.98654,49.30662],[20.96961,49.30989],[20.92408,49.29597],[20.90358,49.32353],[20.87274,49.31979],[20.88239,49.3331],[20.86555,49.34748],[20.83733,49.33402],[20.81184,49.34769],[20.79738,49.34317],[20.79787,49.3587],[20.80688,49.35315],[20.80932,49.35937],[20.78248,49.36103],[20.78541,49.3744],[20.76143,49.37161],[20.76136,49.38425],[20.74753,49.391],[20.75803,49.4004],[20.74227,49.40383],[20.74611,49.41164],[20.7369,49.41668],[20.69172,49.41978],[20.64699,49.40067],[20.61493,49.41784],[20.6136,49.40182],[20.57552,49.37611],[20.50994,49.39345],[20.47196,49.41544],[20.43229,49.41758],[20.43327,49.39661],[20.41688,49.40579],[20.41229,49.3952],[20.39304,49.39058],[20.38248,49.39102],[20.37568,49.40786],[20.36227,49.39826],[20.32508,49.40303],[20.31751,49.38873],[20.33128,49.39143],[20.31649,49.34453],[20.22082,49.35179],[20.17058,49.32773],[20.1758,49.31408],[20.15772,49.30282],[20.1455,49.31751],[20.12514,49.27093],[20.10077,49.25009],[20.10162,49.22266],[20.08438,49.19618],[20.0879,49.17951],[20.02053,49.2015],[20.00863,49.22005],[19.98156,49.2318],[19.90363,49.23076],[19.90233,49.21331],[19.88393,49.20418],[19.90035,49.20022],[19.89762,49.18545],[19.91525,49.18189],[19.92321,49.16002],[19.89505,49.13094],[19.91331,49.12121],[19.9269,49.14194],[19.958,49.14389],[20.00013,49.16282],[19.98094,49.14052],[19.9487,49.12748],[19.95272,49.10927],[19.97088,49.11783],[19.9889,49.10536],[20.03775,49.10831],[20.03016,49.07783],[20.01938,49.07088],[20.02702,49.05558],[20.01286,49.03605],[20.01529,49.01598],[19.96896,49.01657],[19.96355,49.00893],[20.02318,48.96662],[20.01968,48.95009],[20.03276,48.93393],[20.06044,48.9323],[20.03504,48.9143],[19.99226,48.9075]]]},"properties":{"id":"25762395B99480342603175","country":"SVK","name":"Region of Prešov","label":"Пряшівський край","center":[21.22483,49.1235],"strength":1.0,"showLabel":true,"priorityLabel":false}},{"type":"Feature","geometry":{"type":"Polygon","coordinates":[[[20.46389,48.4639],[20.50776,48.48932],[20.50651,48.53442],[20.53747,48.52788],[20.54649,48.54429],[20.58659,48.53576],[20.65387,48.56141],[20.71313,48.57039],[20.72811,48.56448],[20.85044,48.58163],[20.84533,48.5665],[20.86816,48.55182],[20.92232,48.55945],[20.93463,48.53836],[20.95588,48.53396],[20.9562,48.52167],[20.98158,48.51777],[21.01511,48.53231],[21.06632,48.52589],[21.09017,48.51748],[21.09498,48.49971],[21.11745,48.49106],[21.16088,48.5215],[21.17963,48.51823],[21.22106,48.5375],[21.30549,48.52225],[21.32144,48.54767],[21.31338,48.55084],[21.32688,48.55413],[21.31608,48.55529],[21.31938,48.5612],[21.41545,48.55895],[21.42266,48.57882],[21.44007,48.58524],[21.51409,48.55107],[21.52523,48.52263],[21.54202,48.5084],[21.61393,48.50942],[21.62019,48.46983],[21.66355,48.41796],[21.66456,48.39216],[21.70174,48.3807],[21.72443,48.34968],[21.82233,48.33258],[21.83533,48.33485],[21.83721,48.36325],[21.85509,48.36607],[21.86297,48.35521],[21.88142,48.36259],[21.8843,48.35605],[21.88484,48.36754],[21.89788,48.36256],[21.8998,48.37022],[21.92819,48.3616],[21.92681,48.3709],[21.9492,48.37873],[21.99446,48.37732],[22.02133,48.39275],[22.0546,48.37753],[22.07649,48.38724],[22.08674,48.37156],[22.13591,48.38052],[22.13106,48.39123],[22.15529,48.39934],[22.13706,48.4188],[22.16097,48.56726],[22.18864,48.60962],[22.22999,48.62055],[22.25029,48.6474],[22.30255,48.67638],[22.33961,48.68389],[22.3618,48.7302],[22.36223,48.74],[22.34267,48.75068],[22.3457,48.76615],[22.38765,48.80004],[22.37591,48.83403],[22.38285,48.86211],[22.37582,48.86998],[22.32677,48.87512],[22.2576,48.86577],[22.23101,48.92556],[22.21432,48.92982],[22.18863,48.92915],[22.15658,48.89351],[22.12611,48.88798],[22.13122,48.84463],[21.99105,48.83971],[21.9912,48.84748],[21.94662,48.85181],[21.94586,48.8689],[21.91286,48.88148],[21.84945,48.89398],[21.83319,48.88655],[21.82105,48.89911],[21.79964,48.90138],[21.78703,48.89585],[21.78342,48.88125],[21.79362,48.86438],[21.78637,48.86029],[21.79786,48.83644],[21.79249,48.82183],[21.80698,48.80605],[21.80234,48.79054],[21.77019,48.78737],[21.75581,48.77454],[21.72979,48.78068],[21.7203,48.76664],[21.68519,48.76256],[21.65956,48.77992],[21.61574,48.77357],[21.58361,48.78047],[21.57593,48.79097],[21.54157,48.79408],[21.52581,48.81271],[21.52666,48.82759],[21.4944,48.84738],[21.50197,48.86209],[21.48428,48.86886],[21.48394,48.88227],[21.43012,48.87295],[21.42053,48.89416],[21.41426,48.87186],[21.39434,48.88511],[21.3772,48.88191],[21.38368,48.85807],[21.36726,48.83809],[21.3168,48.83715],[21.3012,48.82821],[21.31365,48.81506],[21.27975,48.81079],[21.24606,48.82885],[21.24384,48.85182],[21.26667,48.85972],[21.2601,48.87369],[21.23635,48.86894],[21.22585,48.87886],[21.22372,48.871],[21.19698,48.88454],[21.18152,48.87062],[21.15631,48.89516],[21.13541,48.90137],[21.09865,48.89393],[21.05805,48.90571],[21.02538,48.90391],[21.01351,48.9238],[20.99017,48.93603],[20.98503,48.9594],[20.94997,48.9474],[20.87724,48.97538],[20.82277,48.97521],[20.81773,48.98061],[20.83942,48.99074],[20.81527,48.98692],[20.78372,48.99947],[20.77289,48.99181],[20.76928,49.00303],[20.77118,48.97555],[20.78161,48.97129],[20.7661,48.96605],[20.75332,48.97735],[20.73396,48.96708],[20.71105,48.98195],[20.67829,48.97312],[20.67418,48.95756],[20.63231,48.95224],[20.61789,48.97882],[20.57634,48.97078],[20.52615,48.99927],[20.53146,49.01885],[20.51716,49.01833],[20.50596,49.00209],[20.48158,49.00292],[20.50975,48.99388],[20.48333,48.98919],[20.49014,48.9678],[20.47654,48.97397],[20.47814,48.98553],[20.46691,48.99427],[20.45582,48.98873],[20.42889,49.00351],[20.41388,48.98758],[20.36711,48.98132],[20.30072,48.94507],[20.29918,48.93444],[20.33325,48.93329],[20.33933,48.91592],[20.32437,48.90342],[20.30648,48.9074],[20.29526,48.89929],[20.28884,48.87566],[20.24826,48.87052],[20.24101,48.8445],[20.19718,48.81858],[20.19432,48.79059],[20.20763,48.77356],[20.18195,48.75707],[20.18122,48.741],[20.1909,48.72011],[20.20973,48.72203],[20.26352,48.69274],[20.30239,48.65802],[20.29344,48.64425],[20.30378,48.62349],[20.29646,48.61104],[20.35599,48.59884],[20.33171,48.53735],[20.30267,48.51888],[20.30642,48.47967],[20.3416,48.47278],[20.33446,48.46331],[20.34171,48.46107],[20.38003,48.46816],[20.3962,48.45648],[20.42028,48.47049],[20.45559,48.47357],[20.46389,48.4639]]]},"properties":{"id":"25762395B28279050649796","country":"SVK","name":"Region of Košice","label":"Кошицький край","center":[21.26684,48.69737],"strength":1.0,"showLabel":true,"priorityLabel":false}}]}